{"title": "List of Islands of yamaguchi", "title_ja": "山口県の島の一覧", "reference": "wikipedia: 山口県の島", "url_reference": "https://ja.wikipedia.org/wiki/Category:%E5%B1%B1%E5%8F%A3%E7%9C%8C%E3%81%AE%E5%B3%B6", "islands": [{"name_en": "aishima_yamaguchi", "name_island": "相島_山口", "url_island": "https://ja.wikipedia.org/wiki/%E7%9B%B8%E5%B3%B6_(%E5%B1%B1%E5%8F%A3%E7%9C%8C)", "name_municipality": "萩市", "url_municipality": "https://ja.wikipedia.org/wiki/%E8%90%A9%E5%B8%82", "lat": 34.507528, "lon": 131.281278}, {"name_en": "koiwai_jima", "name_island": "小祝島", "url_island": "", "name_municipality": "上関町", "url_municipality": "https://ja.wikipedia.org/wiki/%E4%B8%8A%E9%96%A2%E7%94%BA", "lat": 33.790998, "lon": 131.935076}, {"name_en": "ushima_yamaguchi", "name_island": "牛島_山口", "url_island": "https://ja.wikipedia.org/wiki/%E7%89%9B%E5%B3%B6_(%E5%B1%B1%E5%8F%A3%E7%9C%8C)", "name_municipality": "光市", "url_municipality": "https://ja.wikipedia.org/wiki/%E5%85%89%E5%B8%82", "lat": 33.856972, "lon": 132.011778}, {"name_en": "oomi_jima", "name_island": "青海島", "url_island": "https://ja.wikipedia.org/wiki/%E9%9D%92%E6%B5%B7%E5%B3%B6", "name_municipality": "長門市", "url_municipality": "https://ja.wikipedia.org/wiki/%E9%95%B7%E9%96%80%E5%B8%82", "lat": 34.428944, "lon": 131.222167}, {"name_en": "ooshima_hagi", "name_island": "大島_萩", "url_island": "https://ja.wikipedia.org/wiki/%E5%A4%A7%E5%B3%B6_(%E5%B1%B1%E5%8F%A3%E7%9C%8C%E8%90%A9%E5%B8%82)", "name_municipality": "萩市", "url_municipality": "https://ja.wikipedia.org/wiki/%E8%90%A9%E5%B8%82", "lat": 34.502028, "lon": 131.410194}, {"name_en": "ooshima_2", "name_island": "大島_2", "url_island": "", "name_municipality": "長門市", "url_municipality": "https://ja.wikipedia.org/wiki/%E9%95%B7%E9%96%80%E5%B8%82", "lat": 34.413759, "lon": 131.2690706}, {"name_en": "oozu_jima", "name_island": "大津島", "url_island": "https://ja.wikipedia.org/wiki/%E5%A4%A7%E6%B4%A5%E5%B3%B6", "name_municipality": "周南市", "url_municipality": "https://ja.wikipedia.org/wiki/%E5%91%A8%E5%8D%97%E5%B8%82", "lat": 34.0063, "lon": 131.7029}, {"name_en": "oshima", "name_island": "尾島", "url_island": "https://ja.wikipedia.org/wiki/%E5%B0%BE%E5%B3%B6", "name_municipality": "萩市", "url_municipality": "https://ja.wikipedia.org/wiki/%E8%90%A9%E5%B8%82", "lat": 34.498889, "lon": 131.343056}, {"name_en": "kasadoshima", "name_island": "笠戸島", "url_island": "https://ja.wikipedia.org/wiki/%E7%AC%A0%E6%88%B8%E5%B3%B6", "name_municipality": "下松市", "url_municipality": "https://ja.wikipedia.org/wiki/%E4%B8%8B%E6%9D%BE%E5%B8%82", "lat": 33.936944, "lon": 131.826111}, {"name_en": "ganryu_jima", "name_island": "巖流島", "url_island": "https://ja.wikipedia.org/wiki/%E5%B7%8C%E6%B5%81%E5%B3%B6", "name_municipality": "下関市", "url_municipality": "https://ja.wikipedia.org/wiki/%E4%B8%8B%E9%96%A2%E5%B8%82", "lat": 33.932778, "lon": 130.930556}, {"name_en": "kurokami_jima", "name_island": "黒髪島", "url_island": "https://ja.wikipedia.org/wiki/%E9%BB%92%E9%AB%AA%E5%B3%B6", "name_municipality": "周南市", "url_municipality": "https://ja.wikipedia.org/wiki/%E5%91%A8%E5%8D%97%E5%B8%82", "lat": 34.029667, "lon": 131.738667}, {"name_en": "kuroshima_yamaguchi", "name_island": "黒島_山口", "url_island": "https://ja.wikipedia.org/wiki/%E9%BB%92%E5%B3%B6_(%E5%B1%B1%E5%8F%A3%E7%9C%8C)", "name_municipality": "岩国市", "url_municipality": "https://ja.wikipedia.org/wiki/%E5%B2%A9%E5%9B%BD%E5%B8%82", "lat": 33.996111, "lon": 132.3325}, {"name_en": "takrshima_yamaguchi", "name_island": "竹島_山口", "url_island": "https://ja.wikipedia.org/wiki/%E7%AB%B9%E5%B3%B6_(%E5%B1%B1%E5%8F%A3%E7%9C%8C)", "name_municipality": "山口市", "url_municipality": "https://ja.wikipedia.org/wiki/%E5%B1%B1%E5%8F%A3%E5%B8%82", "lat": 33.96925, "lon": 131.422361}, {"name_en": "takenoko_jima", "name_island": "竹ノ子島", "url_island": "https://ja.wikipedia.org/wiki/%E7%AB%B9%E3%83%8E%E5%AD%90%E5%B3%B6", "name_municipality": "下関市", "url_municipality": "https://ja.wikipedia.org/wiki/%E4%B8%8B%E9%96%A2%E5%B8%82", "lat": 33.950556, "lon": 130.876944}, {"name_en": "tsunoshima", "name_island": "角島", "url_island": "https://ja.wikipedia.org/wiki/%E8%A7%92%E5%B3%B6", "name_municipality": "下関市", "url_municipality": "https://ja.wikipedia.org/wiki/%E4%B8%8B%E9%96%A2%E5%B8%82", "lat": 34.353889, "lon": 130.859167}, {"name_en": "nagashima_2", "name_island": "長島_2", "url_island": "", "name_municipality": "岩国市", "url_municipality": "https://ja.wikipedia.org/wiki/%E5%B2%A9%E5%9B%BD%E5%B8%82", "lat": 33.990551, "lon": 132.430927}, {"name_en": "noshima_yamaguchi", "name_island": "野島_山口", "url_island": "https://ja.wikipedia.org/wiki/%E9%87%8E%E5%B3%B6_(%E5%B1%B1%E5%8F%A3%E7%9C%8C)", "name_municipality": "防府市", "url_municipality": "https://ja.wikipedia.org/wiki/%E9%98%B2%E5%BA%9C%E5%B8%82", "lat": 33.940861, "lon": 131.695944}, {"name_en": "hashira_jima", "name_island": "柱島", "url_island": "https://ja.wikipedia.org/wiki/%E6%9F%B1%E5%B3%B6", "name_municipality": "岩国市", "url_municipality": "https://ja.wikipedia.org/wiki/%E5%B2%A9%E5%9B%BD%E5%B8%82", "lat": 34.02, "lon": 132.411944}, {"name_en": "kobashira_jima", "name_island": "小柱島", "url_island": "", "name_municipality": "岩国市", "url_municipality": "https://ja.wikipedia.org/wiki/%E5%B2%A9%E5%9B%BD%E5%B8%82", "lat": 34.034682, "lon": 132.421922}, {"name_en": "hishima_yamaguchi", "name_island": "肥島_山口", "url_island": "https://ja.wikipedia.org/wiki/%E8%82%A5%E5%B3%B6_(%E5%B1%B1%E5%8F%A3%E7%9C%8C)", "name_municipality": "萩市", "url_municipality": "https://ja.wikipedia.org/wiki/%E8%90%A9%E5%B8%82", "lat": 34.483819, "lon": 131.378772}, {"name_en": "hitsushima", "name_island": "櫃島", "url_island": "https://ja.wikipedia.org/wiki/%E6%AB%83%E5%B3%B6", "name_municipality": "萩市", "url_municipality": "https://ja.wikipedia.org/wiki/%E8%90%A9%E5%B8%82", "lat": 34.518139, "lon": 131.387889}, {"name_en": "futaoi_jima", "name_island": "蓋井島", "url_island": "https://ja.wikipedia.org/wiki/%E8%93%8B%E4%BA%95%E5%B3%B6", "name_municipality": "下関市", "url_municipality": "https://ja.wikipedia.org/wiki/%E4%B8%8B%E9%96%A2%E5%B8%82", "lat": 34.10375, "lon": 130.786806}, {"name_en": "manjyushima", "name_island": "満珠島", "url_island": "https://ja.wikipedia.org/wiki/%E6%BA%80%E7%8F%A0%E5%B3%B6%E3%83%BB%E5%B9%B2%E7%8F%A0%E5%B3%B6", "name_municipality": "下関市", "url_municipality": "https://ja.wikipedia.org/wiki/%E4%B8%8B%E9%96%A2%E5%B8%82", "lat": 33.995556, "lon": 131.026389}, {"name_en": "mutsure_jima", "name_island": "六連島", "url_island": "https://ja.wikipedia.org/wiki/%E5%85%AD%E9%80%A3%E5%B3%B6", "name_municipality": "下関市", "url_municipality": "https://ja.wikipedia.org/wiki/%E4%B8%8B%E9%96%A2%E5%B8%82", "lat": 33.975278, "lon": 130.865278}, {"name_en": "uda_jima", "name_island": "宇田島", "url_island": "", "name_municipality": "阿武町", "url_municipality": "https://ja.wikipedia.org/wiki/%E9%98%BF%E6%AD%A6%E7%94%BA", "lat": 34.57383, "lon": 131.479113}, {"name_en": "hime_jima", "name_island": "姫島", "url_island": "", "name_municipality": "阿武町", "url_municipality": "https://ja.wikipedia.org/wiki/%E9%98%BF%E6%AD%A6%E7%94%BA", "lat": 34.565454, "lon": 131.514708}, {"name_en": "hane_jima", "name_island": "羽島", "url_island": "", "name_municipality": "萩市", "url_municipality": "https://ja.wikipedia.org/wiki/%E8%90%A9%E5%B8%82", "lat": 34.464375, "lon": 131.377091}, {"name_en": "kitsune_jima", "name_island": "狐島", "url_island": "", "name_municipality": "萩市", "url_municipality": "https://ja.wikipedia.org/wiki/%E8%90%A9%E5%B8%82", "lat": 34.439105, "lon": 131.415503}, {"name_en": "saba_jima", "name_island": "鯖島", "url_island": "", "name_municipality": "萩市", "url_municipality": "https://ja.wikipedia.org/wiki/%E8%90%A9%E5%B8%82", "lat": 34.429375, "lon": 131.319502}, {"name_en": "koujima", "name_island": "幸島", "url_island": "", "name_municipality": "長門市", "url_municipality": "https://ja.wikipedia.org/wiki/%E9%95%B7%E9%96%80%E5%B8%82", "lat": 34.392604, "lon": 131.254682}, {"name_en": "tenaga_jima", "name_island": "手長島", "url_island": "", "name_municipality": "長門市", "url_municipality": "https://ja.wikipedia.org/wiki/%E9%95%B7%E9%96%80%E5%B8%82", "lat": 34.390997, "lon": 131.009692}, {"name_en": "onshima", "name_island": "男島", "url_island": "", "name_municipality": "下関市", "url_municipality": "https://ja.wikipedia.org/wiki/%E4%B8%8B%E9%96%A2%E5%B8%82", "lat": 34.17294, "lon": 130.901671}, {"name_en": "menshima", "name_island": "女島", "url_island": "", "name_municipality": "下関市", "url_municipality": "https://ja.wikipedia.org/wiki/%E4%B8%8B%E9%96%A2%E5%B8%82", "lat": 34.17826, "lon": 130.899327}, {"name_en": "kabutojima_yamaguchi", "name_island": "甲島_山口", "url_island": "https://ja.wikipedia.org/wiki/%E7%94%B2%E5%B3%B6_(%E5%BA%83%E5%B3%B6%E3%83%BB%E5%B1%B1%E5%8F%A3)", "name_municipality": "岩国市", "url_municipality": "https://ja.wikipedia.org/wiki/%E5%B2%A9%E5%9B%BD%E5%B8%82", "lat": 34.120099, "lon": 132.315316}, {"name_en": "hodaka_jima", "name_island": "保高島", "url_island": "", "name_municipality": "岩国市", "url_municipality": "https://ja.wikipedia.org/wiki/%E5%B2%A9%E5%9B%BD%E5%B8%82", "lat": 34.070561, "lon": 132.39254}, {"name_en": "teshima", "name_island": "手島", "url_island": "", "name_municipality": "岩国市", "url_municipality": "https://ja.wikipedia.org/wiki/%E5%B2%A9%E5%9B%BD%E5%B8%82", "lat": 34.05705, "lon": 132.39597}, {"name_en": "kobashira_jima", "name_island": "小柱島", "url_island": "", "name_municipality": "岩国市", "url_municipality": "https://ja.wikipedia.org/wiki/%E5%B2%A9%E5%9B%BD%E5%B8%82", "lat": 34.034682, "lon": 132.421922}, {"name_en": "tsuzukijima", "name_island": "続島", "url_island": "", "name_municipality": "岩国市", "url_municipality": "https://ja.wikipedia.org/wiki/%E5%B2%A9%E5%9B%BD%E5%B8%82", "lat": 34.0048, "lon": 132.4299}, {"name_en": "fukura_jima", "name_island": "福良島", "url_island": "", "name_municipality": "岩国市", "url_municipality": "https://ja.wikipedia.org/wiki/%E5%B2%A9%E5%9B%BD%E5%B8%82", "lat": 33.981795, "lon": 132.430737}, {"name_en": "moro_jima", "name_island": "諸島", "url_island": "", "name_municipality": "周防大島町", "url_municipality": "https://ja.wikipedia.org/wiki/%E5%91%A8%E9%98%B2%E5%A4%A7%E5%B3%B6%E7%94%BA", "lat": 33.955825, "lon": 132.4891775}, {"name_en": "katashima", "name_island": "片島", "url_island": "", "name_municipality": "周防大島町", "url_municipality": "https://ja.wikipedia.org/wiki/%E5%91%A8%E9%98%B2%E5%A4%A7%E5%B3%B6%E7%94%BA", "lat": 33.92239, "lon": 132.457955}, {"name_en": "sasa_jima", "name_island": "笹島", "url_island": "", "name_municipality": "周防大島町", "url_municipality": "https://ja.wikipedia.org/wiki/%E5%91%A8%E9%98%B2%E5%A4%A7%E5%B3%B6%E7%94%BA", "lat": 33.903108, "lon": 132.392937}, {"name_en": "tatsushima", "name_island": "立島", "url_island": "", "name_municipality": "周防大島町", "url_municipality": "https://ja.wikipedia.org/wiki/%E5%91%A8%E9%98%B2%E5%A4%A7%E5%B3%B6%E7%94%BA", "lat": 33.865175, "lon": 132.311865}, {"name_en": "kamininai_tou", "name_island": "上荷内島", "url_island": "", "name_municipality": "周防大島町", "url_municipality": "https://ja.wikipedia.org/wiki/%E5%91%A8%E9%98%B2%E5%A4%A7%E5%B3%B6%E7%94%BA", "lat": 33.848501, "lon": 132.200777}, {"name_en": "shimoninai_tou", "name_island": "下荷内島", "url_island": "", "name_municipality": "周防大島町", "url_municipality": "https://ja.wikipedia.org/wiki/%E5%91%A8%E9%98%B2%E5%A4%A7%E5%B3%B6%E7%94%BA", "lat": 33.847053, "lon": 132.182124}, {"name_en": "taira_jima", "name_island": "平島", "url_island": "", "name_municipality": "防府市", "url_municipality": "https://ja.wikipedia.org/wiki/%E9%98%B2%E5%BA%9C%E5%B8%82", "lat": 33.953004, "lon": 131.698785}, {"name_en": "susaki", "name_island": "州崎", "url_island": "", "name_municipality": "上関町", "url_municipality": "https://ja.wikipedia.org/wiki/%E4%B8%8A%E9%96%A2%E7%94%BA", "lat": 33.760724, "lon": 132.150214}, {"name_en": "uwa_jima", "name_island": "宇和島", "url_island": "", "name_municipality": "上関町", "url_municipality": "https://ja.wikipedia.org/wiki/%E4%B8%8A%E9%96%A2%E7%94%BA", "lat": 33.737613, "lon": 132.028109}, {"name_en": "kaketsu_jima", "name_island": "掛津島", "url_island": "", "name_municipality": "柳井市", "url_municipality": "https://ja.wikipedia.org/wiki/%E6%9F%B3%E4%BA%95%E5%B8%82", "lat": 33.812322, "lon": 132.2537893}, {"name_en": "mishima", "name_island": "見島", "url_island": "https://ja.wikipedia.org/wiki/%E8%A6%8B%E5%B3%B6", "name_municipality": "萩市", "url_municipality": "https://ja.wikipedia.org/wiki/%E8%90%A9%E5%B8%82", "lat": 34.774279, "lon": 131.1428708}, {"name_en": "oominasejimasejima_1", "name_island": "大水無瀬島_1", "url_island": "", "name_municipality": "周防大島町", "url_municipality": "https://ja.wikipedia.org/wiki/%E5%91%A8%E9%98%B2%E5%A4%A7%E5%B3%B6%E7%94%BA", "lat": 33.807324, "lon": 132.396345}, {"name_en": "oominasejima_2", "name_island": "大水無瀬島_2", "url_island": "", "name_municipality": "光市", "url_municipality": "https://ja.wikipedia.org/wiki/%E5%85%89%E5%B8%82", "lat": 33.938868, "lon": 131.929226}, {"name_en": "kominase_jima", "name_island": "小水無瀬島", "url_island": "", "name_municipality": "周防大島町", "url_municipality": "https://ja.wikipedia.org/wiki/%E5%91%A8%E9%98%B2%E5%A4%A7%E5%B3%B6%E7%94%BA", "lat": 33.780233, "lon": 132.390472}, {"name_en": "yokoshima", "name_island": "横島", "url_island": "", "name_municipality": "上関町", "url_municipality": "https://ja.wikipedia.org/wiki/%E4%B8%8A%E9%96%A2%E7%94%BA", "lat": 33.818078, "lon": 132.119999}, {"name_en": "amaya_jima", "name_island": "天田島", "url_island": "", "name_municipality": "上関町", "url_municipality": "https://ja.wikipedia.org/wiki/%E4%B8%8A%E9%96%A2%E7%94%BA", "lat": 33.775291, "lon": 132.051207}, {"name_en": "hanaguri_jima", "name_island": "鼻繰島", "url_island": "", "name_municipality": "上関町", "url_municipality": "https://ja.wikipedia.org/wiki/%E4%B8%8A%E9%96%A2%E7%94%BA", "lat": 33.785011, "lon": 132.025487}, {"name_en": "kurakake_jima", "name_island": "鞍掛島", "url_island": "", "name_municipality": "岩国市", "url_municipality": "https://ja.wikipedia.org/wiki/%E5%B2%A9%E5%9B%BD%E5%B8%82", "lat": 33.988002, "lon": 132.351744}, {"name_en": "kashira_jima", "name_island": "頭島", "url_island": "", "name_municipality": "周防大島町", "url_municipality": "https://ja.wikipedia.org/wiki/%E5%91%A8%E9%98%B2%E5%A4%A7%E5%B3%B6%E7%94%BA", "lat": 33.968114, "lon": 132.350289}, {"name_en": "sashima", "name_island": "蛇島", "url_island": "", "name_municipality": "周南市", "url_municipality": "https://ja.wikipedia.org/wiki/%E5%91%A8%E5%8D%97%E5%B8%82", "lat": 34.021832, "lon": 131.796215}, {"name_en": "koshima", "name_island": "古島", "url_island": "", "name_municipality": "下松市", "url_municipality": "https://ja.wikipedia.org/wiki/%E4%B8%8B%E6%9D%BE%E5%B8%82", "lat": 33.959937, "lon": 131.8006638}, {"name_en": "sukumo_jima", "name_island": "粭島", "url_island": "https://ja.wikipedia.org/wiki/%E7%B2%AD%E5%B3%B6", "name_municipality": "周南市", "url_municipality": "https://ja.wikipedia.org/wiki/%E5%91%A8%E5%8D%97%E5%B8%82", "lat": 33.979053, "lon": 131.762583}, {"name_en": "sushima", "name_island": "州島", "url_island": "", "name_municipality": "周南市", "url_municipality": "https://ja.wikipedia.org/wiki/%E5%91%A8%E5%8D%97%E5%B8%82", "lat": 33.980375, "lon": 131.735582}, {"name_en": "haneshima", "name_island": "刎島", "url_island": "", "name_municipality": "田布施町", "url_municipality": "https://ja.wikipedia.org/wiki/%E7%94%B0%E5%B8%83%E6%96%BD%E7%94%BA", "lat": 33.886709, "lon": 132.057034}, {"name_en": "tsuwaji_jima", "name_island": "津和地島", "url_island": "https://ja.wikipedia.org/wiki/%E6%B4%A5%E5%92%8C%E5%9C%B0%E5%B3%B6", "name_municipality": "松山市", "url_municipality": "https://ja.wikipedia.org/wiki/%E6%9D%BE%E5%B1%B1%E5%B8%82", "lat": 33.980556, "lon": 132.506667}, {"name_en": "nakajima_ehime", "name_island": "中島_愛媛", "url_island": "https://ja.wikipedia.org/wiki/%E4%B8%AD%E5%B3%B6_(%E6%84%9B%E5%AA%9B%E7%9C%8C)", "name_municipality": "松山市", "url_municipality": "https://ja.wikipedia.org/wiki/%E6%9D%BE%E5%B1%B1%E5%B8%82", "lat": 33.966667, "lon": 132.616667}, {"name_en": "muwa_jima", "name_island": "怒和島", "url_island": "https://ja.wikipedia.org/wiki/%E6%80%92%E5%92%8C%E5%B3%B6", "name_municipality": "松山市", "url_municipality": "https://ja.wikipedia.org/wiki/%E6%9D%BE%E5%B1%B1%E5%B8%82", "lat": 33.983333, "lon": 132.55}, {"name_en": "nogutsuna_jima", "name_island": "野忽那島", "url_island": "https://ja.wikipedia.org/wiki/%E9%87%8E%E5%BF%BD%E9%82%A3%E5%B3%B6", "name_municipality": "松山市", "url_municipality": "https://ja.wikipedia.org/wiki/%E6%9D%BE%E5%B1%B1%E5%B8%82", "lat": 33.969167, "lon": 132.69}, {"name_en": "futagami_jima", "name_island": "二神島", "url_island": "https://ja.wikipedia.org/wiki/%E4%BA%8C%E7%A5%9E%E5%B3%B6", "name_municipality": "松山市", "url_municipality": "https://ja.wikipedia.org/wiki/%E6%9D%BE%E5%B1%B1%E5%B8%82", "lat": 33.930111, "lon": 132.5315}, {"name_en": "muzuki_jima", "name_island": "睦月島", "url_island": "https://ja.wikipedia.org/wiki/%E7%9D%A6%E6%9C%88%E5%B3%B6", "name_municipality": "松山市", "url_municipality": "https://ja.wikipedia.org/wiki/%E6%9D%BE%E5%B1%B1%E5%B8%82", "lat": 33.963556, "lon": 132.662389}, {"name_en": "yuri_jima", "name_island": "由利島", "url_island": "https://ja.wikipedia.org/wiki/%E7%94%B1%E5%88%A9%E5%B3%B6", "name_municipality": "松山市", "url_municipality": "https://ja.wikipedia.org/wiki/%E6%9D%BE%E5%B1%B1%E5%B8%82", "lat": 33.852222, "lon": 132.524167}, {"name_en": "yashiro_jima", "name_island": "屋代島", "url_island": "https://ja.wikipedia.org/wiki/%E5%B1%8B%E4%BB%A3%E5%B3%B6", "name_municipality": "周防大島町", "url_municipality": "https://ja.wikipedia.org/wiki/%E5%91%A8%E9%98%B2%E5%A4%A7%E5%B3%B6%E7%94%BA", "lat": 33.916667, "lon": 132.266667}, {"name_en": "kasasa_jima", "name_island": "笠佐島", "url_island": "https://ja.wikipedia.org/wiki/%E7%AC%A0%E4%BD%90%E5%B3%B6", "name_municipality": "周防大島町", "url_municipality": "https://ja.wikipedia.org/wiki/%E5%91%A8%E9%98%B2%E5%A4%A7%E5%B3%B6%E7%94%BA", "lat": 33.943611, "lon": 132.166111}, {"name_en": "nasakejima_yamaguchi", "name_island": "情島_山口", "url_island": "https://ja.wikipedia.org/wiki/%E6%83%85%E5%B3%B6_(%E5%B1%B1%E5%8F%A3%E7%9C%8C)", "name_municipality": "周防大島町", "url_municipality": "https://ja.wikipedia.org/wiki/%E5%91%A8%E9%98%B2%E5%A4%A7%E5%B3%B6%E7%94%BA", "lat": 33.959444, "lon": 132.473889}, {"name_en": "ukashima_yamaguchi", "name_island": "浮島_山口", "url_island": "https://ja.wikipedia.org/wiki/%E6%B5%AE%E5%B3%B6_(%E5%B1%B1%E5%8F%A3%E7%9C%8C)", "name_municipality": "周防大島町", "url_municipality": "https://ja.wikipedia.org/wiki/%E5%91%A8%E9%98%B2%E5%A4%A7%E5%B3%B6%E7%94%BA", "lat": 33.946778, "lon": 132.348889}, {"name_en": "okikamuro_jima", "name_island": "沖家室島", "url_island": "https://ja.wikipedia.org/wiki/%E6%B2%96%E5%AE%B6%E5%AE%A4%E5%B3%B6", "name_municipality": "周防大島町", "url_municipality": "https://ja.wikipedia.org/wiki/%E5%91%A8%E9%98%B2%E5%A4%A7%E5%B3%B6%E7%94%BA", "lat": 33.851389, "lon": 132.364333}, {"name_en": "maejima_yamaguchi", "name_island": "前島_山口", "url_island": "https://ja.wikipedia.org/wiki/%E5%89%8D%E5%B3%B6_(%E5%B1%B1%E5%8F%A3%E7%9C%8C)", "name_municipality": "周防大島町", "url_municipality": "https://ja.wikipedia.org/wiki/%E5%91%A8%E9%98%B2%E5%A4%A7%E5%B3%B6%E7%94%BA", "lat": 34.0, "lon": 132.266667}, {"name_en": "heigun_tou", "name_island": "平郡島", "url_island": "https://ja.wikipedia.org/wiki/%E5%B9%B3%E9%83%A1%E5%B3%B6", "name_municipality": "柳井市", "url_municipality": "https://ja.wikipedia.org/wiki/%E6%9F%B3%E4%BA%95%E5%B8%82", "lat": 33.795556, "lon": 132.222222}, {"name_en": "nagashima_yamaguchi", "name_island": "長島_山口", "url_island": "https://ja.wikipedia.org/wiki/%E9%95%B7%E5%B3%B6_(%E5%B1%B1%E5%8F%A3%E7%9C%8C)", "name_municipality": "上関町", "url_municipality": "https://ja.wikipedia.org/wiki/%E4%B8%8A%E9%96%A2%E7%94%BA", "lat": 33.835278, "lon": 132.092778}, {"name_en": "iwaishima", "name_island": "祝島", "url_island": "https://ja.wikipedia.org/wiki/%E7%A5%9D%E5%B3%B6", "name_municipality": "上関町", "url_municipality": "https://ja.wikipedia.org/wiki/%E4%B8%8A%E9%96%A2%E7%94%BA", "lat": 33.784083, "lon": 131.990611}, {"name_en": "yashima_yanaguchi", "name_island": "八島_山口", "url_island": "https://ja.wikipedia.org/wiki/%E5%85%AB%E5%B3%B6_(%E5%B1%B1%E5%8F%A3%E7%9C%8C)", "name_municipality": "上関町", "url_municipality": "https://ja.wikipedia.org/wiki/%E4%B8%8A%E9%96%A2%E7%94%BA", "lat": 33.723333, "lon": 132.140972}, {"name_en": "sagou_jima", "name_island": "佐合島", "url_island": "https://ja.wikipedia.org/wiki/%E4%BD%90%E5%90%88%E5%B3%B6", "name_municipality": "平生町", "url_municipality": "https://ja.wikipedia.org/wiki/%E5%B9%B3%E7%94%9F%E7%94%BA", "lat": 33.875556, "lon": 132.063056}, {"name_en": "umashima_yamaguchi", "name_island": "馬島_山口", "url_island": "https://ja.wikipedia.org/wiki/%E9%A6%AC%E5%B3%B6_(%E5%B1%B1%E5%8F%A3%E7%9C%8C)", "name_municipality": "田布施町", "url_municipality": "https://ja.wikipedia.org/wiki/%E7%94%B0%E5%B8%83%E6%96%BD%E7%94%BA", "lat": 33.894778, "lon": 132.047889}, {"name_en": "hashima_yamaguchi", "name_island": "端島_山口", "url_island": "https://ja.wikipedia.org/wiki/%E7%AB%AF%E5%B3%B6_(%E5%B1%B1%E5%8F%A3%E7%9C%8C)", "name_municipality": "岩国市", "url_municipality": "https://ja.wikipedia.org/wiki/%E5%B2%A9%E5%9B%BD%E5%B8%82", "lat": 34.036444, "lon": 132.38375}]}