{"title": "List of Islands of Amakusa", "title_ja": "天草諸島の島の一覧", "reference": "wikipedia: 天草諸島", "url_reference": "https://ja.wikipedia.org/wiki/Category:%E5%A4%A9%E8%8D%89%E8%AB%B8%E5%B3%B6", "islands": [{"name_en": "iwajima", "name_island": "維和島", "url_island": "https://ja.wikipedia.org/wiki/%E7%B6%AD%E5%92%8C%E5%B3%B6", "name_municipality": "上天草市", "url_municipality": "https://ja.wikipedia.org/wiki/%E4%B8%8A%E5%A4%A9%E8%8D%89%E5%B8%82", "lat": 32.575556, "lon": 130.466139}, {"name_en": "ubujima", "name_island": "産島", "url_island": "https://ja.wikipedia.org/wiki/%E7%94%A3%E5%B3%B6", "name_municipality": "天草市", "url_municipality": "https://ja.wikipedia.org/wiki/%E5%A4%A9%E8%8D%89%E5%B8%82", "lat": 32.269722, "lon": 130.139722}, {"name_en": "ooyanojima", "name_island": "大矢野島", "url_island": "https://ja.wikipedia.org/wiki/%E5%A4%A7%E7%9F%A2%E9%87%8E%E5%B3%B6", "name_municipality": "上天草市", "url_municipality": "https://ja.wikipedia.org/wiki/%E4%B8%8A%E5%A4%A9%E8%8D%89%E5%B8%82", "lat": 32.578639, "lon": 130.430028}, {"name_en": "kamishima_amakusa", "name_island": "上島_天草", "url_island": "https://ja.wikipedia.org/wiki/%E4%B8%8A%E5%B3%B6_(%E5%A4%A9%E8%8D%89%E8%AB%B8%E5%B3%B6)", "name_municipality": "天草市", "url_municipality": "https://ja.wikipedia.org/wiki/%E5%A4%A9%E8%8D%89%E5%B8%82", "lat": 32.433333, "lon": 130.333333}, {"name_en": "shimoshima_amakusa", "name_island": "下島_天草", "url_island": "https://ja.wikipedia.org/wiki/%E4%B8%8B%E5%B3%B6_(%E5%A4%A9%E8%8D%89%E8%AB%B8%E5%B3%B6)", "name_municipality": "天草市", "url_municipality": "https://ja.wikipedia.org/wiki/%E5%A4%A9%E8%8D%89%E5%B8%82", "lat": 32.436306, "lon": 130.083722}, {"name_en": "gesujima", "name_island": "下須島", "url_island": "https://ja.wikipedia.org/wiki/%E4%B8%8B%E9%A0%88%E5%B3%B6", "name_municipality": "天草市", "url_municipality": "https://ja.wikipedia.org/wiki/%E5%A4%A9%E8%8D%89%E5%B8%82", "lat": 32.178611, "lon": 130.026667}, {"name_en": "goshourajima", "name_island": "御所浦島", "url_island": "https://ja.wikipedia.org/wiki/%E5%BE%A1%E6%89%80%E6%B5%A6%E5%B3%B6", "name_municipality": "天草市", "url_municipality": "https://ja.wikipedia.org/wiki/%E5%A4%A9%E8%8D%89%E5%B8%82", "lat": 32.333333, "lon": 130.35}, {"name_en": "seshima", "name_island": "瀬島", "url_island": "https://ja.wikipedia.org/wiki/%E7%80%AC%E5%B3%B6", "name_municipality": "上天草市", "url_municipality": "https://ja.wikipedia.org/wiki/%E4%B8%8A%E5%A4%A9%E8%8D%89%E5%B8%82", "lat": 32.535, "lon": 130.438333}, {"name_en": "takamokujima", "name_island": "高杢島", "url_island": "https://ja.wikipedia.org/wiki/%E9%AB%98%E6%9D%A2%E5%B3%B6", "name_municipality": "上天草市", "url_municipality": "https://ja.wikipedia.org/wiki/%E4%B8%8A%E5%A4%A9%E8%8D%89%E5%B8%82", "lat": 32.544722, "lon": 130.391111}, {"name_en": "tsujishima", "name_island": "通詞島", "url_island": "https://ja.wikipedia.org/wiki/%E9%80%9A%E8%A9%9E%E5%B3%B6", "name_municipality": "天草市", "url_municipality": "https://ja.wikipedia.org/wiki/%E5%A4%A9%E8%8D%89%E5%B8%82", "lat": 32.551111, "lon": 130.114722}, {"name_en": "tobasejima", "name_island": "戸馳島", "url_island": "https://ja.wikipedia.org/wiki/%E6%88%B8%E9%A6%B3%E5%B3%B6", "name_municipality": "宇城市", "url_municipality": "https://ja.wikipedia.org/wiki/%E5%AE%87%E5%9F%8E%E5%B8%82", "lat": 32.600833, "lon": 130.496389}, {"name_en": "nagaurajima", "name_island": "永浦島", "url_island": "https://ja.wikipedia.org/wiki/%E6%B0%B8%E6%B5%A6%E5%B3%B6", "name_municipality": "上天草市", "url_municipality": "https://ja.wikipedia.org/wiki/%E4%B8%8A%E5%A4%A9%E8%8D%89%E5%B8%82", "lat": 32.542917, "lon": 130.41691}, {"name_en": "nakajima_kumamoto", "name_island": "中島_熊本", "url_island": "https://ja.wikipedia.org/wiki/%E4%B8%AD%E5%B3%B6_(%E7%86%8A%E6%9C%AC%E7%9C%8C)", "name_municipality": "上天草市", "url_municipality": "https://ja.wikipedia.org/wiki/%E4%B8%8A%E5%A4%A9%E8%8D%89%E5%B8%82", "lat": 32.530556, "lon": 130.433056}, {"name_en": "nogamajima", "name_island": "野釜島", "url_island": "https://ja.wikipedia.org/wiki/%E9%87%8E%E9%87%9C%E5%B3%B6", "name_municipality": "上天草市", "url_municipality": "https://ja.wikipedia.org/wiki/%E4%B8%8A%E5%A4%A9%E8%8D%89%E5%B8%82", "lat": 32.583333, "lon": 130.385833}, {"name_en": "hiaijima", "name_island": "樋合島", "url_island": "https://ja.wikipedia.org/wiki/%E6%A8%8B%E5%90%88%E5%B3%B6", "name_municipality": "上天草市", "url_municipality": "https://ja.wikipedia.org/wiki/%E4%B8%8A%E5%A4%A9%E8%8D%89%E5%B8%82", "lat": 32.540278, "lon": 130.401389}, {"name_en": "maejima_kumamoto", "name_island": "前島_熊本", "url_island": "https://ja.wikipedia.org/wiki/%E5%89%8D%E5%B3%B6_(%E7%86%8A%E6%9C%AC%E7%9C%8C)", "name_municipality": "天草市", "url_municipality": "https://ja.wikipedia.org/wiki/%E5%A4%A9%E8%8D%89%E5%B8%82", "lat": 32.523889, "lon": 130.4275}, {"name_en": "miyajima_kumamoto", "name_island": "宮島_熊本", "url_island": "https://ja.wikipedia.org/wiki/%E5%AE%AE%E5%B3%B6_(%E7%86%8A%E6%9C%AC%E7%9C%8C)", "name_municipality": "天草市", "url_municipality": "https://ja.wikipedia.org/wiki/%E5%A4%A9%E8%8D%89%E5%B8%82", "lat": 32.322972, "lon": 130.167222}, {"name_en": "ysgyujima", "name_island": "野牛島", "url_island": "https://ja.wikipedia.org/wiki/%E9%87%8E%E7%89%9B%E5%B3%B6", "name_municipality": "上天草市", "url_municipality": "https://ja.wikipedia.org/wiki/%E4%B8%8A%E5%A4%A9%E8%8D%89%E5%B8%82", "lat": 32.57, "lon": 130.455}, {"name_en": "yushima_amakusa", "name_island": "湯島_天草", "url_island": "https://ja.wikipedia.org/wiki/%E6%B9%AF%E5%B3%B6_(%E5%A4%A9%E8%8D%89%E8%AB%B8%E5%B3%B6)", "name_municipality": "上天草市", "url_municipality": "https://ja.wikipedia.org/wiki/%E4%B8%8A%E5%A4%A9%E8%8D%89%E5%B8%82", "lat": 32.600278, "lon": 130.335583}, {"name_en": "yokourajima", "name_island": "横浦島", "url_island": "https://ja.wikipedia.org/wiki/%E6%A8%AA%E6%B5%A6%E5%B3%B6", "name_municipality": "天草市", "url_municipality": "https://ja.wikipedia.org/wiki/%E5%A4%A9%E8%8D%89%E5%B8%82", "lat": 32.366139, "lon": 130.347306}, {"name_en": "yokohama_kumamoto", "name_island": "横島_熊本", "url_island": "https://ja.wikipedia.org/wiki/%E6%A8%AA%E5%B3%B6_(%E7%86%8A%E6%9C%AC%E7%9C%8C)", "name_municipality": "天草市", "url_municipality": "https://ja.wikipedia.org/wiki/%E5%A4%A9%E8%8D%89%E5%B8%82", "lat": 32.373333, "lon": 130.233333}, {"name_en": "nagashima_kagoshima", "name_island": "長島_鹿児島", "url_island": "https://ja.wikipedia.org/wiki/%E9%95%B7%E5%B3%B6_(%E9%B9%BF%E5%85%90%E5%B3%B6%E7%9C%8C)", "name_municipality": "長島町", "url_municipality": "https://ja.wikipedia.org/wiki/%E9%95%B7%E5%B3%B6%E7%94%BA", "lat": 32.15, "lon": 130.15}, {"name_en": "ikarajima", "name_island": "伊唐島", "url_island": "https://ja.wikipedia.org/wiki/%E4%BC%8A%E5%94%90%E5%B3%B6", "name_municipality": "長島町", "url_municipality": "https://ja.wikipedia.org/wiki/%E9%95%B7%E5%B3%B6%E7%94%BA", "lat": 32.218781, "lon": 130.200339}, {"name_en": "shishijima", "name_island": "獅子島", "url_island": "https://ja.wikipedia.org/wiki/%E7%8D%85%E5%AD%90%E5%B3%B6", "name_municipality": "長島町", "url_municipality": "https://ja.wikipedia.org/wiki/%E9%95%B7%E5%B3%B6%E7%94%BA", "lat": 32.278917, "lon": 130.240417}, {"name_en": "shourajima", "name_island": "諸浦島", "url_island": "https://ja.wikipedia.org/wiki/%E8%AB%B8%E6%B5%A6%E5%B3%B6", "name_municipality": "長島町", "url_municipality": "https://ja.wikipedia.org/wiki/%E9%95%B7%E5%B3%B6%E7%94%BA", "lat": 32.241278, "lon": 130.171528}]}