{"title": "List of Islands of Amami", "title_ja": "奄美群島の島の一覧", "reference": "wikipedia: 奄美群島", "url_reference": "https://ja.wikipedia.org/wiki/Category:%E5%A5%84%E7%BE%8E%E7%BE%A4%E5%B3%B6", "islands": [{"name_en": "amami_ooshima", "name_island": "奄美大島", "url_island": "https://ja.wikipedia.org/wiki/%E5%A5%84%E7%BE%8E%E5%A4%A7%E5%B3%B6", "name_municipality": "瀬戸内町", "url_municipality": "https://ja.wikipedia.org/wiki/%E7%80%AC%E6%88%B8%E5%86%85%E7%94%BA", "lat": 28.326389, "lon": 129.374444}, {"name_en": "okinoerabujima", "name_island": "沖永良部島", "url_island": "https://ja.wikipedia.org/wiki/%E6%B2%96%E6%B0%B8%E8%89%AF%E9%83%A8%E5%B3%B6", "name_municipality": "和泊町", "url_municipality": "https://ja.wikipedia.org/wiki/%E5%92%8C%E6%B3%8A%E7%94%BA", "lat": 27.368889, "lon": 128.566667}, {"name_en": "tokunoshima", "name_island": "徳之島", "url_island": "https://ja.wikipedia.org/wiki/%E5%BE%B3%E4%B9%8B%E5%B3%B6", "name_municipality": "徳之島町", "url_municipality": "https://ja.wikipedia.org/wiki/%E5%BE%B3%E4%B9%8B%E5%B3%B6%E7%94%BA", "lat": 27.82, "lon": 128.932222}, {"name_en": "uke_jima", "name_island": "請島", "url_island": "https://ja.wikipedia.org/wiki/%E8%AB%8B%E5%B3%B6", "name_municipality": "瀬戸内町", "url_municipality": "https://ja.wikipedia.org/wiki/%E7%80%AC%E6%88%B8%E5%86%85%E7%94%BA", "lat": 28.027222, "lon": 129.239444}, {"name_en": "edateku_jima", "name_island": "枝手久島", "url_island": "https://ja.wikipedia.org/wiki/%E6%9E%9D%E6%89%8B%E4%B9%85%E5%B3%B6", "name_municipality": "宇検村", "url_municipality": "https://ja.wikipedia.org/wiki/%E5%AE%87%E6%A4%9C%E6%9D%91", "lat": 28.293333, "lon": 129.199167}, {"name_en": "eniyabanare_jima", "name_island": "江仁屋離島", "url_island": "https://ja.wikipedia.org/wiki/%E6%B1%9F%E4%BB%81%E5%B1%8B%E9%9B%A2%E5%B3%B6", "name_municipality": "瀬戸内町", "url_municipality": "https://ja.wikipedia.org/wiki/%E7%80%AC%E6%88%B8%E5%86%85%E7%94%BA", "lat": 28.194444, "lon": 129.168333}, {"name_en": "kakeroma_jima", "name_island": "加計呂麻島", "url_island": "https://ja.wikipedia.org/wiki/%E5%8A%A0%E8%A8%88%E5%91%82%E9%BA%BB%E5%B3%B6", "name_municipality": "瀬戸内町", "url_municipality": "https://ja.wikipedia.org/wiki/%E7%80%AC%E6%88%B8%E5%86%85%E7%94%BA", "lat": 28.124722, "lon": 129.244722}, {"name_en": "kikai_jima", "name_island": "喜界島", "url_island": "https://ja.wikipedia.org/wiki/%E5%96%9C%E7%95%8C%E5%B3%B6", "name_municipality": "喜界町", "url_municipality": "https://ja.wikipedia.org/wiki/%E5%96%9C%E7%95%8C%E7%94%BA", "lat": 28.316944, "lon": 129.939444}, {"name_en": "kiyama_jima", "name_island": "木山島", "url_island": "https://ja.wikipedia.org/wiki/%E6%9C%A8%E5%B1%B1%E5%B3%B6", "name_municipality": "瀬戸内町", "url_municipality": "https://ja.wikipedia.org/wiki/%E7%80%AC%E6%88%B8%E5%86%85%E7%94%BA", "lat": 28.022222, "lon": 129.274722}, {"name_en": "sandoniwa", "name_island": "サンドン岩", "url_island": "https://ja.wikipedia.org/wiki/%E3%82%B5%E3%83%B3%E3%83%89%E3%83%B3%E5%B2%A9", "name_municipality": "瀬戸内町", "url_municipality": "https://ja.wikipedia.org/wiki/%E7%80%AC%E6%88%B8%E5%86%85%E7%94%BA", "lat": 28.758611, "lon": 129.778333}, {"name_en": "sukomobanare", "name_island": "須子茂離", "url_island": "https://ja.wikipedia.org/wiki/%E9%A0%88%E5%AD%90%E8%8C%82%E9%9B%A2", "name_municipality": "瀬戸内町", "url_municipality": "https://ja.wikipedia.org/wiki/%E7%80%AC%E6%88%B8%E5%86%85%E7%94%BA", "lat": 28.118333, "lon": 129.168611}, {"name_en": "yuubanare", "name_island": "夕離", "url_island": "https://ja.wikipedia.org/wiki/%E5%A4%95%E9%9B%A2", "name_municipality": "瀬戸内町", "url_municipality": "https://ja.wikipedia.org/wiki/%E7%80%AC%E6%88%B8%E5%86%85%E7%94%BA", "lat": 28.129167, "lon": 129.148889}, {"name_en": "yoro_jima", "name_island": "与路島", "url_island": "https://ja.wikipedia.org/wiki/%E4%B8%8E%E8%B7%AF%E5%B3%B6", "name_municipality": "瀬戸内町", "url_municipality": "https://ja.wikipedia.org/wiki/%E7%80%AC%E6%88%B8%E5%86%85%E7%94%BA", "lat": 28.044167, "lon": 129.163889}, {"name_en": "yoron_jima", "name_island": "与論島", "url_island": "https://ja.wikipedia.org/wiki/%E4%B8%8E%E8%AB%96%E5%B3%B6", "name_municipality": "与論町", "url_municipality": "https://ja.wikipedia.org/wiki/%E4%B8%8E%E8%AB%96%E7%94%BA", "lat": 27.044444, "lon": 128.417222}]}