{"title": "List of Islands of Tokara", "title_ja": "吐噶喇列島の島の一覧", "reference": "wikipedia: 吐噶喇列島", "url_reference": "https://ja.wikipedia.org/wiki/Category:%E5%90%90%E5%99%B6%E5%96%87%E5%88%97%E5%B3%B6", "islands": [{"name_en": "akuseki_jima", "name_island": "悪石島", "url_island": "https://ja.wikipedia.org/wiki/%E6%82%AA%E7%9F%B3%E5%B3%B6", "name_municipality": "十島村", "url_municipality": "https://ja.wikipedia.org/wiki/%E5%8D%81%E5%B3%B6%E6%9D%91", "lat": 29.451667, "lon": 129.601111}, {"name_en": "gajya_jima", "name_island": "臥蛇島", "url_island": "https://ja.wikipedia.org/wiki/%E8%87%A5%E8%9B%87%E5%B3%B6", "name_municipality": "十島村", "url_municipality": "https://ja.wikipedia.org/wiki/%E5%8D%81%E5%B3%B6%E6%9D%91", "lat": 29.903056, "lon": 129.541667}, {"name_en": "kogajya_jima", "name_island": "小臥蛇島", "url_island": "https://ja.wikipedia.org/wiki/%E5%B0%8F%E8%87%A5%E8%9B%87%E5%B3%B6", "name_municipality": "十島村", "url_municipality": "https://ja.wikipedia.org/wiki/%E5%8D%81%E5%B3%B6%E6%9D%91", "lat": 29.879167, "lon": 129.619444}, {"name_en": "kuchinoshima", "name_island": "口之島", "url_island": "https://ja.wikipedia.org/wiki/%E5%8F%A3%E4%B9%8B%E5%B3%B6", "name_municipality": "十島村", "url_municipality": "https://ja.wikipedia.org/wiki/%E5%8D%81%E5%B3%B6%E6%9D%91", "lat": 29.966667, "lon": 129.916667}, {"name_en": "kobatachigami", "name_island": "木場立神", "url_island": "https://ja.wikipedia.org/wiki/%E6%9C%A8%E5%A0%B4%E7%AB%8B%E7%A5%9E", "name_municipality": "十島村", "url_municipality": "https://ja.wikipedia.org/wiki/%E5%8D%81%E5%B3%B6%E6%9D%91", "lat": 29.966667, "lon": 29.912222}, {"name_en": "suwanose_jima", "name_island": "諏訪之瀬島", "url_island": "https://ja.wikipedia.org/wiki/%E8%AB%8F%E8%A8%AA%E4%B9%8B%E7%80%AC%E5%B3%B6", "name_municipality": "十島村", "url_municipality": "https://ja.wikipedia.org/wiki/%E5%8D%81%E5%B3%B6%E6%9D%91", "lat": 29.611444, "lon": 129.703139}, {"name_en": "tairajima_kagoshima", "name_island": "平島_鹿児島", "url_island": "https://ja.wikipedia.org/wiki/%E5%B9%B3%E5%B3%B6_(%E9%B9%BF%E5%85%90%E5%B3%B6%E7%9C%8C)", "name_municipality": "十島村", "url_municipality": "https://ja.wikipedia.org/wiki/%E5%8D%81%E5%B3%B6%E6%9D%91", "lat": 29.687806, "lon": 129.528361}, {"name_en": "takarajima_kagoshima", "name_island": "宝島_鹿児島", "url_island": "https://ja.wikipedia.org/wiki/%E5%AE%9D%E5%B3%B6_(%E9%B9%BF%E5%85%90%E5%B3%B6%E7%9C%8C)", "name_municipality": "十島村", "url_municipality": "https://ja.wikipedia.org/wiki/%E5%8D%81%E5%B3%B6%E6%9D%91", "lat": 29.14699, "lon": 129.207427}, {"name_en": "kotakarajima", "name_island": "小宝島", "url_island": "https://ja.wikipedia.org/wiki/%E5%B0%8F%E5%AE%9D%E5%B3%B6", "name_municipality": "十島村", "url_municipality": "https://ja.wikipedia.org/wiki/%E5%8D%81%E5%B3%B6%E6%9D%91", "lat": 29.222917, "lon": 129.329028}, {"name_en": "kananoshima_kagoshima", "name_island": "中之島_鹿児島", "url_island": "https://ja.wikipedia.org/wiki/%E4%B8%AD%E4%B9%8B%E5%B3%B6_(%E9%B9%BF%E5%85%90%E5%B3%B6%E7%9C%8C)", "name_municipality": "十島村", "url_municipality": "https://ja.wikipedia.org/wiki/%E5%8D%81%E5%B3%B6%E6%9D%91", "lat": 29.838528, "lon": 129.853222}, {"name_en": "yokoate_jima", "name_island": "横当島", "url_island": "https://ja.wikipedia.org/wiki/%E6%A8%AA%E5%BD%93%E5%B3%B6", "name_municipality": "十島村", "url_municipality": "https://ja.wikipedia.org/wiki/%E5%8D%81%E5%B3%B6%E6%9D%91", "lat": 28.800556, "lon": 128.994444}]}