{"title": "List of Islands of Shiwaku", "title_ja": "塩飽諸島の島の一覧", "reference": "wikipedia: 塩飽諸島", "url_reference": "https://ja.wikipedia.org/wiki/Category:%E5%A1%A9%E9%A3%BD%E8%AB%B8%E5%B3%B6", "islands": [{"name_en": "awashima_kagawa", "name_island": "粟島_香川", "url_island": "https://ja.wikipedia.org/wiki/%E7%B2%9F%E5%B3%B6_(%E9%A6%99%E5%B7%9D%E7%9C%8C)", "name_municipality": "三豊市", "url_municipality": "https://ja.wikipedia.org/wiki/%E4%B8%89%E8%B1%8A%E5%B8%82", "lat": 34.272222, "lon": 133.633333}, {"name_en": "iwakuro_jima", "name_island": "岩黒島", "url_island": "https://ja.wikipedia.org/wiki/%E5%B2%A9%E9%BB%92%E5%B3%B6", "name_municipality": "坂出市", "url_municipality": "https://ja.wikipedia.org/wiki/%E5%9D%82%E5%87%BA%E5%B8%82", "lat": 34.406389, "lon": 133.810278}, {"name_en": "ushijima_kagawa", "name_island": "牛島_香川", "url_island": "https://ja.wikipedia.org/wiki/%E7%89%9B%E5%B3%B6_(%E9%A6%99%E5%B7%9D%E7%9C%8C)", "name_municipality": "丸亀市", "url_municipality": "https://ja.wikipedia.org/wiki/%E4%B8%B8%E4%BA%80%E5%B8%82", "lat": 34.360278, "lon": 133.780556}, {"name_en": "oteshima", "name_island": "小手島", "url_island": "https://ja.wikipedia.org/wiki/%E5%B0%8F%E6%89%8B%E5%B3%B6", "name_municipality": "丸亀市", "url_municipality": "https://ja.wikipedia.org/wiki/%E4%B8%B8%E4%BA%80%E5%B8%82", "lat": 34.377744, "lon": 133.648458}, {"name_en": "koyoshima", "name_island": "小与島", "url_island": "https://ja.wikipedia.org/wiki/%E5%B0%8F%E4%B8%8E%E5%B3%B6", "name_municipality": "坂出市", "url_municipality": "https://ja.wikipedia.org/wiki/%E5%9D%82%E5%87%BA%E5%B8%82", "lat": 34.391389, "lon": 133.830278}, {"name_en": "sanagi_jima", "name_island": "佐柳島", "url_island": "https://ja.wikipedia.org/wiki/%E4%BD%90%E6%9F%B3%E5%B3%B6", "name_municipality": "多度津町", "url_municipality": "https://ja.wikipedia.org/wiki/%E5%A4%9A%E5%BA%A6%E6%B4%A5%E7%94%BA", "lat": 34.341466, "lon": 133.6237466}, {"name_en": "shishi_jima", "name_island": "志々島", "url_island": "https://ja.wikipedia.org/wiki/%E5%BF%97%E3%80%85%E5%B3%B6", "name_municipality": "三豊市", "url_municipality": "https://ja.wikipedia.org/wiki/%E4%B8%89%E8%B1%8A%E5%B8%82", "lat": 34.271389, "lon": 133.677222}, {"name_en": "takami_jima", "name_island": "高見島", "url_island": "https://ja.wikipedia.org/wiki/%E9%AB%98%E8%A6%8B%E5%B3%B6", "name_municipality": "多度津町", "url_municipality": "https://ja.wikipedia.org/wiki/%E5%A4%9A%E5%BA%A6%E6%B4%A5%E7%94%BA", "lat": 34.316667, "lon": 133.670833}, {"name_en": "teshima_kagawa", "name_island": "手島_香川", "url_island": "https://ja.wikipedia.org/wiki/%E6%89%8B%E5%B3%B6_(%E9%A6%99%E5%B7%9D%E7%9C%8C)", "name_municipality": "丸亀市", "url_municipality": "https://ja.wikipedia.org/wiki/%E4%B8%B8%E4%BA%80%E5%B8%82", "lat": 34.399444, "lon": 133.665556}, {"name_en": "hitsuishi_jima", "name_island": "櫃石島", "url_island": "https://ja.wikipedia.org/wiki/%E6%AB%83%E7%9F%B3%E5%B3%B6", "name_municipality": "坂出市", "url_municipality": "https://ja.wikipedia.org/wiki/%E5%9D%82%E5%87%BA%E5%B8%82", "lat": 34.420278, "lon": 133.804722}, {"name_en": "mitsugo_jima", "name_island": "三つ子島", "url_island": "https://ja.wikipedia.org/wiki/%E4%B8%89%E3%81%A4%E5%AD%90%E5%B3%B6", "name_municipality": "坂出市", "url_municipality": "https://ja.wikipedia.org/wiki/%E5%9D%82%E5%87%BA%E5%B8%82", "lat": 34.373611, "lon": 133.8225}, {"name_en": "yoshima", "name_island": "与島", "url_island": "https://ja.wikipedia.org/wiki/%E4%B8%8E%E5%B3%B6", "name_municipality": "坂出市", "url_municipality": "https://ja.wikipedia.org/wiki/%E5%9D%82%E5%87%BA%E5%B8%82", "lat": 34.389167, "lon": 133.819444}, {"name_en": "wasashima", "name_island": "羽佐島", "url_island": "https://ja.wikipedia.org/wiki/%E7%BE%BD%E4%BD%90%E5%B3%B6", "name_municipality": "坂出市", "url_municipality": "https://ja.wikipedia.org/wiki/%E5%9D%82%E5%87%BA%E5%B8%82", "lat": 34.396808, "lon": 133.811486}]}