{"title": "List of places in Hyogo", "title_ja": "兵庫県の場所の一覧", "places": [{"name_en": "hyogo", "name_place": "兵庫県", "url_place": "https://ja.wikipedia.org/wiki/%E5%85%B5%E5%BA%AB%E7%9C%8C", "name_municipality": "兵庫県", "url_municipality": "https://ja.wikipedia.org/wiki/%E5%85%B5%E5%BA%AB%E7%9C%8C", "lat": 34.69125, "lon": 135.18308}, {"name_en": "kobe_airport", "name_place": "神戸空港", "url_place": "https://ja.wikipedia.org/wiki/%E7%A5%9E%E6%88%B8%E7%A9%BA%E6%B8%AF", "name_municipality": "神戸市", "url_municipality": "https://ja.wikipedia.org/wiki/%E7%A5%9E%E6%88%B8%E5%B8%82", "lat": 34.632778, "lon": 135.223889}, {"name_en": "port_island", "name_place": "ポートアイランド", "url_place": "https://ja.wikipedia.org/wiki/%E3%83%9D%E3%83%BC%E3%83%88%E3%82%A2%E3%82%A4%E3%83%A9%E3%83%B3%E3%83%89", "name_municipality": "神戸市", "url_municipality": "https://ja.wikipedia.org/wiki/%E7%A5%9E%E6%88%B8%E5%B8%82", "lat": 34.665, "lon": 135.2125}, {"name_en": "rokkou_island", "name_place": "六甲アイランド", "url_place": "https://ja.wikipedia.org/wiki/%E5%85%AD%E7%94%B2%E3%82%A2%E3%82%A4%E3%83%A9%E3%83%B3%E3%83%89", "name_municipality": "神戸市", "url_municipality": "https://ja.wikipedia.org/wiki/%E7%A5%9E%E6%88%B8%E5%B8%82", "lat": 34.689167, "lon": 135.269306}, {"name_en": "niijima_harima", "name_place": "新島_播磨町", "url_place": "https://ja.wikipedia.org/wiki/%E6%92%AD%E7%A3%A8%E7%94%BA", "name_municipality": "明石市", "url_municipality": "https://ja.wikipedia.org/wiki/%E6%98%8E%E7%9F%B3%E5%B8%82", "lat": 34.7023094, "lon": 134.8513727}, {"name_en": "higashiniijima_harima", "name_place": "東新島_播磨町", "url_place": "https://ja.wikipedia.org/wiki/%E6%92%AD%E7%A3%A8%E7%94%BA", "name_municipality": "明石市", "url_municipality": "https://ja.wikipedia.org/wiki/%E6%98%8E%E7%9F%B3%E5%B8%82", "lat": 34.69317418, "lon": 134.87135519}, {"name_en": "nadahama", "name_place": "灘浜＿姫路", "url_place": "", "name_municipality": "姫路市", "url_municipality": "https://ja.wikipedia.org/wiki/%E5%A7%AB%E8%B7%AF%E5%B8%82", "lat": 34.7648177, "lon": 134.6956783}, {"name_en": "nakajima_shikama", "name_place": "中島_飾磨", "url_place": "https://ja.wikipedia.org/wiki/%E9%A3%BE%E7%A3%A8", "name_municipality": "姫路市", "url_municipality": "https://ja.wikipedia.org/wiki/%E5%A7%AB%E8%B7%AF%E5%B8%82", "lat": 34.7682663, "lon": 134.6623773}, {"name_en": "aboshi", "name_place": "網干", "url_place": "https://ja.wikipedia.org/wiki/%E7%B6%B2%E5%B9%B2", "name_municipality": "姫路市", "url_municipality": "https://ja.wikipedia.org/wiki/%E5%A7%AB%E8%B7%AF%E5%B8%82", "lat": 34.7679879, "lon": 134.59966996}, {"name_en": "fukaehamamachi", "name_place": "深江浜町", "url_place": "https://ja.wikipedia.org/wiki/%E6%B7%B1%E6%B1%9F%E6%B5%9C%E7%94%BA", "name_municipality": "神戸市", "url_municipality": "https://ja.wikipedia.org/wiki/%E7%A5%9E%E6%88%B8%E5%B8%82", "lat": 34.7114681, "lon": 135.2981926}, {"name_en": "minamiashiya_hama", "name_place": "南芦屋浜", "url_place": "https://ja.wikipedia.org/wiki/%E5%8D%97%E8%8A%A6%E5%B1%8B%E6%B5%9C", "name_municipality": "芦屋市", "url_municipality": "https://ja.wikipedia.org/wiki/%E8%8A%A6%E5%B1%8B%E5%B8%82", "lat": 34.7104816, "lon": 135.3154711}, {"name_en": "koushien_hama", "name_place": "甲子園浜", "url_place": "https://ja.wikipedia.org/wiki/%E7%94%B2%E5%AD%90%E5%9C%92%E6%B5%9C", "name_municipality": "西宮市", "url_municipality": "https://ja.wikipedia.org/wiki/%E8%A5%BF%E5%AE%AE%E5%B8%82", "lat": 34.709151, "lon": 135.347187}, {"name_en": "nishimiya_hama", "name_place": "西宮浜", "url_place": "https://ja.wikipedia.org/wiki/%E8%A5%BF%E5%AE%AE%E6%B5%9C", "name_municipality": "西宮市", "url_municipality": "https://ja.wikipedia.org/wiki/%E8%A5%BF%E5%AE%AE%E5%B8%82", "lat": 34.7154265, "lon": 135.3325436}]}