{"title": "List of Islands of Kerama", "title_ja": "慶良間諸島の島の一覧", "reference": "wikipedia: 慶良間諸島", "url_reference": "https://ja.wikipedia.org/wiki/Category:%E6%85%B6%E8%89%AF%E9%96%93%E8%AB%B8%E5%B3%B6", "islands": [{"name_en": "aka_jima", "name_island": "阿嘉島", "url_island": "https://ja.wikipedia.org/wiki/%E9%98%BF%E5%98%89%E5%B3%B6", "name_municipality": "座間味村", "url_municipality": "https://ja.wikipedia.org/wiki/%E5%BA%A7%E9%96%93%E5%91%B3%E6%9D%91", "lat": 26.199722, "lon": 127.280833}, {"name_en": "oujima_zamami", "name_island": "奥武島_座間味", "url_island": "https://ja.wikipedia.org/wiki/%E5%A5%A5%E6%AD%A6%E5%B3%B6_(%E6%B2%96%E7%B8%84%E7%9C%8C%E5%BA%A7%E9%96%93%E5%91%B3%E6%9D%91)", "name_municipality": "座間味村", "url_municipality": "https://ja.wikipedia.org/wiki/%E5%BA%A7%E9%96%93%E5%91%B3%E6%9D%91", "lat": 26.153333, "lon": 127.271111}, {"name_en": "kubajima_zamami", "name_island": "久場島_座間味", "url_island": "https://ja.wikipedia.org/wiki/%E4%B9%85%E5%A0%B4%E5%B3%B6_(%E6%B2%96%E7%B8%84%E7%9C%8C%E5%BA%A7%E9%96%93%E5%91%B3%E6%9D%91)", "name_municipality": "座間味村", "url_municipality": "https://ja.wikipedia.org/wiki/%E5%BA%A7%E9%96%93%E5%91%B3%E6%9D%91", "lat": 26.171944, "lon": 127.237778}, {"name_en": "keiseshima", "name_island": "慶伊瀬島", "url_island": "https://ja.wikipedia.org/wiki/%E6%85%B6%E4%BC%8A%E7%80%AC%E5%B3%B6", "name_municipality": "渡嘉敷村", "url_municipality": "https://ja.wikipedia.org/wiki/%E6%B8%A1%E5%98%89%E6%95%B7%E6%9D%91", "lat": 26.262222, "lon": 127.564444}, {"name_en": "geruma_jima", "name_island": "慶留間島", "url_island": "https://ja.wikipedia.org/wiki/%E6%85%B6%E7%95%99%E9%96%93%E5%B3%B6", "name_municipality": "座間味村", "url_municipality": "https://ja.wikipedia.org/wiki/%E5%BA%A7%E9%96%93%E5%91%B3%E6%9D%91", "lat": 26.1825, "lon": 127.288611}, {"name_en": "xamami_jima", "name_island": "座間味島", "url_island": "https://ja.wikipedia.org/wiki/%E5%BA%A7%E9%96%93%E5%91%B3%E5%B3%B6", "name_municipality": "座間味村", "url_municipality": "https://ja.wikipedia.org/wiki/%E5%BA%A7%E9%96%93%E5%91%B3%E6%9D%91", "lat": 26.229167, "lon": 127.303333}, {"name_en": "tokashiki_jima", "name_island": "渡嘉敷島", "url_island": "https://ja.wikipedia.org/wiki/%E6%B8%A1%E5%98%89%E6%95%B7%E5%B3%B6", "name_municipality": "渡嘉敷村", "url_municipality": "https://ja.wikipedia.org/wiki/%E6%B8%A1%E5%98%89%E6%95%B7%E6%9D%91", "lat": 26.197778, "lon": 127.364444}, {"name_en": "fuka_jima", "name_island": "外地島", "url_island": "https://ja.wikipedia.org/wiki/%E5%A4%96%E5%9C%B0%E5%B3%B6", "name_municipality": "座間味村", "url_municipality": "https://ja.wikipedia.org/wiki/%E5%BA%A7%E9%96%93%E5%91%B3%E6%9D%91", "lat": 26.168611, "lon": 127.292778}, {"name_en": "maejima_okinawa", "name_island": "前島_沖縄", "url_island": "https://ja.wikipedia.org/wiki/%E5%89%8D%E5%B3%B6_(%E6%B2%96%E7%B8%84%E7%9C%8C)", "name_municipality": "渡嘉敷村", "url_municipality": "https://ja.wikipedia.org/wiki/%E6%B8%A1%E5%98%89%E6%95%B7%E6%9D%91", "lat": 26.211111, "lon": 127.44638}, {"name_en": "yakabi_jima", "name_island": "屋嘉比島", "url_island": "https://ja.wikipedia.org/wiki/%E5%B1%8B%E5%98%89%E6%AF%94%E5%B3%B6", "name_municipality": "座間味村", "url_municipality": "https://ja.wikipedia.org/wiki/%E5%BA%A7%E9%96%93%E5%91%B3%E6%9D%91", "lat": 26.215833, "lon": 127.244444}]}