{"title": "List of Islands in Ooita", "title_ja": "大分県の島の一覧", "reference": "wikipedia: 大分県の島", "url_reference": "https://ja.wikipedia.org/wiki/Category:%E5%A4%A7%E5%88%86%E7%9C%8C%E3%81%AE%E5%B3%B6", "islands": [{"name_en": "ajiro_jima", "name_island": "網代島", "url_island": "https://ja.wikipedia.org/wiki/%E7%B6%B2%E4%BB%A3%E5%B3%B6", "name_municipality": "津久見市", "url_municipality": "https://ja.wikipedia.org/wiki/%E6%B4%A5%E4%B9%85%E8%A6%8B%E5%B8%82", "lat": 33.070556, "lon": 131.919722}, {"name_en": "okiyoshi_jima", "name_island": "沖吉島", "url_island": "https://ja.wikipedia.org/wiki/%E6%B2%96%E5%90%89%E5%B3%B6", "name_municipality": "津久見市", "url_municipality": "https://ja.wikipedia.org/wiki/%E6%B4%A5%E4%B9%85%E8%A6%8B%E5%B8%82", "lat": 33.156944, "lon": 131.975833}, {"name_en": "himeshima_ooita", "name_island": "姫島_大分", "url_island": "https://ja.wikipedia.org/wiki/%E5%A7%AB%E5%B3%B6_(%E5%A4%A7%E5%88%86%E7%9C%8C)", "name_municipality": "姫島村", "url_municipality": "https://ja.wikipedia.org/wiki/%E5%A7%AB%E5%B3%B6%E6%9D%91", "lat": 33.723889, "lon": 131.646944}, {"name_en": "inetsumi", "name_island": "稲積", "url_island": "", "name_municipality": "姫島村", "url_municipality": "https://ja.wikipedia.org/wiki/%E5%A7%AB%E5%B3%B6%E6%9D%91", "lat": 33.73239, "lon": 131.69697}, {"name_en": "ooshima_saiki", "name_island": "大島_佐伯", "url_island": "https://ja.wikipedia.org/wiki/%E5%A4%A7%E5%B3%B6_(%E5%A4%A7%E5%88%86%E7%9C%8C%E4%BD%90%E4%BC%AF%E5%B8%82)", "name_municipality": "佐伯市", "url_municipality": "https://ja.wikipedia.org/wiki/%E4%BD%90%E4%BC%AF%E5%B8%82", "lat": 32.9625, "lon": 132.073333}, {"name_en": "oonyuujima", "name_island": "大入島", "url_island": "https://ja.wikipedia.org/wiki/%E5%A4%A7%E5%85%A5%E5%B3%B6", "name_municipality": "佐伯市", "url_municipality": "https://ja.wikipedia.org/wiki/%E4%BD%90%E4%BC%AF%E5%B8%82", "lat": 32.996389, "lon": 131.924444}, {"name_en": "okiguroshima", "name_island": "沖黒島", "url_island": "https://ja.wikipedia.org/wiki/%E6%B2%96%E9%BB%92%E5%B3%B6", "name_municipality": "佐伯市", "url_municipality": "https://ja.wikipedia.org/wiki/%E4%BD%90%E4%BC%AF%E5%B8%82", "lat": 32.88, "lon": 132.0325}, {"name_en": "okimuku_jima", "name_island": "沖無垢島", "url_island": "https://ja.wikipedia.org/wiki/%E6%B2%96%E7%84%A1%E5%9E%A2%E5%B3%B6", "name_municipality": "津久見市", "url_municipality": "https://ja.wikipedia.org/wiki/%E6%B4%A5%E4%B9%85%E8%A6%8B%E5%B8%82", "lat": 33.168056, "lon": 131.986111}, {"name_en": "katajiro_jima", "name_island": "片白島", "url_island": "https://ja.wikipedia.org/wiki/%E7%89%87%E7%99%BD%E5%B3%B6", "name_municipality": "佐伯市", "url_municipality": "https://ja.wikipedia.org/wiki/%E4%BD%90%E4%BC%AF%E5%B8%82", "lat": 32.994361, "lon": 131.955528}, {"name_en": "kuroshima_usuki", "name_island": "黒島_臼杵", "url_island": "https://ja.wikipedia.org/wiki/%E9%BB%92%E5%B3%B6_(%E5%A4%A7%E5%88%86%E7%9C%8C%E8%87%BC%E6%9D%B5%E5%B8%82)", "name_municipality": "臼杵市", "url_municipality": "https://ja.wikipedia.org/wiki/%E8%87%BC%E6%9D%B5%E5%B8%82", "lat": 33.176944, "lon": 131.837778}, {"name_en": "ooshima_tsukumi", "name_island": "黒島_津久見", "url_island": "https://ja.wikipedia.org/wiki/%E9%BB%92%E5%B3%B6_(%E5%A4%A7%E5%88%86%E7%9C%8C%E6%B4%A5%E4%B9%85%E8%A6%8B%E5%B8%82)", "name_municipality": "津久見市", "url_municipality": "https://ja.wikipedia.org/wiki/%E6%B4%A5%E4%B9%85%E8%A6%8B%E5%B8%82", "lat": 33.102222, "lon": 131.893333}, {"name_en": "jiguroshima", "name_island": "地黒島", "url_island": "https://ja.wikipedia.org/wiki/%E5%9C%B0%E9%BB%92%E5%B3%B6", "name_municipality": "佐伯市", "url_municipality": "https://ja.wikipedia.org/wiki/%E4%BD%90%E4%BC%AF%E5%B8%82", "lat": 32.888056, "lon": 132.024167}, {"name_en": "jimukushima", "name_island": "地無垢島", "url_island": "https://ja.wikipedia.org/wiki/%E5%9C%B0%E7%84%A1%E5%9E%A2%E5%B3%B6", "name_municipality": "津久見市", "url_municipality": "https://ja.wikipedia.org/wiki/%E6%B4%A5%E4%B9%85%E8%A6%8B%E5%B8%82", "lat": 33.156944, "lon": 131.975833}, {"name_en": "takashima_ooita", "name_island": "高島_大分", "url_island": "https://ja.wikipedia.org/wiki/%E9%AB%98%E5%B3%B6_(%E5%A4%A7%E5%88%86%E7%9C%8C)", "name_municipality": "大分市", "url_municipality": "https://ja.wikipedia.org/wiki/%E5%A4%A7%E5%88%86%E5%B8%82", "lat": 33.276306, "lon": 131.948194}, {"name_en": "takegashima_ooita", "name_island": "竹ヶ島_大分", "url_island": "https://ja.wikipedia.org/wiki/%E7%AB%B9%E3%83%B6%E5%B3%B6_(%E5%A4%A7%E5%88%86%E7%9C%8C)", "name_municipality": "佐伯市", "url_municipality": "https://ja.wikipedia.org/wiki/%E4%BD%90%E4%BC%AF%E5%B8%82", "lat": 32.985444, "lon": 131.982139}, {"name_en": "tsukumishima", "name_island": "津久見島", "url_island": "https://ja.wikipedia.org/wiki/%E6%B4%A5%E4%B9%85%E8%A6%8B%E5%B3%B6", "name_municipality": "臼杵市", "url_municipality": "https://ja.wikipedia.org/wiki/%E8%87%BC%E6%9D%B5%E5%B8%82", "lat": 33.141389, "lon": 131.859722}, {"name_en": "tsutashima_ooita", "name_island": "蔦島_大分", "url_island": "https://ja.wikipedia.org/wiki/%E8%94%A6%E5%B3%B6_(%E5%A4%A7%E5%88%86%E7%9C%8C)", "name_municipality": "大分市", "url_municipality": "https://ja.wikipedia.org/wiki/%E5%A4%A7%E5%88%86%E5%B8%82", "lat": 33.237444, "lon": 131.893694}, {"name_en": "hikoshima_ooita", "name_island": "彦島_大分", "url_island": "https://ja.wikipedia.org/wiki/%E5%BD%A6%E5%B3%B6_(%E5%A4%A7%E5%88%86%E7%9C%8C)", "name_municipality": "佐伯市", "url_municipality": "https://ja.wikipedia.org/wiki/%E4%BD%90%E4%BC%AF%E5%B8%82", "lat": 33.011639, "lon": 131.909944}, {"name_en": "fukashima", "name_island": "深島", "url_island": "https://ja.wikipedia.org/wiki/%E6%B7%B1%E5%B3%B6", "name_municipality": "佐伯市", "url_municipality": "https://ja.wikipedia.org/wiki/%E4%BD%90%E4%BC%AF%E5%B8%82", "lat": 32.719444, "lon": 131.926389}, {"name_en": "hotojima", "name_island": "保戸島", "url_island": "https://ja.wikipedia.org/wiki/%E4%BF%9D%E6%88%B8%E5%B3%B6", "name_municipality": "津久見市", "url_municipality": "https://ja.wikipedia.org/wiki/%E6%B4%A5%E4%B9%85%E8%A6%8B%E5%B8%82", "lat": 33.105, "lon": 132.009722}, {"name_en": "mizunoko_jima", "name_island": "水ノ子島", "url_island": "https://ja.wikipedia.org/wiki/%E6%B0%B4%E3%83%8E%E5%AD%90%E5%B3%B6", "name_municipality": "佐伯市", "url_municipality": "https://ja.wikipedia.org/wiki/%E4%BD%90%E4%BC%AF%E5%B8%82", "lat": 33.043611, "lon": 132.176667}, {"name_en": "mitsugojima_ooita", "name_island": "三ッ子島_大分", "url_island": "https://ja.wikipedia.org/wiki/%E4%B8%89%E3%83%83%E5%AD%90%E5%B3%B6_(%E5%A4%A7%E5%88%86%E7%9C%8C)", "name_municipality": "臼杵市", "url_municipality": "https://ja.wikipedia.org/wiki/%E8%87%BC%E6%9D%B5%E5%B8%82", "lat": 33.165472, "lon": 131.841556}, {"name_en": "yakata_jima", "name_island": "屋形島", "url_island": "https://ja.wikipedia.org/wiki/%E5%B1%8B%E5%BD%A2%E5%B3%B6", "name_municipality": "佐伯市", "url_municipality": "https://ja.wikipedia.org/wiki/%E4%BD%90%E4%BC%AF%E5%B8%82", "lat": 32.773056, "lon": 131.916667}, {"name_en": "yashima_ooita", "name_island": "八島_大分", "url_island": "https://ja.wikipedia.org/wiki/%E5%85%AB%E5%B3%B6_(%E5%A4%A7%E5%88%86%E7%9C%8C)", "name_municipality": "佐伯市", "url_municipality": "https://ja.wikipedia.org/wiki/%E4%BD%90%E4%BC%AF%E5%B8%82", "lat": 32.9675, "lon": 131.955278}, {"name_en": "yokoshima_ooita", "name_island": "横島_大分", "url_island": "https://ja.wikipedia.org/wiki/%E6%A8%AA%E5%B3%B6_(%E5%A4%A7%E5%88%86%E7%9C%8C)", "name_municipality": "佐伯市", "url_municipality": "https://ja.wikipedia.org/wiki/%E4%BD%90%E4%BC%AF%E5%B8%82", "lat": 32.916638, "lon": 132.047481}]}