{"title": "List of Islands in Hokkaido", "title_ja": "北海道の島の一覧", "reference": "wikipedia: 北海道の島", "url_reference": "https://ja.wikipedia.org/wiki/Category:%E5%8C%97%E6%B5%B7%E9%81%93%E3%81%AE%E5%B3%B6", "islands": [{"name_en": "hokkaido_island", "name_island": "北海道", "url_island": "https://ja.wikipedia.org/wiki/%E5%8C%97%E6%B5%B7%E9%81%93", "name_municipality": "北海道", "url_municipality": "https://ja.wikipedia.org/wiki/%E5%8C%97%E6%B5%B7%E9%81%93", "lat": 43.064333, "lon": 141.346889}, {"name_en": "rishiri_tou", "name_island": "利尻島", "url_island": "https://ja.wikipedia.org/wiki/%E5%88%A9%E5%B0%BB%E5%B3%B6", "name_municipality": "利尻町", "url_municipality": "https://ja.wikipedia.org/wiki/%E5%88%A9%E5%B0%BB%E7%94%BA", "lat": 45.166667, "lon": 141.25}, {"name_en": "rebun_tou", "name_island": "礼文島", "url_island": "https://ja.wikipedia.org/wiki/%E7%A4%BC%E6%96%87%E5%B3%B6", "name_municipality": "礼文町", "url_municipality": "https://ja.wikipedia.org/wiki/%E7%A4%BC%E6%96%87%E7%94%BA", "lat": 45.437222, "lon": 141.037778}, {"name_en": "okushiri_tou", "name_island": "奥尻島", "url_island": "https://ja.wikipedia.org/wiki/%E5%A5%A5%E5%B0%BB%E5%B3%B6", "name_municipality": "奥尻町", "url_municipality": "https://ja.wikipedia.org/wiki/%E5%A5%A5%E5%B0%BB%E7%94%BA", "lat": 42.149167, "lon": 139.467222}, {"name_en": "teuri_tou", "name_island": "天売島", "url_island": "https://ja.wikipedia.org/wiki/%E5%A4%A9%E5%A3%B2%E5%B3%B6", "name_municipality": "羽幌町", "url_municipality": "https://ja.wikipedia.org/wiki/%E7%BE%BD%E5%B9%8C%E7%94%BA", "lat": 44.424444, "lon": 141.315}, {"name_en": "yakishiri_tou", "name_island": "焼尻島", "url_island": "https://ja.wikipedia.org/wiki/%E7%84%BC%E5%B0%BB%E5%B3%B6", "name_municipality": "羽幌町", "url_municipality": "https://ja.wikipedia.org/wiki/%E7%BE%BD%E5%B9%8C%E7%94%BA", "lat": 44.433333, "lon": 141.423889}, {"name_en": "ebisu_jima", "name_island": "恵比須島", "url_island": "https://ja.wikipedia.org/wiki/%E6%81%B5%E6%AF%94%E9%A0%88%E5%B3%B6_(%E5%B0%8F%E6%A8%BD%E5%B8%82)", "name_municipality": "小樽市", "url_municipality": "https://ja.wikipedia.org/wiki/%E5%B0%8F%E6%A8%BD%E5%B8%82", "lat": 43.156667, "lon": 141.124167}, {"name_en": "kagome_jima", "name_island": "鷗島", "url_island": "https://ja.wikipedia.org/wiki/%E9%B4%8E%E5%B3%B6_(%E6%B1%9F%E5%B7%AE%E7%94%BA)", "name_municipality": "江差町", "url_municipality": "https://ja.wikipedia.org/wiki/%E6%B1%9F%E5%B7%AE%E7%94%BA", "lat": 41.869444, "lon": 140.113889}, {"name_en": "daikokujima_muroran", "name_island": "大黒島_室蘭", "url_island": "https://ja.wikipedia.org/wiki/%E5%A4%A7%E9%BB%92%E5%B3%B6_(%E5%AE%A4%E8%98%AD%E5%B8%82)", "name_municipality": "室蘭市", "url_municipality": "https://ja.wikipedia.org/wiki/%E5%AE%A4%E8%98%AD%E5%B8%82", "lat": 42.347222, "lon": 140.9275}, {"name_en": "takoiwa", "name_island": "鮹岩", "url_island": "https://ja.wikipedia.org/wiki/%E9%AE%B9%E5%B2%A9", "name_municipality": "斜里町", "url_municipality": "https://ja.wikipedia.org/wiki/%E6%96%9C%E9%87%8C%E7%94%BA", "lat": 44.241806, "lon": 145.223472}, {"name_en": "yururi_jima", "name_island": "ユルリ島", "url_island": "https://ja.wikipedia.org/wiki/%E3%83%A6%E3%83%AB%E3%83%AA%E5%B3%B6", "name_municipality": "根室市", "url_municipality": "https://ja.wikipedia.org/wiki/%E6%A0%B9%E5%AE%A4%E5%B8%82", "lat": 43.212556, "lon": 145.596806}, {"name_en": "oshima_ooshima", "name_island": "渡島大島", "url_island": "https://ja.wikipedia.org/wiki/%E6%B8%A1%E5%B3%B6%E5%A4%A7%E5%B3%B6", "name_municipality": "松前町", "url_municipality": "https://ja.wikipedia.org/wiki/%E6%9D%BE%E5%89%8D%E7%94%BA_(%E5%8C%97%E6%B5%B7%E9%81%93)", "lat": 41.511111, "lon": 139.358333}, {"name_en": "oshima_kojima", "name_island": "渡島小島", "url_island": "https://ja.wikipedia.org/wiki/%E6%B8%A1%E5%B3%B6%E5%B0%8F%E5%B3%B6", "name_municipality": "松前町", "url_municipality": "https://ja.wikipedia.org/wiki/%E6%9D%BE%E5%89%8D%E7%94%BA_(%E5%8C%97%E6%B5%B7%E9%81%93)", "lat": 41.361111, "lon": 139.805556}, {"name_en": "todo_jima_rebun", "name_island": "海驢島", "url_island": "https://ja.wikipedia.org/wiki/%E6%B5%B7%E9%A9%A2%E5%B3%B6", "name_municipality": "礼文町", "url_municipality": "https://ja.wikipedia.org/wiki/%E7%A4%BC%E6%96%87%E7%94%BA", "lat": 45.476944, "lon": 140.964444}, {"name_en": "daikokujima_akkeshi", "name_island": "大黒島_厚岸", "url_island": "https://ja.wikipedia.org/wiki/%E5%A4%A7%E9%BB%92%E5%B3%B6_(%E5%8E%9A%E5%B2%B8%E7%94%BA)", "name_municipality": "厚岸町", "url_municipality": "https://ja.wikipedia.org/wiki/%E5%8E%9A%E5%B2%B8%E7%94%BA", "lat": 42.955556, "lon": 144.872222}, {"name_en": "kenbokki_tou", "name_island": "嶮暮帰島", "url_island": "https://ja.wikipedia.org/wiki/%E5%B6%AE%E6%9A%AE%E5%B8%B0%E5%B3%B6", "name_municipality": "浜中町", "url_municipality": "https://ja.wikipedia.org/wiki/%E6%B5%9C%E4%B8%AD%E7%94%BA", "lat": 43.05, "lon": 145.106389}, {"name_en": "moyuriru_tou", "name_island": "モユルリ島", "url_island": "https://ja.wikipedia.org/wiki/%E3%83%A2%E3%83%A6%E3%83%AB%E3%83%AA%E5%B3%B6", "name_municipality": "根室市", "url_municipality": "https://ja.wikipedia.org/wiki/%E6%A0%B9%E5%AE%A4%E5%B8%82", "lat": 43.226944, "lon": 145.605833}, {"name_en": "gome_jima", "name_island": "ゴメ島", "url_island": "https://ja.wikipedia.org/wiki/%E3%82%B4%E3%83%A1%E5%B3%B6", "name_municipality": "枝幸町", "url_municipality": "https://ja.wikipedia.org/wiki/%E6%9E%9D%E5%B9%B8%E7%94%BA", "lat": 44.700833, "lon": 142.831667}, {"name_en": "tomoshiri_tou", "name_island": "友知島", "url_island": "", "name_municipality": "根室市", "url_municipality": "https://ja.wikipedia.org/wiki/%E6%A0%B9%E5%AE%A4%E5%B8%82", "lat": 43.298898349349656, "lon": 145.67108186560205}, {"name_en": "chitomoshiri_tou", "name_island": "チトモシリ島", "url_island": "", "name_municipality": "根室市", "url_municipality": "https://ja.wikipedia.org/wiki/%E6%A0%B9%E5%AE%A4%E5%B8%82", "lat": 43.298898349349656, "lon": 145.67108186560205}, {"name_en": "yubutu_jima", "name_island": "湯沸島", "url_island": "", "name_municipality": "浜中町", "url_municipality": "https://ja.wikipedia.org/wiki/%E6%B5%9C%E4%B8%AD%E7%94%BA", "lat": 43.076083, "lon": 145.13125}, {"name_en": "nishono_shima_nishi", "name_island": "新所の島_西", "url_island": "", "name_municipality": "別海町", "url_municipality": "https://ja.wikipedia.org/wiki/%E5%88%A5%E6%B5%B7%E7%94%BA", "lat": 43.57077348307252, "lon": 145.24033045639672}, {"name_en": "nishono_shima_higashi", "name_island": "新所の島_東", "url_island": "", "name_municipality": "別海町", "url_municipality": "https://ja.wikipedia.org/wiki/%E5%88%A5%E6%B5%B7%E7%94%BA", "lat": 43.57313351775889, "lon": 145.24730965300768}, {"name_en": "notsuke_1", "name_island": "野付_1", "url_island": "", "name_municipality": "別海町", "url_municipality": "https://ja.wikipedia.org/wiki/%E5%88%A5%E6%B5%B7%E7%94%BA", "lat": 43.56946438962834, "lon": 145.32778647055858}, {"name_en": "notsuke_2", "name_island": "野付_2", "url_island": "", "name_municipality": "別海町", "url_municipality": "https://ja.wikipedia.org/wiki/%E5%88%A5%E6%B5%B7%E7%94%BA", "lat": 43.583694725983214, "lon": 145.31816671587626}, {"name_en": "moekeshi_jima", "name_island": "萌消島", "url_island": "", "name_municipality": "ロシア", "url_municipality": "", "lat": 44.65133520778387, "lon": 146.9773560624034}, {"name_en": "ara_shima", "name_island": "荒島", "url_island": "", "name_municipality": "ロシア", "url_municipality": "", "lat": 44.18000851328922, "lon": 146.04946611789444}, {"name_en": "eitannotto", "name_island": "エイタンノット岬", "url_island": "", "name_municipality": "ロシア", "url_municipality": "", "lat": 43.84689483311598, "lon": 146.9109050145378}, {"name_en": "gome_jima_shikotan", "name_island": "ゴメ島_色丹", "url_island": "", "name_municipality": "ロシア", "url_municipality": "", "lat": 43.791010262609724, "lon": 146.85123259310427}, {"name_en": "kojima_shikotan", "name_island": "小島_色丹", "url_island": "", "name_municipality": "ロシア", "url_municipality": "", "lat": 43.727978, "lon": 146.693979}, {"name_en": "kamo_jima", "name_island": "鴨島", "url_island": "", "name_municipality": "ロシア", "url_municipality": "", "lat": 43.73437828336378, "lon": 146.71236747303743}, {"name_en": "chishima_1", "name_island": "千島_1", "url_island": "", "name_municipality": "ロシア", "url_municipality": "", "lat": 43.4213, "lon": 146.08205}, {"name_en": "chishima_2", "name_island": "千島_2", "url_island": "", "name_municipality": "ロシア", "url_municipality": "", "lat": 43.56882281552828, "lon": 146.40520166152015}, {"name_en": "chishima_i3", "name_island": "千島_3", "url_island": "", "name_municipality": "ロシア", "url_municipality": "", "lat": 43.426790699436445, "lon": 146.1744133312799}, {"name_en": "chishima_4", "name_island": "千島_4", "url_island": "", "name_municipality": "ロシア", "url_municipality": "", "lat": 43.409596606519166, "lon": 146.15306790286562}, {"name_en": "etorofu_tou", "name_island": "択捉島", "url_island": "https://ja.wikipedia.org/wiki/%E6%8A%9E%E6%8D%89%E5%B3%B6", "name_municipality": "ロシア", "url_municipality": "", "lat": 45.225, "lon": 147.875}, {"name_en": "kunashiri_tou", "name_island": "国後島", "url_island": "https://ja.wikipedia.org/wiki/%E5%9B%BD%E5%BE%8C%E5%B3%B6", "name_municipality": "ロシア", "url_municipality": "", "lat": 44.026472, "lon": 145.862528}, {"name_en": "shikotam_tou", "name_island": "色丹島", "url_island": "https://ja.wikipedia.org/wiki/%E8%89%B2%E4%B8%B9%E5%B3%B6", "name_municipality": "ロシア", "url_municipality": "", "lat": 43.793611, "lon": 146.747222}, {"name_en": "araido_tou", "name_island": "阿頼度島", "url_island": "https://ja.wikipedia.org/wiki/%E9%98%BF%E9%A0%BC%E5%BA%A6%E5%B3%B6", "name_municipality": "ロシア", "url_municipality": "", "lat": 50.858333, "lon": 155.558333}, {"name_en": "ushishiru_tou", "name_island": "宇志知島", "url_island": "https://ja.wikipedia.org/wiki/%E5%AE%87%E5%BF%97%E7%9F%A5%E5%B3%B6", "name_municipality": "ロシア", "url_municipality": "", "lat": 47.52, "lon": 152.8}, {"name_en": "uruppu_tou", "name_island": "得撫島", "url_island": "https://ja.wikipedia.org/wiki/%E5%BE%97%E6%92%AB%E5%B3%B6", "name_municipality": "ロシア", "url_municipality": "", "lat": 45.933333, "lon": 150.033333}, {"name_en": "ekaruma_tou", "name_island": "越渇磨島", "url_island": "https://ja.wikipedia.org/wiki/%E8%B6%8A%E6%B8%87%E7%A3%A8%E5%B3%B6", "name_municipality": "ロシア", "url_municipality": "", "lat": 48.958, "lon": 153.93}, {"name_en": "ooshima_shikotan", "name_island": "大島_色丹", "url_island": "https://ja.wikipedia.org/wiki/%E5%A4%A7%E5%B3%B6_(%E5%8C%97%E6%B5%B7%E9%81%93%E8%89%B2%E4%B8%B9%E6%9D%91)", "name_municipality": "ロシア", "url_municipality": "", "lat": 43.752778, "lon": 146.799167}, {"name_en": "onnekotan_tou", "name_island": "温禰古丹島", "url_island": "https://ja.wikipedia.org/wiki/%E6%B8%A9%E7%A6%B0%E5%8F%A4%E4%B8%B9%E5%B3%B6", "name_municipality": "ロシア", "url_municipality": "", "lat": 49.45, "lon": 154.75}, {"name_en": "ketoi_tou", "name_island": "計吐夷島", "url_island": "https://ja.wikipedia.org/wiki/%E8%A8%88%E5%90%90%E5%A4%B7%E5%B3%B6", "name_municipality": "ロシア", "url_municipality": "", "lat": 47.35, "lon": 152.475}, {"name_en": "shimusiru_tou", "name_island": "新知島", "url_island": "https://ja.wikipedia.org/wiki/%E6%96%B0%E7%9F%A5%E5%B3%B6", "name_municipality": "ロシア", "url_municipality": "", "lat": 46.966667, "lon": 152.033333}, {"name_en": "shasukotan_tou", "name_island": "捨子古丹島", "url_island": "https://ja.wikipedia.org/wiki/%E6%8D%A8%E5%AD%90%E5%8F%A4%E4%B8%B9%E5%B3%B6", "name_municipality": "ロシア", "url_municipality": "", "lat": 48.816667, "lon": 154.1}, {"name_en": "shumushu_tou", "name_island": "占守島", "url_island": "https://ja.wikipedia.org/wiki/%E5%8D%A0%E5%AE%88%E5%B3%B6", "name_municipality": "ロシア", "url_municipality": "", "lat": 50.733333, "lon": 156.316667}, {"name_en": "shirinki_tou", "name_island": "志林規島", "url_island": "https://ja.wikipedia.org/wiki/%E5%BF%97%E6%9E%97%E8%A6%8F%E5%B3%B6", "name_municipality": "ロシア", "url_municipality": "", "lat": 50.2, "lon": 154.98}, {"name_en": "surideiwa", "name_island": "摺手岩", "url_island": "https://ja.wikipedia.org/wiki/%E6%91%BA%E6%89%8B%E5%B2%A9", "name_municipality": "ロシア", "url_municipality": "", "lat": 47.58333, "lon": 152.88333}, {"name_en": "chirihoi_tou", "name_island": "知理保以島", "url_island": "https://ja.wikipedia.org/wiki/%E7%9F%A5%E7%90%86%E4%BF%9D%E4%BB%A5%E5%B3%B6", "name_municipality": "ロシア", "url_municipality": "", "lat": 46.525, "lon": 150.875}, {"name_en": "chirinkotan_tou", "name_island": "知林古丹島", "url_island": "https://ja.wikipedia.org/wiki/%E7%9F%A5%E6%9E%97%E5%8F%A4%E4%B8%B9%E5%B3%B6", "name_municipality": "ロシア", "url_municipality": "", "lat": 48.98, "lon": 153.48}, {"name_en": "paramushiru_tou", "name_island": "幌筵島", "url_island": "https://ja.wikipedia.org/wiki/%E5%B9%8C%E7%AD%B5%E5%B3%B6", "name_municipality": "ロシア", "url_municipality": "", "lat": 50.333333, "lon": 155.75}, {"name_en": "harimukotan_tou", "name_island": "春牟古丹島", "url_island": "https://ja.wikipedia.org/wiki/%E6%98%A5%E7%89%9F%E5%8F%A4%E4%B8%B9%E5%B3%B6", "name_municipality": "ロシア", "url_municipality": "", "lat": 49.116667, "lon": 154.508056}, {"name_en": "buroton_tou", "name_island": "武魯頓島", "url_island": "https://ja.wikipedia.org/wiki/%E6%AD%A6%E9%AD%AF%E9%A0%93%E5%B3%B6", "name_municipality": "ロシア", "url_municipality": "", "lat": 46.711667, "lon": 150.733333}, {"name_en": "makanru_tou", "name_island": "磨勘留島", "url_island": "https://ja.wikipedia.org/wiki/%E7%A3%A8%E5%8B%98%E7%95%99%E5%B3%B6", "name_municipality": "ロシア", "url_municipality": "", "lat": 49.78, "lon": 154.43}, {"name_en": "matsuwa-tou", "name_island": "松輪島", "url_island": "https://ja.wikipedia.org/wiki/%E6%9D%BE%E8%BC%AA%E5%B3%B6", "name_municipality": "ロシア", "url_municipality": "", "lat": 48.083333, "lon": 153.233333}, {"name_en": "raikoke_tou", "name_island": "雷公計島", "url_island": "https://ja.wikipedia.org/wiki/%E9%9B%B7%E5%85%AC%E8%A8%88%E5%B3%B6", "name_municipality": "ロシア", "url_municipality": "", "lat": 8.291667, "lon": 153.241667}, {"name_en": "rashowa_tou", "name_island": "羅処和島", "url_island": "https://ja.wikipedia.org/wiki/%E7%BE%85%E5%87%A6%E5%92%8C%E5%B3%B6", "name_municipality": "ロシア", "url_municipality": "", "lat": 47.77, "lon": 153.02}, {"name_en": "kaibajima_habomai", "name_island": "海馬島_歯舞", "url_island": "https://ja.wikipedia.org/wiki/%E6%B5%B7%E9%A6%AC%E5%B3%B6_(%E6%AD%AF%E8%88%9E%E7%BE%A4%E5%B3%B6)", "name_municipality": "根室市", "url_municipality": "https://ja.wikipedia.org/wiki/%E6%A0%B9%E5%AE%A4%E5%B8%82", "lat": 43.567603, "lon": 146.401696}, {"name_en": "taraku_tou", "name_island": "多楽島", "url_island": "https://ja.wikipedia.org/wiki/%E5%A4%9A%E6%A5%BD%E5%B3%B6", "name_municipality": "根室市", "url_municipality": "https://ja.wikipedia.org/wiki/%E6%A0%B9%E5%AE%A4%E5%B8%82", "lat": 43.627778, "lon": 146.322222}, {"name_en": "shibotsu_tou", "name_island": "志発島", "url_island": "https://ja.wikipedia.org/wiki/%E5%BF%97%E7%99%BA%E5%B3%B6", "name_municipality": "根室市", "url_municipality": "https://ja.wikipedia.org/wiki/%E6%A0%B9%E5%AE%A4%E5%B8%82", "lat": 43.494444, "lon": 146.15}, {"name_en": "harukaru_tou", "name_island": "春苅島", "url_island": "https://ja.wikipedia.org/wiki/%E6%98%A5%E8%8B%85%E5%B3%B6", "name_municipality": "根室市", "url_municipality": "https://ja.wikipedia.org/wiki/%E6%A0%B9%E5%AE%A4%E5%B8%82", "lat": 43.41754, "lon": 146.162131}, {"name_en": "yuri_tou", "name_island": "勇留島", "url_island": "https://ja.wikipedia.org/wiki/%E5%8B%87%E7%95%99%E5%B3%B6", "name_municipality": "根室市", "url_municipality": "https://ja.wikipedia.org/wiki/%E6%A0%B9%E5%AE%A4%E5%B8%82", "lat": 43.419722, "lon": 146.069722}, {"name_en": "akiyuri_tou", "name_island": "秋勇留島", "url_island": "https://ja.wikipedia.org/wiki/%E7%A7%8B%E5%8B%87%E7%95%99%E5%B3%B6", "name_municipality": "根室市", "url_municipality": "https://ja.wikipedia.org/wiki/%E6%A0%B9%E5%AE%A4%E5%B8%82", "lat": 43.366417, "lon": 146.005833}, {"name_en": "suishou_jima", "name_island": "水晶島", "url_island": "https://ja.wikipedia.org/wiki/%E6%B0%B4%E6%99%B6%E5%B3%B6", "name_municipality": "根室市", "url_municipality": "https://ja.wikipedia.org/wiki/%E6%A0%B9%E5%AE%A4%E5%B8%82", "lat": 43.438639, "lon": 145.9175}, {"name_en": "moeshiri_tou", "name_island": "萌茂尻島", "url_island": "https://ja.wikipedia.org/wiki/%E8%90%8C%E8%8C%82%E5%B0%BB%E5%B3%B6", "name_municipality": "根室市", "url_municipality": "https://ja.wikipedia.org/wiki/%E6%A0%B9%E5%AE%A4%E5%B8%82", "lat": 43.383611, "lon": 145.8925}, {"name_en": "odoke_tou", "name_island": "オドケ島", "url_island": "https://ja.wikipedia.org/wiki/%E3%82%AA%E3%83%89%E3%82%B1%E5%B3%B6", "name_municipality": "根室市", "url_municipality": "https://ja.wikipedia.org/wiki/%E6%A0%B9%E5%AE%A4%E5%B8%82", "lat": 43.39, "lon": 145.875556}, {"name_en": "kaigara_jima", "name_island": "貝殻島", "url_island": "https://ja.wikipedia.org/wiki/%E8%B2%9D%E6%AE%BB%E5%B3%B6", "name_municipality": "根室市", "url_municipality": "https://ja.wikipedia.org/wiki/%E6%A0%B9%E5%AE%A4%E5%B8%82", "lat": 43.396111, "lon": 145.858333}]}