{"title": "List of Islands in nagasaki", "title_ja": "長崎県の島の一覧", "reference": "wikipedia: 長崎県の島", "url_reference": "https://ja.wikipedia.org/wiki/Category:%E9%95%B7%E5%B4%8E%E7%9C%8C%E3%81%AE%E5%B3%B6", "islands": [{"name_en": "aoshima_nagasaki", "name_island": "青島_長崎", "url_island": "https://ja.wikipedia.org/wiki/%E9%9D%92%E5%B3%B6_(%E9%95%B7%E5%B4%8E%E7%9C%8C)", "name_municipality": "松浦市", "url_municipality": "https://ja.wikipedia.org/wiki/%E6%9D%BE%E6%B5%A6%E5%B8%82", "lat": 33.411111, "lon": 129.683333}, {"name_en": "aoshima_iki", "name_island": "青島_壱岐", "url_island": "", "name_municipality": "壱岐市", "url_municipality": "https://ja.wikipedia.org/wiki/%E5%A3%B1%E5%B2%90%E5%B8%82", "lat": 33.780337, "lon": 129.778139}, {"name_en": "akashima_gotou", "name_island": "赤島 _五島", "url_island": "https://ja.wikipedia.org/wiki/%E8%B5%A4%E5%B3%B6_(%E9%95%B7%E5%B4%8E%E7%9C%8C%E4%BA%94%E5%B3%B6%E5%B8%82)", "name_municipality": "五島市", "url_municipality": "https://ja.wikipedia.org/wiki/%E4%BA%94%E5%B3%B6%E5%B8%82", "lat": 32.595, "lon": 128.923056}, {"name_en": "akajima_sasebo", "name_island": "赤島_佐世保", "url_island": "", "name_municipality": "佐世保市", "url_municipality": "https://ja.wikipedia.org/wiki/%E4%BD%90%E4%B8%96%E4%BF%9D%E5%B8%82", "lat": 33.252474, "lon": 129.562391}, {"name_en": "adika_jima", "name_island": "阿値賀島", "url_island": "https://ja.wikipedia.org/wiki/%E9%98%BF%E5%80%A4%E8%B3%80%E5%B3%B6", "name_municipality": "平戸市", "url_municipality": "https://ja.wikipedia.org/wiki/%E5%B9%B3%E6%88%B8%E5%B8%82", "lat": 33.250961, "lon": 129.339675}, {"name_en": "azuchi_ooshima", "name_island": "的山大島", "url_island": "https://ja.wikipedia.org/wiki/%E7%9A%84%E5%B1%B1%E5%A4%A7%E5%B3%B6", "name_municipality": "平戸市", "url_municipality": "https://ja.wikipedia.org/wiki/%E5%B9%B3%E6%88%B8%E5%B8%82", "lat": 33.479556, "lon": 129.554667}, {"name_en": "itsukishima", "name_island": "生月島", "url_island": "https://ja.wikipedia.org/wiki/%E7%94%9F%E6%9C%88%E5%B3%B6", "name_municipality": "平戸市", "url_municipality": "https://ja.wikipedia.org/wiki/%E5%B9%B3%E6%88%B8%E5%B8%82", "lat": 33.386417, "lon": 129.430667}, {"name_en": "ikeshima_nagasaki", "name_island": "池島_長崎", "url_island": "https://ja.wikipedia.org/wiki/%E6%B1%A0%E5%B3%B6_(%E9%95%B7%E5%B4%8E%E7%9C%8C)", "name_municipality": "長崎市", "url_municipality": "https://ja.wikipedia.org/wiki/%E9%95%B7%E5%B4%8E%E5%B8%82", "lat": 32.883833, "lon": 129.595806}, {"name_en": "iroha_jima", "name_island": "いろは島", "url_island": "https://ja.wikipedia.org/wiki/%E3%81%84%E3%82%8D%E3%81%AF%E5%B3%B6", "name_municipality": "松浦市", "url_municipality": "https://ja.wikipedia.org/wiki/%E6%9D%BE%E6%B5%A6%E5%B8%82", "lat": 33.392222, "lon": 129.852222}, {"name_en": "uta_jima", "name_island": "詩島", "url_island": "https://ja.wikipedia.org/wiki/%E8%A9%A9%E5%B3%B6", "name_municipality": "長崎市", "url_municipality": "https://ja.wikipedia.org/wiki/%E9%95%B7%E5%B4%8E%E5%B8%82", "lat": 32.881667, "lon": 129.81}, {"name_en": "enoshima_nagasaki", "name_island": "江島_長崎", "url_island": "https://ja.wikipedia.org/wiki/%E6%B1%9F%E5%B3%B6_(%E9%95%B7%E5%B4%8E%E7%9C%8C)", "name_municipality": "西海市", "url_municipality": "https://ja.wikipedia.org/wiki/%E8%A5%BF%E6%B5%B7%E5%B8%82", "lat": 33.009167, "lon": 129.35}, {"name_en": "oushima_nagasaki", "name_island": "黄島_長崎", "url_island": "https://ja.wikipedia.org/wiki/%E9%BB%84%E5%B3%B6_(%E9%95%B7%E5%B4%8E%E7%9C%8C)", "name_municipality": "五島市", "url_municipality": "https://ja.wikipedia.org/wiki/%E4%BA%94%E5%B3%B6%E5%B8%82", "lat": 32.566111, "lon": 128.899722}, {"name_en": "ooshima_sasebo", "name_island": "大島_佐世保", "url_island": "", "name_municipality": "佐世保市", "url_municipality": "https://ja.wikipedia.org/wiki/%E4%BD%90%E4%B8%96%E4%BF%9D%E5%B8%82", "lat": 33.263704, "lon": 129.562121}, {"name_en": "ooshima_saikai", "name_island": "大島_西海", "url_island": "https://ja.wikipedia.org/wiki/%E5%A4%A7%E5%B3%B6_(%E9%95%B7%E5%B4%8E%E7%9C%8C%E8%A5%BF%E6%B5%B7%E5%B8%82)", "name_municipality": "西海市", "url_municipality": "https://ja.wikipedia.org/wiki/%E8%A5%BF%E6%B5%B7%E5%B8%82", "lat": 33.041667, "lon": 129.609722}, {"name_en": "ooshima_tsushima", "name_island": "大島_対馬", "url_island": "", "name_municipality": "対馬市", "url_municipality": "https://ja.wikipedia.org/wiki/%E5%AF%BE%E9%A6%AC%E5%B8%82", "lat": 34.299251, "lon": 129.232068}, {"name_en": "okinohima_nagasaki", "name_island": "沖之島_長崎", "url_island": "https://ja.wikipedia.org/wiki/%E6%B2%96%E4%B9%8B%E5%B3%B6_(%E9%95%B7%E5%B4%8E%E7%9C%8C)", "name_municipality": "長崎市", "url_municipality": "https://ja.wikipedia.org/wiki/%E9%95%B7%E5%B4%8E%E5%B8%82", "lat": 32.691111, "lon": 129.779167}, {"name_en": "kakinourashima", "name_island": "蛎浦島", "url_island": "https://ja.wikipedia.org/wiki/%E8%9B%8E%E6%B5%A6%E5%B3%B6", "name_municipality": "西海市", "url_municipality": "https://ja.wikipedia.org/wiki/%E8%A5%BF%E6%B5%B7%E5%B8%82", "lat": 33.022222, "lon": 129.570278}, {"name_en": "kashimanagasaki", "name_island": "鹿島_長崎", "url_island": "https://ja.wikipedia.org/wiki/%E9%B9%BF%E5%B3%B6_(%E9%95%B7%E5%B4%8E%E7%9C%8C)", "name_municipality": "諫早市", "url_municipality": "https://ja.wikipedia.org/wiki/%E8%AB%AB%E6%97%A9%E5%B8%82", "lat": 32.870278, "lon": 129.928611}, {"name_en": "kabashima_2", "name_island": "樺島", "url_island": "https://ja.wikipedia.org/wiki/%E6%A8%BA%E5%B3%B6", "name_municipality": "長崎市", "url_municipality": "https://ja.wikipedia.org/wiki/%E9%95%B7%E5%B4%8E%E5%B8%82", "lat": 32.5625, "lon": 129.783056}, {"name_en": "kujyoukushima_saikai", "name_island": "九十九島_西海", "url_island": "https://ja.wikipedia.org/wiki/%E4%B9%9D%E5%8D%81%E4%B9%9D%E5%B3%B6_(%E8%A5%BF%E6%B5%B7%E5%9B%BD%E7%AB%8B%E5%85%AC%E5%9C%92)", "name_municipality": "松浦市", "url_municipality": "https://ja.wikipedia.org/wiki/%E6%9D%BE%E6%B5%A6%E5%B8%82", "lat": 33.166667, "lon": 129.6}, {"name_en": "kuroko_jima", "name_island": "黒子島", "url_island": "https://ja.wikipedia.org/wiki/%E9%BB%92%E5%AD%90%E5%B3%B6", "name_municipality": "平戸市", "url_municipality": "https://ja.wikipedia.org/wiki/%E5%B9%B3%E6%88%B8%E5%B8%82", "lat": 33.373056, "lon": 129.561667}, {"name_en": "kuroshima_gotou", "name_island": "黒島_五島", "url_island": "https://ja.wikipedia.org/wiki/%E9%BB%92%E5%B3%B6_(%E9%95%B7%E5%B4%8E%E7%9C%8C%E4%BA%94%E5%B3%B6%E5%B8%82)", "name_municipality": "五島市", "url_municipality": "https://ja.wikipedia.org/wiki/%E4%BA%94%E5%B3%B6%E5%B8%82", "lat": 32.600278, "lon": 128.834722}, {"name_en": "kuroshima_sasebo", "name_island": "黒島_佐世保", "url_island": "https://ja.wikipedia.org/wiki/%E9%BB%92%E5%B3%B6_(%E9%95%B7%E5%B4%8E%E7%9C%8C%E4%BD%90%E4%B8%96%E4%BF%9D%E5%B8%82)", "name_municipality": "佐世保市", "url_municipality": "https://ja.wikipedia.org/wiki/%E4%BD%90%E4%B8%96%E4%BF%9D%E5%B8%82", "lat": 33.141806, "lon": 129.534444}, {"name_en": "kuroshima_matsuura", "name_island": "黒島_松浦", "url_island": "https://ja.wikipedia.org/wiki/%E9%BB%92%E5%B3%B6_(%E9%95%B7%E5%B4%8E%E7%9C%8C%E6%9D%BE%E6%B5%A6%E5%B8%82)", "name_municipality": "松浦市", "url_municipality": "https://ja.wikipedia.org/wiki/%E6%9D%BE%E6%B5%A6%E5%B8%82", "lat": 33.458333, "lon": 129.722222}, {"name_en": "kuroshima_tsushima", "name_island": "黒島_対馬", "url_island": "", "name_municipality": "対馬市", "url_municipality": "https://ja.wikipedia.org/wiki/%E5%AF%BE%E9%A6%AC%E5%B8%82", "lat": 34.3146, "lon": 129.3972}, {"name_en": "sakito_jima", "name_island": "崎戸島", "url_island": "https://ja.wikipedia.org/wiki/%E5%B4%8E%E6%88%B8%E5%B3%B6", "name_municipality": "西海市", "url_municipality": "https://ja.wikipedia.org/wiki/%E8%A5%BF%E6%B5%B7%E5%B8%82", "lat": 33.006389, "lon": 129.549444}, {"name_en": "sazae_jima", "name_island": "蠑螺島", "url_island": "https://ja.wikipedia.org/wiki/%E8%A0%91%E8%9E%BA%E5%B3%B6", "name_municipality": "五島市", "url_municipality": "https://ja.wikipedia.org/wiki/%E4%BA%94%E5%B3%B6%E5%B8%82", "lat": 32.703056, "lon": 128.896944}, {"name_en": "takashima_2", "name_island": "高島_平戸", "url_island": "https://ja.wikipedia.org/wiki/%E9%AB%98%E5%B3%B6_(%E9%95%B7%E5%B4%8E%E7%9C%8C%E5%B9%B3%E6%88%B8%E5%B8%82)", "name_municipality": "平戸市", "url_municipality": "https://ja.wikipedia.org/wiki/%E5%B9%B3%E6%88%B8%E5%B8%82", "lat": 33.187222, "lon": 129.337222}, {"name_en": "takashima_3", "name_island": "高島_長崎", "url_island": "https://ja.wikipedia.org/wiki/%E9%AB%98%E5%B3%B6_(%E9%95%B7%E5%B4%8E%E7%9C%8C%E9%95%B7%E5%B4%8E%E5%B8%82)", "name_municipality": "長崎市", "url_municipality": "https://ja.wikipedia.org/wiki/%E9%95%B7%E5%B4%8E%E5%B8%82", "lat": 32.6575, "lon": 129.754444}, {"name_en": "takashima_4", "name_island": "高島_4", "url_island": "", "name_municipality": "佐世保市", "url_municipality": "https://ja.wikipedia.org/wiki/%E4%BD%90%E4%B8%96%E4%BF%9D%E5%B8%82", "lat": 33.178877, "lon": 129.587}, {"name_en": "takashima_5", "name_island": "高島_5", "url_island": "", "name_municipality": "佐世保市", "url_municipality": "https://ja.wikipedia.org/wiki/%E4%BD%90%E4%B8%96%E4%BF%9D%E5%B8%82", "lat": 33.133072, "lon": 129.753086}, {"name_en": "takashima_6", "name_island": "高島_6", "url_island": "", "name_municipality": "西海市", "url_municipality": "https://ja.wikipedia.org/wiki/%E8%A5%BF%E6%B5%B7%E5%B8%82", "lat": 32.994346, "lon": 129.818495}, {"name_en": "takashima_7", "name_island": "鷹島_長崎", "url_island": "https://ja.wikipedia.org/wiki/%E9%B7%B9%E5%B3%B6_(%E9%95%B7%E5%B4%8E%E7%9C%8C)", "name_municipality": "松浦市", "url_municipality": "https://ja.wikipedia.org/wiki/%E6%9D%BE%E6%B5%A6%E5%B8%82", "lat": 33.434028, "lon": 129.755889}, {"name_en": "takashima_8", "name_island": "鷹島_2", "url_island": "", "name_municipality": "時津町", "url_municipality": "https://ja.wikipedia.org/wiki/%E6%99%82%E6%B4%A5%E7%94%BA", "lat": 32.86707, "lon": 129.82461}, {"name_en": "takushima", "name_island": "度島", "url_island": "https://ja.wikipedia.org/wiki/%E5%BA%A6%E5%B3%B6", "name_municipality": "平戸市", "url_municipality": "https://ja.wikipedia.org/wiki/%E5%B9%B3%E6%88%B8%E5%B8%82", "lat": 33.438528, "lon": 129.524139}, {"name_en": "takenoshima", "name_island": "竹ノ島", "url_island": "https://ja.wikipedia.org/wiki/%E7%AB%B9%E3%83%8E%E5%B3%B6", "name_municipality": "西海市", "url_municipality": "https://ja.wikipedia.org/wiki/%E8%A5%BF%E6%B5%B7%E5%B8%82", "lat": 32.995556, "lon": 129.743889}, {"name_en": "terashima_saikai", "name_island": "寺島_西海", "url_island": "https://ja.wikipedia.org/wiki/%E5%AF%BA%E5%B3%B6_(%E9%95%B7%E5%B4%8E%E7%9C%8C%E8%A5%BF%E6%B5%B7%E5%B8%82)", "name_municipality": "西海市", "url_municipality": "https://ja.wikipedia.org/wiki/%E8%A5%BF%E6%B5%B7%E5%B8%82", "lat": 33.035, "lon": 129.633333}, {"name_en": "tobishima_matsuura", "name_island": "飛島_松浦", "url_island": "https://ja.wikipedia.org/wiki/%E9%A3%9B%E5%B3%B6_(%E9%95%B7%E5%B4%8E%E7%9C%8C%E6%9D%BE%E6%B5%A6%E5%B8%82)", "name_municipality": "松浦市", "url_municipality": "https://ja.wikipedia.org/wiki/%E6%9D%BE%E6%B5%A6%E5%B8%82", "lat": 33.396667, "lon": 129.78}, {"name_en": "kotobishima", "name_island": "小飛島", "url_island": "", "name_municipality": "松浦市", "url_municipality": "https://ja.wikipedia.org/wiki/%E6%9D%BE%E6%B5%A6%E5%B8%82", "lat": 33.391447, "lon": 129.776242}, {"name_en": "nakaenoshima", "name_island": "中江ノ島", "url_island": "https://ja.wikipedia.org/wiki/%E4%B8%AD%E6%B1%9F%E3%83%8E%E5%B3%B6", "name_municipality": "平戸市", "url_municipality": "https://ja.wikipedia.org/wiki/%E5%B9%B3%E6%88%B8%E5%B8%82", "lat": 33.373267, "lon": 129.465122}, {"name_en": "nakanoshima_nagasaki", "name_island": "中ノ島_長崎", "url_island": "https://ja.wikipedia.org/wiki/%E4%B8%AD%E3%83%8E%E5%B3%B6_(%E9%95%B7%E5%B4%8E%E7%9C%8C)", "name_municipality": "長崎市", "url_municipality": "https://ja.wikipedia.org/wiki/%E9%95%B7%E5%B4%8E%E5%B8%82", "lat": 32.635278, "lon": 129.746667}, {"name_en": "nakanoshima_tsushima", "name_island": "中ノ島_対馬", "url_island": "", "name_municipality": "対馬市", "url_municipality": "https://ja.wikipedia.org/wiki/%E5%AF%BE%E9%A6%AC%E5%B8%82", "lat": 34.420709, "lon": 129.267138}, {"name_en": "nakanoshima_saikai", "name_island": "中ノ島_西海", "url_island": "", "name_municipality": "西海市", "url_municipality": "https://ja.wikipedia.org/wiki/%E8%A5%BF%E6%B5%B7%E5%B8%82", "lat": 33.06173, "lon": 129.642419}, {"name_en": "hashima_nagasaki", "name_island": "端島_長崎", "url_island": "https://ja.wikipedia.org/wiki/%E7%AB%AF%E5%B3%B6_(%E9%95%B7%E5%B4%8E%E7%9C%8C)", "name_municipality": "長崎市", "url_municipality": "https://ja.wikipedia.org/wiki/%E9%95%B7%E5%B4%8E%E5%B8%82", "lat": 32.627778, "lon": 129.738333}, {"name_en": "hirashima_nagasaki", "name_island": "平島_長崎", "url_island": "https://ja.wikipedia.org/wiki/%E5%B9%B3%E5%B3%B6_(%E9%95%B7%E5%B4%8E%E7%9C%8C)", "name_municipality": "西海市", "url_municipality": "https://ja.wikipedia.org/wiki/%E8%A5%BF%E6%B5%B7%E5%B8%82", "lat": 33.006397, "lon": 129.24283}, {"name_en": "hirashima_2", "name_island": "平島_2", "url_island": "", "name_municipality": "小値賀町", "url_municipality": "https://ja.wikipedia.org/wiki/%E5%B0%8F%E5%80%A4%E8%B3%80%E7%94%BA", "lat": 33.15297, "lon": 128.89957}, {"name_en": "hirado_jima", "name_island": "平戸島", "url_island": "https://ja.wikipedia.org/wiki/%E5%B9%B3%E6%88%B8%E5%B3%B6", "name_municipality": "平戸市", "url_municipality": "https://ja.wikipedia.org/wiki/%E5%B9%B3%E6%88%B8%E5%B8%82", "lat": 33.368056, "lon": 129.553611}, {"name_en": "fukushima_nagasaki", "name_island": "福島_長崎", "url_island": "https://ja.wikipedia.org/wiki/%E7%A6%8F%E5%B3%B6_(%E9%95%B7%E5%B4%8E%E7%9C%8C)", "name_municipality": "松浦市", "url_municipality": "https://ja.wikipedia.org/wiki/%E6%9D%BE%E6%B5%A6%E5%B8%82", "lat": 33.380556, "lon": 129.827778}, {"name_en": "futagamishima", "name_island": "二神島", "url_island": "https://ja.wikipedia.org/wiki/%E4%BA%8C%E7%A5%9E%E5%B3%B6_(%E9%95%B7%E5%B4%8E%E7%9C%8C)", "name_municipality": "平戸市", "url_municipality": "https://ja.wikipedia.org/wiki/%E5%B9%B3%E6%88%B8%E5%B8%82", "lat": 33.606944, "lon": 129.555556}, {"name_en": "maejima_gotou", "name_island": "前島_五島", "url_island": "https://ja.wikipedia.org/wiki/%E5%89%8D%E5%B3%B6_(%E9%95%B7%E5%B4%8E%E7%9C%8C%E4%BA%94%E5%B3%B6%E5%B8%82)", "name_municipality": "五島市", "url_municipality": "https://ja.wikipedia.org/wiki/%E4%BA%94%E5%B3%B6%E5%B8%82", "lat": 32.799389, "lon": 128.927222}, {"name_en": "maejima_sasebo", "name_island": "前島_佐世保", "url_island": "", "name_municipality": "佐世保市", "url_municipality": "https://ja.wikipedia.org/wiki/%E4%BD%90%E4%B8%96%E4%BF%9D%E5%B8%82", "lat": 33.210409, "lon": 129.577751}, {"name_en": "maejima_togitsu", "name_island": "前島_時津", "url_island": "https://ja.wikipedia.org/wiki/%E5%89%8D%E5%B3%B6_(%E9%95%B7%E5%B4%8E%E7%9C%8C%E6%99%82%E6%B4%A5%E7%94%BA)", "name_municipality": "時津町", "url_municipality": "https://ja.wikipedia.org/wiki/%E6%99%82%E6%B4%A5%E7%94%BA", "lat": 32.868611, "lon": 129.807778}, {"name_en": "makishima_nagasaki", "name_island": "牧島_長崎", "url_island": "https://ja.wikipedia.org/wiki/%E7%89%A7%E5%B3%B6_(%E9%95%B7%E5%B4%8E%E7%9C%8C)", "name_municipality": "長崎市", "url_municipality": "https://ja.wikipedia.org/wiki/%E9%95%B7%E5%B4%8E%E5%B8%82", "lat": 32.751667, "lon": 129.974722}, {"name_en": "matsushima_nagasaki", "name_island": "松島_長崎", "url_island": "https://ja.wikipedia.org/wiki/%E6%9D%BE%E5%B3%B6_(%E9%95%B7%E5%B4%8E%E7%9C%8C)", "name_municipality": "西海市", "url_municipality": "https://ja.wikipedia.org/wiki/%E8%A5%BF%E6%B5%B7%E5%B8%82", "lat": 32.928056, "lon": 129.611389}, {"name_en": "matsushima_2", "name_island": "松島_2", "url_island": "", "name_municipality": "西海市", "url_municipality": "https://ja.wikipedia.org/wiki/%E8%A5%BF%E6%B5%B7%E5%B8%82", "lat": 32.940324, "lon": 129.605904}, {"name_en": "yokoshima_hirado_1", "name_island": "横島_平戸_1", "url_island": "https://ja.wikipedia.org/wiki/%E6%A8%AA%E5%B3%B6_(%E9%95%B7%E5%B4%8E%E7%9C%8C%E5%B9%B3%E6%88%B8%E5%B8%82)", "name_municipality": "平戸市", "url_municipality": "https://ja.wikipedia.org/wiki/%E5%B9%B3%E6%88%B8%E5%B8%82", "lat": 33.383537, "lon": 129.597197}, {"name_en": "yokoshima_hirado_2", "name_island": "横島_平戸_2", "url_island": "", "name_municipality": "平戸市", "url_municipality": "https://ja.wikipedia.org/wiki/%E5%B9%B3%E6%88%B8%E5%B8%82", "lat": 33.423669, "lon": 129.533582}, {"name_en": "yokoshima_nagasaki", "name_island": "横島_長崎", "url_island": "https://ja.wikipedia.org/wiki/%E6%A8%AA%E5%B3%B6_(%E9%95%B7%E5%B4%8E%E7%9C%8C%E9%95%B7%E5%B4%8E%E5%B8%82)", "name_municipality": "長崎市", "url_municipality": "https://ja.wikipedia.org/wiki/%E9%95%B7%E5%B4%8E%E5%B8%82", "lat": 32.675, "lon": 129.796111}, {"name_en": "wakamatau_jima", "name_island": "若松島", "url_island": "https://ja.wikipedia.org/wiki/%E8%8B%A5%E6%9D%BE%E5%B3%B6", "name_municipality": "新上五島町", "url_municipality": "https://ja.wikipedia.org/wiki/%E6%96%B0%E4%B8%8A%E4%BA%94%E5%B3%B6%E7%94%BA", "lat": 32.866667, "lon": 129.016667}, {"name_en": "shikoshima", "name_island": "志古島", "url_island": "", "name_municipality": "対馬市", "url_municipality": "https://ja.wikipedia.org/wiki/%E5%AF%BE%E9%A6%AC%E5%B8%82", "lat": 34.681679, "lon": 129.480259}, {"name_en": "shitazakiura", "name_island": "舌崎浦", "url_island": "", "name_municipality": "対馬市", "url_municipality": "https://ja.wikipedia.org/wiki/%E5%AF%BE%E9%A6%AC%E5%B8%82", "lat": 34.680389, "lon": 129.4907445}, {"name_en": "kaminoshima", "name_island": "神ノ島", "url_island": "", "name_municipality": "対馬市", "url_municipality": "https://ja.wikipedia.org/wiki/%E5%AF%BE%E9%A6%AC%E5%B8%82", "lat": 34.428746, "lon": 129.265957}, {"name_en": "kusa_jima", "name_island": "草島", "url_island": "", "name_municipality": "対馬市", "url_municipality": "https://ja.wikipedia.org/wiki/%E5%AF%BE%E9%A6%AC%E5%B8%82", "lat": 34.358171, "lon": 129.333458}, {"name_en": "nezumi_jima", "name_island": "鼠島", "url_island": "", "name_municipality": "対馬市", "url_municipality": "https://ja.wikipedia.org/wiki/%E5%AF%BE%E9%A6%AC%E5%B8%82", "lat": 34.315755, "lon": 129.30037}, {"name_en": "shishika_jima", "name_island": "志々加島", "url_island": "https://ja.wikipedia.org/wiki/%E7%AB%B9%E6%95%B7%E6%9D%91", "name_municipality": "対馬市", "url_municipality": "https://ja.wikipedia.org/wiki/%E5%AF%BE%E9%A6%AC%E5%B8%82", "lat": 34.296251, "lon": 129.313338}, {"name_en": "kurosaki_jima", "name_island": "黒崎島", "url_island": "", "name_municipality": "対馬市", "url_municipality": "https://ja.wikipedia.org/wiki/%E5%AF%BE%E9%A6%AC%E5%B8%8", "lat": 34.302912, "lon": 129.325069}, {"name_en": "naiin_jima", "name_island": "内院島", "url_island": "", "name_municipality": "対馬市", "url_municipality": "https://ja.wikipedia.org/wiki/%E5%AF%BE%E9%A6%AC%E5%B8%8", "lat": 34.098283, "lon": 129.2414396}, {"name_en": "nagarasu_jima", "name_island": "名鳥島", "url_island": "", "name_municipality": "壱岐市", "url_municipality": "https://ja.wikipedia.org/wiki/%E5%A3%B1%E5%B2%90%E5%B8%82", "lat": 33.866517, "lon": 129.699766}, {"name_en": "tatsunoshima", "name_island": "辰ノ島", "url_island": "", "name_municipality": "壱岐市", "url_municipality": "https://ja.wikipedia.org/wiki/%E5%A3%B1%E5%B2%90%E5%B8%82", "lat": 33.867125, "lon": 129.677823}, {"name_en": "tenaga_jima", "name_island": "手長島", "url_island": "", "name_municipality": "壱岐市", "url_municipality": "https://ja.wikipedia.org/wiki/%E5%A3%B1%E5%B2%90%E5%B8%82", "lat": 33.831206, "lon": 129.659982}, {"name_en": "tsumaga_jima", "name_island": "妻ケ島", "url_island": "", "name_municipality": "壱岐市", "url_municipality": "https://ja.wikipedia.org/wiki/%E5%A3%B1%E5%B2%90%E5%B8%82", "lat": 33.733321, "lon": 129.75795}, {"name_en": "ogonoshima", "name_island": "魚固島", "url_island": "", "name_municipality": "松浦市", "url_municipality": "https://ja.wikipedia.org/wiki/%E6%9D%BE%E6%B5%A6%E5%B8%82", "lat": 33.422017, "lon": 129.710557}, {"name_en": "kazurajima_1", "name_island": "カズラ島_1", "url_island": "", "name_municipality": "松浦市", "url_municipality": "https://ja.wikipedia.org/wiki/%E6%9D%BE%E6%B5%A6%E5%B8%82", "lat": 33.352203, "lon": 129.827551}, {"name_en": "azurajima_1", "name_island": "カズラ島_2", "url_island": "", "name_municipality": "新上五島町", "url_municipality": "https://ja.wikipedia.org/wiki/%E6%96%B0%E4%B8%8A%E4%BA%94%E5%B3%B6%E7%94%BA", "lat": 32.84856, "lon": 129.03917}, {"name_en": "sejiri_jima", "name_island": "瀬尻島", "url_island": "", "name_municipality": "佐世保市", "url_municipality": "https://ja.wikipedia.org/wiki/%E4%BD%90%E4%B8%96%E4%BF%9D%E5%B8%82", "lat": 33.288429, "lon": 129.56559}, {"name_en": "kuzu_jima", "name_island": "九頭島", "url_island": "", "name_municipality": "佐世保市", "url_municipality": "https://ja.wikipedia.org/wiki/%E4%BD%90%E4%B8%96%E4%BF%9D%E5%B8%82", "lat": 33.289521, "lon": 129.57518}, {"name_en": "ushi_jima", "name_island": "丑島", "url_island": "", "name_municipality": "佐世保市", "url_municipality": "https://ja.wikipedia.org/wiki/%E4%BD%90%E4%B8%96%E4%BF%9D%E5%B8%82", "lat": 33.273605, "lon": 129.567805}, {"name_en": "kinkurou_jima", "name_island": "金九郎島", "url_island": "", "name_municipality": "佐世保市", "url_municipality": "https://ja.wikipedia.org/wiki/%E4%BD%90%E4%B8%96%E4%BF%9D%E5%B8%82", "lat": 33.263506, "lon": 129.554293}, {"name_en": "asa_jima", "name_island": "浅島", "url_island": "", "name_municipality": "佐世保市", "url_municipality": "https://ja.wikipedia.org/wiki/%E4%BD%90%E4%B8%96%E4%BF%9D%E5%B8%82", "lat": 33.225621, "lon": 129.548456}, {"name_en": "yake_jima", "name_island": "焼島", "url_island": "", "name_municipality": "佐世保市", "url_municipality": "https://ja.wikipedia.org/wiki/%E4%BD%90%E4%B8%96%E4%BF%9D%E5%B8%82", "lat": 33.204261, "lon": 129.586829}, {"name_en": "tokoi_jima", "name_island": "トコイ島", "url_island": "", "name_municipality": "佐世保市", "url_municipality": "https://ja.wikipedia.org/wiki/%E4%BD%90%E4%B8%96%E4%BF%9D%E5%B8%82", "lat": 33.195373, "lon": 129.598494}, {"name_en": "kamikodaka_jima", "name_island": "上小高島", "url_island": "", "name_municipality": "佐世保市", "url_municipality": "https://ja.wikipedia.org/wiki/%E4%BD%90%E4%B8%96%E4%BF%9D%E5%B8%82", "lat": 33.192602, "lon": 129.6108}, {"name_en": "shimokodaka_jima", "name_island": "下小高島", "url_island": "", "name_municipality": "佐世保市", "url_municipality": "https://ja.wikipedia.org/wiki/%E4%BD%90%E4%B8%96%E4%BF%9D%E5%B8%82", "lat": 33.186808, "lon": 129.612013}, {"name_en": "kuroki_jima", "name_island": "クロキ島", "url_island": "https://ja.wikipedia.org/wiki/%E7%94%B7%E5%A5%B3%E7%BE%A4%E5%B3%B6", "name_municipality": "五島市", "url_municipality": "https://ja.wikipedia.org/wiki/%E4%BA%94%E5%B3%B6%E5%B8%82", "lat": 32.032941, "lon": 128.378875}, {"name_en": "yorishima", "name_island": "寄島", "url_island": "", "name_municipality": "五島市", "url_municipality": "https://ja.wikipedia.org/wiki/%E4%BA%94%E5%B3%B6%E5%B8%82", "lat": 32.02698, "lon": 128.371665}, {"name_en": "hanakuri", "name_island": "ハナクリ島", "url_island": "https://ja.wikipedia.org/wiki/%E7%94%B7%E5%A5%B3%E7%BE%A4%E5%B3%B6", "name_municipality": "五島市", "url_municipality": "https://ja.wikipedia.org/wiki/%E4%BA%94%E5%B3%B6%E5%B8%82", "lat": 32.011638, "lon": 128.362333}, {"name_en": "kaminoshima", "name_island": "上ノ島", "url_island": "", "name_municipality": "諫早市", "url_municipality": "https://ja.wikipedia.org/wiki/%E8%AB%AB%E6%97%A9%E5%B8%82", "lat": 32.7538, "lon": 130.00502}, {"name_en": "maenoshima", "name_island": "前ノ島", "url_island": "", "name_municipality": "諫早市", "url_municipality": "https://ja.wikipedia.org/wiki/%E8%AB%AB%E6%97%A9%E5%B8%82", "lat": 32.761563, "lon": 130.039545}, {"name_en": "kagura_jima", "name_island": "神樂島", "url_island": "", "name_municipality": "長崎市", "url_municipality": "https://ja.wikipedia.org/wiki/%E9%95%B7%E5%B4%8E%E5%B8%82", "lat": 32.79141, "lon": 129.75965}, {"name_en": "oohiki_jima", "name_island": "大蟇島", "url_island": "https://ja.wikipedia.org/wiki/%E7%A5%9E%E6%B5%A6%E6%9D%91_(%E9%95%B7%E5%B4%8E%E7%9C%8C%E8%A5%BF%E5%BD%BC%E6%9D%B5%E9%83%A1)", "name_municipality": "長崎市", "url_municipality": "https://ja.wikipedia.org/wiki/%E9%95%B7%E5%B4%8E%E5%B8%82", "lat": 32.86812, "lon": 129.558352}, {"name_en": "kakinoura_jima", "name_island": "蛎浦島", "url_island": "https://ja.wikipedia.org/wiki/%E8%9B%8E%E6%B5%A6%E5%B3%B6", "name_municipality": "西海市", "url_municipality": "https://ja.wikipedia.org/wiki/%E8%A5%BF%E6%B5%B7%E5%B8%82", "lat": 33.018205, "lon": 129.572641}, {"name_en": "ontoko_jima", "name_island": "御床島", "url_island": "", "name_municipality": "西海市", "url_municipality": "https://ja.wikipedia.org/wiki/%E8%A5%BF%E6%B5%B7%E5%B8%82", "lat": 33.008979, "lon": 129.538715}, {"name_en": "kata_jima", "name_island": "片島", "url_island": "", "name_municipality": "西海市", "url_municipality": "https://ja.wikipedia.org/wiki/%E8%A5%BF%E6%B5%B7%E5%B8%82", "lat": 33.06419, "lon": 129.568793}, {"name_en": "kanashige_jima", "name_island": "金重島", "url_island": "", "name_municipality": "佐世保市", "url_municipality": "https://ja.wikipedia.org/wiki/%E4%BD%90%E4%B8%96%E4%BF%9D%E5%B8%82", "lat": 33.16019, "lon": 129.63841}, {"name_en": "inoshima", "name_island": "伊島", "url_island": "", "name_municipality": "佐世保市", "url_municipality": "https://ja.wikipedia.org/wiki/%E4%BD%90%E4%B8%96%E4%BF%9D%E5%B8%82", "lat": 33.170696, "lon": 129.522248}, {"name_en": "shimokareki_jima", "name_island": "下枯木島", "url_island": "", "name_municipality": "平戸市", "url_municipality": "https://ja.wikipedia.org/wiki/%E5%B9%B3%E6%88%B8%E5%B8%82", "lat": 33.205493, "lon": 129.504207}, {"name_en": "kashira_jima", "name_island": "頭島", "url_island": "", "name_municipality": "平戸市", "url_municipality": "https://ja.wikipedia.org/wiki/%E5%B9%B3%E6%88%B8%E5%B8%82", "lat": 33.21037, "lon": 129.3507}, {"name_en": "nakanoshima", "name_island": "中ノ島", "url_island": "", "name_municipality": "平戸市", "url_municipality": "https://ja.wikipedia.org/wiki/%E5%B9%B3%E6%88%B8%E5%B8%82", "lat": 33.194763, "lon": 129.342666}, {"name_en": "nokochou", "name_island": "野子町", "url_island": "", "name_municipality": "平戸島", "url_municipality": "https://ja.wikipedia.org/wiki/%E5%B9%B3%E6%88%B8%E5%B3%B6", "lat": 33.18189, "lon": 129.345018}, {"name_en": "naejima_gotou", "name_island": "前島_五島", "url_island": "https://ja.wikipedia.org/wiki/%E5%89%8D%E5%B3%B6_(%E9%95%B7%E5%B4%8E%E7%9C%8C%E4%BA%94%E5%B3%B6%E5%B8%82)", "name_municipality": "五島市", "url_municipality": "https://ja.wikipedia.org/wiki/%E4%BA%94%E5%B3%B6%E5%B8%82", "lat": 32.803148, "lon": 128.93269}, {"name_en": "maejima_2", "name_island": "前島_2", "url_island": "", "name_municipality": "新上五島町", "url_municipality": "https://ja.wikipedia.org/wiki/%E6%96%B0%E4%B8%8A%E4%BA%94%E5%B3%B6%E7%94%BA", "lat": 33.134236, "lon": 129.1341}, {"name_en": "aka_jima", "name_island": "赤島", "url_island": "", "name_municipality": "小値賀町", "url_municipality": "https://ja.wikipedia.org/wiki/%E5%B0%8F%E5%80%A4%E8%B3%80%E7%94%BA", "lat": 33.1899, "lon": 128.986102}, {"name_en": "kurashima", "name_island": "倉島", "url_island": "", "name_municipality": "小値賀町", "url_municipality": "https://ja.wikipedia.org/wiki/%E5%B0%8F%E5%80%A4%E8%B3%80%E7%94%BA", "lat": 33.192566, "lon": 128.92785}, {"name_en": "biryou_jima", "name_island": "美良島", "url_island": "https://www.pref.nagasaki.jp/bunkadb/index.php/view/310", "name_municipality": "小値賀町", "url_municipality": "https://ja.wikipedia.org/wiki/%E5%B0%8F%E5%80%A4%E8%B3%80%E7%94%BA", "lat": 33.169723, "lon": 128.899869}, {"name_en": "tsutara_jima", "name_island": "津多良羅島", "url_island": "", "name_municipality": "五島市", "url_municipality": "https://ja.wikipedia.org/wiki/%E4%BA%94%E5%B3%B6%E5%B8%82", "lat": 32.580622, "lon": 128.71504}, {"name_en": "tarou_jima", "name_island": "多郎島", "url_island": "", "name_municipality": "五島市", "url_municipality": "https://ja.wikipedia.org/wiki/%E4%BA%94%E5%B3%B6%E5%B8%82", "lat": 32.61593, "lon": 128.7799}, {"name_en": "kojima_gotou", "name_island": "小島_五島", "url_island": "", "name_municipality": "五島市", "url_municipality": "https://ja.wikipedia.org/wiki/%E4%BA%94%E5%B3%B6%E5%B8%82", "lat": 32.66387, "lon": 128.648706}, {"name_en": "ooitabe_jima", "name_island": "大板部島", "url_island": "", "name_municipality": "五島市", "url_municipality": "https://ja.wikipedia.org/wiki/%E4%BA%94%E5%B3%B6%E5%B8%82", "lat": 32.587941, "lon": 128.901101}, {"name_en": "tatara_jima", "name_island": "多々良島", "url_island": "", "name_municipality": "五島市", "url_municipality": "https://ja.wikipedia.org/wiki/%E4%BA%94%E5%B3%B6%E5%B8%82", "lat": 32.744111, "lon": 128.875142}, {"name_en": "yaneo_jima", "name_island": "屋根尾島", "url_island": "", "name_municipality": "五島市", "url_municipality": "https://ja.wikipedia.org/wiki/%E4%BA%94%E5%B3%B6%E5%B8%82", "lat": 32.724921, "lon": 128.863264}, {"name_en": "takenoko_jima", "name_island": "竹ノ子島", "url_island": "", "name_municipality": "五島市", "url_municipality": "https://ja.wikipedia.org/wiki/%E4%BA%94%E5%B3%B6%E5%B8%82", "lat": 32.721461, "lon": 128.853032}, {"name_en": "tsnoura", "name_island": "田ノ浦", "url_island": "", "name_municipality": "五島市", "url_municipality": "https://ja.wikipedia.org/wiki/%E4%BA%94%E5%B3%B6%E5%B8%82", "lat": 32.778249, "lon": 128.8415}, {"name_en": "maekojima", "name_island": "前小島", "url_island": "", "name_municipality": "五島市", "url_municipality": "https://ja.wikipedia.org/wiki/%E4%BA%94%E5%B3%B6%E5%B8%82", "lat": 32.740703, "lon": 128.773463}, {"name_en": "suetsu_jima", "name_island": "末津島", "url_island": "", "name_municipality": "五島市", "url_municipality": "https://ja.wikipedia.org/wiki/%E4%BA%94%E5%B3%B6%E5%B8%82", "lat": 32.795323, "lon": 128.924834}, {"name_en": "shiinoki_jima", "name_island": "椎ノ木島", "url_island": "https://ja.wikipedia.org/wiki/%E6%A8%BA%E5%B3%B6%E6%9D%91_(%E9%95%B7%E5%B4%8E%E7%9C%8C%E5%8D%97%E6%9D%BE%E6%B5%A6%E9%83%A1)", "name_municipality": "五島市", "url_municipality": "https://ja.wikipedia.org/wiki/%E4%BA%94%E5%B3%B6%E5%B8%82", "lat": 32.755973, "lon": 128.951782}, {"name_en": "ooodate_jima", "name_island": "大立島", "url_island": "", "name_municipality": "西海市", "url_municipality": "https://ja.wikipedia.org/wiki/%E8%A5%BF%E6%B5%B7%E5%B8%82", "lat": 33.01879, "lon": 129.434708}, {"name_en": "kurokojima", "name_island": "黒小島", "url_island": "", "name_municipality": "佐世保市", "url_municipality": "https://ja.wikipedia.org/wiki/%E4%BD%90%E4%B8%96%E4%BF%9D%E5%B8%82", "lat": 33.133345, "lon": 129.664691}, {"name_en": "nagahajima_1", "name_island": "長南風島1", "url_island": "", "name_municipality": "佐世保市", "url_municipality": "https://ja.wikipedia.org/wiki/%E4%BD%90%E4%B8%96%E4%BF%9D%E5%B8%82", "lat": 33.142612, "lon": 129.660303}, {"name_en": "nagahaejima_2", "name_island": "長南風島2", "url_island": "", "name_municipality": "佐世保市", "url_municipality": "https://ja.wikipedia.org/wiki/%E4%BD%90%E4%B8%96%E4%BF%9D%E5%B8%82", "lat": 33.14404, "lon": 129.659409}, {"name_en": "makinoshima", "name_island": "牧の島", "url_island": "", "name_municipality": "佐世保市", "url_municipality": "https://ja.wikipedia.org/wiki/%E4%BD%90%E4%B8%96%E4%BF%9D%E5%B8%82", "lat": 33.153389, "lon": 129.670933}, {"name_en": "katsura_jima", "name_island": "桂島", "url_island": "", "name_municipality": "佐世保市", "url_municipality": "https://ja.wikipedia.org/wiki/%E4%BD%90%E4%B8%96%E4%BF%9D%E5%B8%82", "lat": 33.15154, "lon": 129.665216}, {"name_en": "motonoshima", "name_island": "元ノ島", "url_island": "", "name_municipality": "佐世保市", "url_municipality": "https://ja.wikipedia.org/wiki/%E4%BD%90%E4%B8%96%E4%BF%9D%E5%B8%82", "lat": 33.162551, "lon": 129.67271}, {"name_en": "unokojima", "name_island": "鵜ノ小島", "url_island": "", "name_municipality": "五島市", "url_municipality": "https://ja.wikipedia.org/wiki/%E4%BA%94%E5%B3%B6%E5%B8%82", "lat": 32.877227, "lon": 128.906364}, {"name_en": "ainoshima_1", "name_island": "相ノ島_1", "url_island": "", "name_municipality": "新上五島町", "url_municipality": "https://ja.wikipedia.org/wiki/%E6%96%B0%E4%B8%8A%E4%BA%94%E5%B3%B6%E7%94%BA", "lat": 32.898004, "lon": 128.944643}, {"name_en": "ainoshima_2", "name_island": "相ノ島_2", "url_island": "", "name_municipality": "新上五島町", "url_municipality": "https://ja.wikipedia.org/wiki/%E6%96%B0%E4%B8%8A%E4%BA%94%E5%B3%B6%E7%94%BA", "lat": 32.920656, "lon": 129.18975}, {"name_en": "ainoshima_3", "name_island": "相ノ島_3", "url_island": "", "name_municipality": "新上五島町", "url_municipality": "https://ja.wikipedia.org/wiki/%E6%96%B0%E4%B8%8A%E4%BA%94%E5%B3%B6%E7%94%BA", "lat": 32.920656, "lon": 32.920656}, {"name_en": "arifuku_jima", "name_island": "有福島", "url_island": "https://ja.wikipedia.org/wiki/%E6%9C%89%E7%A6%8F%E5%B3%B6", "name_municipality": "新上五島町", "url_municipality": "https://ja.wikipedia.org/wiki/%E6%96%B0%E4%B8%8A%E4%BA%94%E5%B3%B6%E7%94%BA", "lat": 32.916078, "lon": 128.94316}, {"name_en": "rokuro_jima", "name_island": "ロクロ島", "url_island": "", "name_municipality": "新上五島町", "url_municipality": "https://ja.wikipedia.org/wiki/%E6%96%B0%E4%B8%8A%E4%BA%94%E5%B3%B6%E7%94%BA", "lat": 33.021042, "lon": 129.18214}, {"name_en": "yamaanjyu_jima", "name_island": "山案中島", "url_island": "", "name_municipality": "新上五島町", "url_municipality": "https://ja.wikipedia.org/wiki/%E6%96%B0%E4%B8%8A%E4%BA%94%E5%B3%B6%E7%94%BA", "lat": 33.026419, "lon": 129.158321}, {"name_en": "noanjyu_jima", "name_island": "野案中島", "url_island": "", "name_municipality": "新上五島町", "url_municipality": "https://ja.wikipedia.org/wiki/%E6%96%B0%E4%B8%8A%E4%BA%94%E5%B3%B6%E7%94%BA", "lat": 33.033385, "lon": 129.161006}, {"name_en": "kurano_kojima", "name_island": "藏ノ小島", "url_island": "", "name_municipality": "新上五島町", "url_municipality": "https://ja.wikipedia.org/wiki/%E6%96%B0%E4%B8%8A%E4%BA%94%E5%B3%B6%E7%94%BA", "lat": 32.917065, "lon": 129.04535}, {"name_en": "shimonakajima", "name_island": "下中島", "url_island": "", "name_municipality": "新上五島町", "url_municipality": "https://ja.wikipedia.org/wiki/%E6%96%B0%E4%B8%8A%E4%BA%94%E5%B3%B6%E7%94%BA", "lat": 32.875393, "lon": 129.033457}, {"name_en": "nojima_1", "name_island": "野島_1", "url_island": "", "name_municipality": "新上五島町", "url_municipality": "https://ja.wikipedia.org/wiki/%E6%96%B0%E4%B8%8A%E4%BA%94%E5%B3%B6%E7%94%BA", "lat": 32.864982, "lon": 129.033767}, {"name_en": "nojima_2", "name_island": "野島_2", "url_island": "", "name_municipality": "平戸市", "url_municipality": "https://ja.wikipedia.org/wiki/%E5%B9%B3%E6%88%B8%E5%B8%82", "lat": 33.282825, "lon": 129.513018}, {"name_en": "tanokojima", "name_island": "田ノ小島", "url_island": "", "name_municipality": "新上五島町", "url_municipality": "https://ja.wikipedia.org/wiki/%E6%96%B0%E4%B8%8A%E4%BA%94%E5%B3%B6%E7%94%BA", "lat": 32.85787, "lon": 129.003163}, {"name_en": "hatashima", "name_island": "畑島", "url_island": "", "name_municipality": "新上五島町", "url_municipality": "https://ja.wikipedia.org/wiki/%E6%96%B0%E4%B8%8A%E4%BA%94%E5%B3%B6%E7%94%BA", "lat": 32.92242, "lon": 129.11339}, {"name_en": "korojima", "name_island": "古路島", "url_island": "", "name_municipality": "小値賀町", "url_municipality": "https://ja.wikipedia.org/wiki/%E5%B0%8F%E5%80%A4%E8%B3%80%E7%94%BA", "lat": 33.18815, "lon": 129.02959}, {"name_en": "matsuura_jima", "name_island": "松浦島", "url_island": "", "name_municipality": "佐世保市", "url_municipality": "https://ja.wikipedia.org/wiki/%E4%BD%90%E4%B8%96%E4%BF%9D%E5%B8%82", "lat": 33.1373, "lon": 129.6768}, {"name_en": "usu_jima", "name_island": "臼島", "url_island": "", "name_municipality": "大村市", "url_municipality": "https://ja.wikipedia.org/wiki/%E5%A4%A7%E6%9D%91%E5%B8%82", "lat": 32.902413, "lon": 129.94151}, {"name_en": "setonoshima", "name_island": "瀬戸ノ島", "url_island": "", "name_municipality": "川棚町", "url_municipality": "https://ja.wikipedia.org/wiki/%E5%B7%9D%E6%A3%9A%E7%94%BA", "lat": 33.051297, "lon": 129.81812}, {"name_en": "tashima", "name_island": "田島", "url_island": "", "name_municipality": "西海市", "url_municipality": "https://ja.wikipedia.org/wiki/%E8%A5%BF%E6%B5%B7%E5%B8%82", "lat": 33.005522, "lon": 129.81426}, {"name_en": "mishima", "name_island": "三島", "url_island": "", "name_municipality": "西海市", "url_municipality": "https://ja.wikipedia.org/wiki/%E8%A5%BF%E6%B5%B7%E5%B8%82", "lat": 33.00047, "lon": 129.746811}, {"name_en": "tatsushima", "name_island": "辰島", "url_island": "", "name_municipality": "長崎市", "url_municipality": "https://ja.wikipedia.org/wiki/%E9%95%B7%E5%B4%8E%E5%B8%82", "lat": 32.878641, "lon": 129.799483}, {"name_en": "okinoshima_tsushima", "name_island": "沖ノ島_対馬", "url_island": "https://ja.wikipedia.org/wiki/%E6%B2%96%E3%83%8E%E5%B3%B6_(%E9%95%B7%E5%B4%8E%E7%9C%8C%E5%AF%BE%E9%A6%AC%E5%B8%82)", "name_municipality": "対馬市", "url_municipality": "https://ja.wikipedia.org/wiki/%E5%AF%BE%E9%A6%AC%E5%B8%82", "lat": 34.342568, "lon": 129.330861}, {"name_en": "oshima_nagasaki", "name_island": "男島_長崎", "url_island": "https://ja.wikipedia.org/wiki/%E7%94%B7%E5%B3%B6_(%E9%95%B7%E5%B4%8E%E7%9C%8C)", "name_municipality": "五島市", "url_municipality": "https://ja.wikipedia.org/wiki/%E4%BA%94%E5%B3%B6%E5%B8%82", "lat": 32.045556, "lon": 128.395278}, {"name_en": "meshima_nagasaki", "name_island": "女島_長崎", "url_island": "https://ja.wikipedia.org/wiki/%E9%B3%A5%E5%B3%B6_(%E9%95%B7%E5%B4%8E%E7%9C%8C)", "name_municipality": "五島市", "url_municipality": "https://ja.wikipedia.org/wiki/%E4%BA%94%E5%B3%B6%E5%B8%82", "lat": 31.998056, "lon": 128.350833}, {"name_en": "torishima_nagasaki", "name_island": "鳥島_長崎", "url_island": "https://ja.wikipedia.org/wiki/%E9%B3%A5%E5%B3%B6_(%E9%95%B7%E5%B4%8E%E7%9C%8C)", "name_municipality": "五島市", "url_municipality": "https://ja.wikipedia.org/wiki/%E4%BA%94%E5%B3%B6%E5%B8%82", "lat": 32.243611, "lon": 128.104444}, {"name_en": "ikinoshima", "name_island": "壱岐島", "url_island": "https://ja.wikipedia.org/wiki/%E5%A3%B1%E5%B2%90%E5%B3%B6", "name_municipality": "壱岐市", "url_municipality": "https://ja.wikipedia.org/wiki/%E5%A3%B1%E5%B2%90%E5%B8%82", "lat": 33.783333, "lon": 129.716667}, {"name_en": "harushima", "name_island": "原島", "url_island": "https://ja.wikipedia.org/wiki/%E5%8E%9F%E5%B3%B6", "name_municipality": "壱岐市", "url_municipality": "https://ja.wikipedia.org/wiki/%E5%A3%B1%E5%B2%90%E5%B8%82", "lat": 33.723056, "lon": 129.648889}, {"name_en": "nagashima_nagasaki", "name_island": "長島_長崎", "url_island": "https://ja.wikipedia.org/wiki/%E9%95%B7%E5%B3%B6_(%E9%95%B7%E5%B4%8E%E7%9C%8C)", "name_municipality": "壱岐市", "url_municipality": "https://ja.wikipedia.org/wiki/%E5%A3%B1%E5%B2%90%E5%B8%82", "lat": 33.727222, "lon": 129.631389}, {"name_en": "ooshima_iki", "name_island": "大島_壱岐", "url_island": "https://ja.wikipedia.org/wiki/%E5%A4%A7%E5%B3%B6_(%E9%95%B7%E5%B4%8E%E7%9C%8C%E5%A3%B1%E5%B2%90%E5%B8%82)", "name_municipality": "壱岐市", "url_municipality": "https://ja.wikipedia.org/wiki/%E5%A3%B1%E5%B2%90%E5%B8%82", "lat": 33.738056, "lon": 129.634722}, {"name_en": "wakamiya_jima", "name_island": "若宮島", "url_island": "https://ja.wikipedia.org/wiki/%E8%8B%A5%E5%AE%AE%E5%B3%B6", "name_municipality": "壱岐市", "url_municipality": "https://ja.wikipedia.org/wiki/%E5%A3%B1%E5%B2%90%E5%B8%82", "lat": 33.865556, "lon": 129.686389}, {"name_en": "ukujima", "name_island": "宇久島", "url_island": "https://ja.wikipedia.org/wiki/%E5%AE%87%E4%B9%85%E5%B3%B6", "name_municipality": "佐世保市", "url_municipality": "https://ja.wikipedia.org/wiki/%E4%BD%90%E4%B8%96%E4%BF%9D%E5%B8%82", "lat": 33.269694, "lon": 129.112694}, {"name_en": "orishima", "name_island": "折島", "url_island": "https://ja.wikipedia.org/wiki/%E6%8A%98%E5%B3%B6", "name_municipality": "新上五島町", "url_municipality": "https://ja.wikipedia.org/wiki/%E6%96%B0%E4%B8%8A%E4%BA%94%E5%B3%B6%E7%94%BA", "lat": 32.988417, "lon": 129.023694}, {"name_en": "kashiragashima", "name_island": "頭ヶ島", "url_island": "https://ja.wikipedia.org/wiki/%E9%A0%AD%E3%83%B6%E5%B3%B6", "name_municipality": "新上五島町", "url_municipality": "https://ja.wikipedia.org/wiki/%E6%96%B0%E4%B8%8A%E4%BA%94%E5%B3%B6%E7%94%BA", "lat": 33.01225, "lon": 129.186833}, {"name_en": "kazurashima_nagasaki", "name_island": "葛島_長崎", "url_island": "https://ja.wikipedia.org/wiki/%E8%91%9B%E5%B3%B6_(%E9%95%B7%E5%B4%8E%E7%9C%8C)", "name_municipality": "五島市", "url_municipality": "https://ja.wikipedia.org/wiki/%E4%BA%94%E5%B3%B6%E5%B8%82", "lat": 32.889528, "lon": 128.914}, {"name_en": "kabashima", "name_island": "椛島", "url_island": "https://ja.wikipedia.org/wiki/%E6%A4%9B%E5%B3%B6", "name_municipality": "五島市", "url_municipality": "https://ja.wikipedia.org/wiki/%E4%BA%94%E5%B3%B6%E5%B8%82", "lat": 32.765111, "lon": 128.996278}, {"name_en": "kirino_kojima", "name_island": "桐ノ小島", "url_island": "https://ja.wikipedia.org/wiki/%E6%A1%90%E3%83%8E%E5%B0%8F%E5%B3%B6", "name_municipality": "新上五島町", "url_municipality": "https://ja.wikipedia.org/wiki/%E6%96%B0%E4%B8%8A%E4%BA%94%E5%B3%B6%E7%94%BA", "lat": 32.862789, "lon": 129.044264}, {"name_en": "kushijima", "name_island": "串島", "url_island": "https://ja.wikipedia.org/wiki/%E4%B8%B2%E5%B3%B6", "name_municipality": "新上五島町", "url_municipality": "https://ja.wikipedia.org/wiki/%E6%96%B0%E4%B8%8A%E4%BA%94%E5%B3%B6%E7%94%BA", "lat": 32.956944, "lon": 128.986944}, {"name_en": "saganoshima", "name_island": "嵯峨ノ島", "url_island": "https://ja.wikipedia.org/wiki/%E5%B5%AF%E5%B3%A8%E3%83%8E%E5%B3%B6", "name_municipality": "五島市", "url_municipality": "https://ja.wikipedia.org/wiki/%E4%BA%94%E5%B3%B6%E5%B8%82", "lat": 32.726667, "lon": 128.598056}, {"name_en": "shimayamashima_goto", "name_island": "島山島_五島", "url_island": "https://ja.wikipedia.org/wiki/%E5%B3%B6%E5%B1%B1%E5%B3%B6_(%E9%95%B7%E5%B4%8E%E7%9C%8C%E4%BA%94%E5%B3%B6%E5%B8%82)", "name_municipality": "五島市", "url_municipality": "https://ja.wikipedia.org/wiki/%E4%BA%94%E5%B3%B6%E5%B8%82", "lat": 32.641972, "lon": 128.6208}, {"name_en": "shuugen_jima", "name_island": "祝言島", "url_island": "https://ja.wikipedia.org/wiki/%E7%A5%9D%E8%A8%80%E5%B3%B6", "name_municipality": "新上五島町", "url_municipality": "https://ja.wikipedia.org/wiki/ %E6%96%B0%E4%B8%8A%E4%BA%94%E5%B3%B6%E7%94%BA", "lat": 33.010278, "lon": 129.016667}, {"name_en": "tsubura_jima", "name_island": "ツブラ島", "url_island": "https://ja.wikipedia.org/wiki/%E3%83%84%E3%83%96%E3%83%A9%E5%B3%B6", "name_municipality": "五島市", "url_municipality": "https://ja.wikipedia.org/wiki/%E4%BA%94%E5%B3%B6%E5%B8%82", "lat": 32.768636, "lon": 128.960225}, {"name_en": "terashima_sasebo", "name_island": "寺島_佐世保", "url_island": "https://ja.wikipedia.org/wiki/%E5%AF%BA%E5%B3%B6_(%E9%95%B7%E5%B4%8E%E7%9C%8C%E4%BD%90%E4%B8%96%E4%BF%9D%E5%B8%82)", "name_municipality": "佐世保市", "url_municipality": "https://ja.wikipedia.org/wiki/%E4%BD%90%E4%B8%96%E4%BF%9D%E5%B8%82", "lat": 33.250333, "lon": 129.06895}, {"name_en": "nakadoori_jima", "name_island": "中通島", "url_island": "https://ja.wikipedia.org/wiki/%E4%B8%AD%E9%80%9A%E5%B3%B6", "name_municipality": "新上五島町", "url_municipality": "https://ja.wikipedia.org/wiki/%E6%96%B0%E4%B8%8A%E4%BA%94%E5%B3%B6%E7%94%BA", "lat": 32.983333, "lon": 129.083333}, {"name_en": "narushima", "name_island": "奈留島", "url_island": "https://ja.wikipedia.org/wiki/%E5%A5%88%E7%95%99%E5%B3%B6", "name_municipality": "五島市", "url_municipality": "https://ja.wikipedia.org/wiki/%E4%BA%94%E5%B3%B6%E5%B8%82", "lat": 32.83775, "lon": 128.934861}, {"name_en": "hisaka_jima", "name_island": "久賀島", "url_island": "https://ja.wikipedia.org/wiki/%E4%B9%85%E8%B3%80%E5%B3%B6", "name_municipality": "五島市", "url_municipality": "https://ja.wikipedia.org/wiki/%E4%BA%94%E5%B3%B6%E5%B8%82", "lat": 32.783333, "lon": 128.866667}, {"name_en": "hinoshima", "name_island": "日島", "url_island": "https://ja.wikipedia.org/wiki/%E6%97%A5%E5%B3%B6", "name_municipality": "新上五島町", "url_municipality": "https://ja.wikipedia.org/wiki/%E6%96%B0%E4%B8%8A%E4%BA%94%E5%B3%B6%E7%94%BA", "lat": 32.924556, "lon": 128.963}, {"name_en": "himeshima_nagasaki", "name_island": "姫島_長崎", "url_island": "https://ja.wikipedia.org/wiki/%E5%A7%AB%E5%B3%B6_(%E9%95%B7%E5%B4%8E%E7%9C%8C)", "name_municipality": "五島市", "url_municipality": "https://ja.wikipedia.org/wiki/%E4%BA%94%E5%B3%B6%E5%B8%82", "lat": 32.806392, "lon": 128.678508}, {"name_en": "fukue_jima", "name_island": "福江島", "url_island": "https://ja.wikipedia.org/wiki/%E7%A6%8F%E6%B1%9F%E5%B3%B6", "name_municipality": "五島市", "url_municipality": "https://ja.wikipedia.org/wiki/%E4%BA%94%E5%B3%B6%E5%B8%82", "lat": 32.6955, "lon": 128.840806}, {"name_en": "ryouzegayra_shima", "name_island": "漁生浦島", "url_island": "https://ja.wikipedia.org/wiki/%E6%BC%81%E7%94%9F%E6%B5%A6%E5%B3%B6", "name_municipality": "新上五島町", "url_municipality": "https://ja.wikipedia.org/wiki/%E6%96%B0%E4%B8%8A%E4%BA%94%E5%B3%B6%E7%94%BA", "lat": 32.910556, "lon": 128.964194}, {"name_en": "warabi_kojima", "name_island": "蕨小島", "url_island": "https://ja.wikipedia.org/wiki/%E8%95%A8%E5%B0%8F%E5%B3%B6", "name_municipality": "五島市", "url_municipality": "https://ja.wikipedia.org/wiki/%E4%BA%94%E5%B3%B6%E5%B8%82", "lat": 32.827806, "lon": 128.89425}, {"name_en": "yaburogishima", "name_island": "藪路木島", "url_island": "https://ja.wikipedia.org/wiki/%E8%97%AA%E8%B7%AF%E6%9C%A8%E5%B3%B6", "name_municipality": "小値賀町", "url_municipality": "https://ja.wikipedia.org/wiki/%E5%B0%8F%E5%80%A4%E8%B3%80%E7%94%BA", "lat": 33.181778, "lon": 129.020083}, {"name_en": "shiroze", "name_island": "白瀬", "url_island": "https://ja.wikipedia.org/wiki/%E7%99%BD%E7%80%AC", "name_municipality": "小値賀町", "url_municipality": "https://ja.wikipedia.org/wiki/%E5%B0%8F%E5%80%A4%E8%B3%80%E7%94%BA", "lat": 33.183, "lon": 128.803417}, {"name_en": "tsushima", "name_island": "対馬", "url_island": "https://ja.wikipedia.org/wiki/%E5%AF%BE%E9%A6%AC", "name_municipality": "対馬市", "url_municipality": "https://ja.wikipedia.org/wiki/%E5%AF%BE%E9%A6%AC%E5%B8%82", "lat": 34.416667, "lon": 129.333333}, {"name_en": "unishima", "name_island": "海栗島", "url_island": "https://ja.wikipedia.org/wiki/%E6%B5%B7%E6%A0%97%E5%B3%B6", "name_municipality": "対馬市", "url_municipality": "https://ja.wikipedia.org/wiki/%E5%AF%BE%E9%A6%AC%E5%B8%82", "lat": 34.706167, "lon": 129.436028}, {"name_en": "tomarijima", "name_island": "泊島", "url_island": "https://ja.wikipedia.org/wiki/%E6%B3%8A%E5%B3%B6", "name_municipality": "対馬市", "url_municipality": "https://ja.wikipedia.org/wiki/%E5%AF%BE%E9%A6%AC%E5%B8%82", "lat": 34.358333, "lon": 129.404722}, {"name_en": "akashima_tsushima", "name_island": "赤島_対馬", "url_island": "https://ja.wikipedia.org/wiki/%E8%B5%A4%E5%B3%B6_(%E9%95%B7%E5%B4%8E%E7%9C%8C%E5%AF%BE%E9%A6%AC%E5%B8%82)", "name_municipality": "対馬市", "url_municipality": "https://ja.wikipedia.org/wiki/%E5%AF%BE%E9%A6%AC%E5%B8%82", "lat": 34.357222, "lon": 129.408056}, {"name_en": "okinoshima_tsushima", "name_island": "沖ノ島_対馬", "url_island": "https://ja.wikipedia.org/wiki/%E6%B2%96%E3%83%8E%E5%B3%B6_(%E9%95%B7%E5%B4%8E%E7%9C%8C%E5%AF%BE%E9%A6%AC%E5%B8%82)", "name_municipality": "対馬市", "url_municipality": "https://ja.wikipedia.org/wiki/%E5%AF%BE%E9%A6%AC%E5%B8%82", "lat": 34.342568, "lon": 129.330861}, {"name_en": "shimayamajima-tsushima", "name_island": "島山島_対馬", "url_island": "https://ja.wikipedia.org/wiki/%E5%B3%B6%E5%B1%B1%E5%B3%B6_(%E9%95%B7%E5%B4%8E%E7%9C%8C%E5%AF%BE%E9%A6%AC%E5%B8%82)", "name_municipality": "対馬市", "url_municipality": "https://ja.wikipedia.org/wiki/%E5%AF%BE%E9%A6%AC%E5%B8%82", "lat": 34.323056, "lon": 129.321944}, {"name_en": "mitsushima_tsushima", "name_island": "三ッ島_対馬", "url_island": "https://ja.wikipedia.org/wiki/%E4%B8%89%E3%83%83%E5%B3%B6_(%E5%AF%BE%E9%A6%AC)", "name_municipality": "対馬市", "url_municipality": "https://ja.wikipedia.org/wiki/%E5%AF%BE%E9%A6%AC%E5%B8%82", "lat": 34.723833, "lon": 129.443806}, {"name_en": "odika_jima", "name_island": "小値賀島", "url_island": "https://ja.wikipedia.org/wiki/%E5%B0%8F%E5%80%A4%E8%B3%80%E5%B3%B6", "name_municipality": "小値賀町", "url_municipality": "https://ja.wikipedia.org/wiki/%E5%B0%8F%E5%80%A4%E8%B3%80%E7%94%BA", "lat": 33.20075, "lon": 129.054333}, {"name_en": "ooshima_odika", "name_island": "大島_小値賀", "url_island": "https://ja.wikipedia.org/wiki/%E5%A4%A7%E5%B3%B6_(%E9%95%B7%E5%B4%8E%E7%9C%8C%E5%B0%8F%E5%80%A4%E8%B3%80%E7%94%BA)", "name_municipality": "小値賀町", "url_municipality": "https://ja.wikipedia.org/wiki/%E5%B0%8F%E5%80%A4%E8%B3%80%E7%94%BA", "lat": 33.170306, "lon": 129.023028}, {"name_en": "madara_jima", "name_island": "斑島", "url_island": "https://ja.wikipedia.org/wiki/%E6%96%91%E5%B3%B6", "name_municipality": "小値賀町", "url_municipality": "https://ja.wikipedia.org/wiki/%E5%B0%8F%E5%80%A4%E8%B3%80%E7%94%BA", "lat": 33.206333, "lon": 129.021056}, {"name_en": "kuroshima_odika", "name_island": "黒島_小値賀", "url_island": "https://ja.wikipedia.org/wiki/%E9%BB%92%E5%B3%B6_(%E9%95%B7%E5%B4%8E%E7%9C%8C%E5%B0%8F%E5%80%A4%E8%B3%80%E7%94%BA)", "name_municipality": "小値賀町", "url_municipality": "https://ja.wikipedia.org/wiki/%E5%B0%8F%E5%80%A4%E8%B3%80%E7%94%BA", "lat": 33.180944, "lon": 129.056972}, {"name_en": "kogurojima", "name_island": "小黒島", "url_island": "https://ja.wikipedia.org/wiki/%E5%B0%8F%E9%BB%92%E5%B3%B6", "name_municipality": "小値賀町", "url_municipality": "https://ja.wikipedia.org/wiki/%E5%B0%8F%E5%80%A4%E8%B3%80%E7%94%BA", "lat": 33.184111, "lon": 129.07425}, {"name_en": "mushima_nagasaki", "name_island": "六島_長崎", "url_island": "https://ja.wikipedia.org/wiki/%E5%85%AD%E5%B3%B6_(%E9%95%B7%E5%B4%8E%E7%9C%8C)", "name_municipality": "小値賀町", "url_municipality": "https://ja.wikipedia.org/wiki/%E5%B0%8F%E5%80%A4%E8%B3%80%E7%94%BA", "lat": 33.223972, "lon": 129.134722}, {"name_en": "noushima", "name_island": "納島", "url_island": "https://ja.wikipedia.org/wiki/%E7%B4%8D%E5%B3%B6", "name_municipality": "小値賀町", "url_municipality": "https://ja.wikipedia.org/wiki/%E5%B0%8F%E5%80%A4%E8%B3%80%E7%94%BA", "lat": 33.222028, "lon": 129.068389}, {"name_en": "uujima", "name_island": "宇々島", "url_island": "https://ja.wikipedia.org/wiki/%E5%AE%87%E3%80%85%E5%B3%B6", "name_municipality": "小値賀町", "url_municipality": "https://ja.wikipedia.org/wiki/%E5%B0%8F%E5%80%A4%E8%B3%80%E7%94%BA", "lat": 33.173478, "lon": 129.037794}, {"name_en": "nozaki_jima", "name_island": "野崎島", "url_island": "https://ja.wikipedia.org/wiki/%E9%87%8E%E5%B4%8E%E5%B3%B6", "name_municipality": "小値賀町", "url_municipality": "https://ja.wikipedia.org/wiki/%E5%B0%8F%E5%80%A4%E8%B3%80%E7%94%BA", "lat": 33.186667, "lon": 129.130556}]}