{"title": "List of Islands in Kouchi", "title_ja": "高知県の島の一覧", "reference": "wikipedia: 高知県の島", "url_reference": "https://ja.wikipedia.org/wiki/Category:%E9%AB%98%E7%9F%A5%E7%9C%8C%E3%81%AE%E5%B3%B6", "islands": [{"name_en": "ugurushima", "name_island": "鵜来島", "url_island": "https://ja.wikipedia.org/wiki/%E9%B5%9C%E6%9D%A5%E5%B3%B6", "name_municipality": "宿毛市", "url_municipality": "https://ja.wikipedia.org/wiki/%E5%AE%BF%E6%AF%9B%E5%B8%82", "lat": 32.801944, "lon": 132.49}, {"name_en": "ooshima_kouchi", "name_island": "大島_高知", "url_island": "https://ja.wikipedia.org/wiki/%E5%A4%A7%E5%B3%B6_(%E9%AB%98%E7%9F%A5%E7%9C%8C)", "name_municipality": "宿毛市", "url_municipality": "https://ja.wikipedia.org/wiki/%E5%AE%BF%E6%AF%9B%E5%B8%82", "lat": 32.915833, "lon": 132.696667}, {"name_en": "okinoshima_kouchi", "name_island": "沖の島_高知", "url_island": "https://ja.wikipedia.org/wiki/%E6%B2%96%E3%81%AE%E5%B3%B6_(%E9%AB%98%E7%9F%A5%E7%9C%8C)", "name_municipality": "宿毛市", "url_municipality": "https://ja.wikipedia.org/wiki/%E5%AE%BF%E6%AF%9B%E5%B8%82", "lat": 32.7275, "lon": 132.554722}, {"name_en": "kashiwa_jima", "name_island": "柏島", "url_island": "https://ja.wikipedia.org/wiki/%E6%9F%8F%E5%B3%B6", "name_municipality": "大月町", "url_municipality": "https://ja.wikipedia.org/wiki/%E5%A4%A7%E6%9C%88%E7%94%BA", "lat": 32.769361, "lon": 132.621444}, {"name_en": "kanyou-tou", "name_island": "咸陽島", "url_island": "https://ja.wikipedia.org/wiki/%E5%92%B8%E9%99%BD%E5%B3%B6", "name_municipality": "宿毛市", "url_municipality": "https://ja.wikipedia.org/wiki/%E5%AE%BF%E6%AF%9B%E5%B8%82", "lat": 32.913522, "lon": 132.684669}, {"name_en": "nakanoshima_kouchi", "name_island": "中ノ島_高知", "url_island": "https://ja.wikipedia.org/wiki/%E4%B8%AD%E3%83%8E%E5%B3%B6_(%E9%AB%98%E7%9F%A5%E7%9C%8C)", "name_municipality": "須崎市", "url_municipality": "https://ja.wikipedia.org/wiki/%E9%A0%88%E5%B4%8E%E5%B8%82", "lat": 33.3575, "lon": 133.308056}, {"name_en": "futago_jima", "name_island": "二子島", "url_island": "https://ja.wikipedia.org/wiki/%E4%BA%8C%E5%AD%90%E5%B3%B6", "name_municipality": "東洋町", "url_municipality": "https://ja.wikipedia.org/wiki/%E6%9D%B1%E6%B4%8B%E7%94%BA", "lat": 33.540278, "lon": 134.314444}, {"name_en": "heshima_kouchi", "name_island": "戸島_高知", "url_island": "https://ja.wikipedia.org/wiki/%E6%88%B8%E5%B3%B6_(%E9%AB%98%E7%9F%A5%E7%9C%8C)", "name_municipality": "須崎市", "url_municipality": "https://ja.wikipedia.org/wiki/%E9%A0%88%E5%B4%8E%E5%B8%82", "lat": 33.360833, "lon": 133.300278}, {"name_en": "akaba_jima", "name_island": "赤葉島", "url_island": "", "name_municipality": "東洋町", "url_municipality": "https://ja.wikipedia.org/wiki/%E6%9D%B1%E6%B4%8B%E7%94%BA", "lat": 33.538919, "lon": 134.2985401}, {"name_en": "kazura_jima", "name_island": "葛島", "url_island": "", "name_municipality": "東洋町", "url_municipality": "https://ja.wikipedia.org/wiki/%E6%9D%B1%E6%B4%8B%E7%94%BA", "lat": 33.538534, "lon": 134.311006}, {"name_en": "kamishima", "name_island": "神島", "url_island": "", "name_municipality": "須崎市", "url_municipality": "https://ja.wikipedia.org/wiki/%E9%A0%88%E5%B4%8E%E5%B8%82", "lat": 33.349934, "lon": 133.321981}, {"name_en": "ootoushima", "name_island": "大藤島", "url_island": "", "name_municipality": "宿毛市", "url_municipality": "https://ja.wikipedia.org/wiki/%E5%AE%BF%E6%AF%9B%E5%B8%82", "lat": 32.916103, "lon": 132.656635}, {"name_en": "kirishima", "name_island": "桐島", "url_island": "", "name_municipality": "宿毛市", "url_municipality": "https://ja.wikipedia.org/wiki/%E5%AE%BF%E6%AF%9B%E5%B8%82", "lat": 32.91896, "lon": 132.66408}, {"name_en": "hime_jima", "name_island": "姫島", "url_island": "", "name_municipality": "宿毛市", "url_municipality": "https://ja.wikipedia.org/wiki/%E5%AE%BF%E6%AF%9B%E5%B8%82", "lat": 32.73828, "lon": 132.48917}, {"name_en": "birou_jima", "name_island": "蒲葵島", "url_island": "", "name_municipality": "大月町", "url_municipality": "https://ja.wikipedia.org/wiki/%E5%A4%A7%E6%9C%88%E7%94%BA", "lat": 32.7464, "lon": 132.601067}]}