{"title": "List of Islands of Odikai", "title_ja": "小値賀火山島群の島の一覧", "reference": "wikipedia: 小値賀火山島群", "url_reference": "https://ja.wikipedia.org/wiki/%E5%B0%8F%E5%80%A4%E8%B3%80%E7%81%AB%E5%B1%B1%E5%B3%B6%E7%BE%A4", "islands": [{"name_en": "odika_jima", "name_island": "小値賀島", "url_island": "https://ja.wikipedia.org/wiki/%E5%B0%8F%E5%80%A4%E8%B3%80%E5%B3%B6", "name_municipality": "小値賀町", "url_municipality": "https://ja.wikipedia.org/wiki/%E5%B0%8F%E5%80%A4%E8%B3%80%E7%94%BA", "lat": 33.20075, "lon": 129.054333}, {"name_en": "ooshima_odika", "name_island": "大島_小値賀", "url_island": "https://ja.wikipedia.org/wiki/%E5%A4%A7%E5%B3%B6_(%E9%95%B7%E5%B4%8E%E7%9C%8C%E5%B0%8F%E5%80%A4%E8%B3%80%E7%94%BA)", "name_municipality": "小値賀町", "url_municipality": "https://ja.wikipedia.org/wiki/%E5%B0%8F%E5%80%A4%E8%B3%80%E7%94%BA", "lat": 33.170306, "lon": 129.023028}, {"name_en": "madara_jima", "name_island": "斑島", "url_island": "https://ja.wikipedia.org/wiki/%E6%96%91%E5%B3%B6", "name_municipality": "小値賀町", "url_municipality": "https://ja.wikipedia.org/wiki/%E5%B0%8F%E5%80%A4%E8%B3%80%E7%94%BA", "lat": 33.206333, "lon": 129.021056}, {"name_en": "kuroshima_odika", "name_island": "黒島_小値賀", "url_island": "https://ja.wikipedia.org/wiki/%E9%BB%92%E5%B3%B6_(%E9%95%B7%E5%B4%8E%E7%9C%8C%E5%B0%8F%E5%80%A4%E8%B3%80%E7%94%BA)", "name_municipality": "小値賀町", "url_municipality": "https://ja.wikipedia.org/wiki/%E5%B0%8F%E5%80%A4%E8%B3%80%E7%94%BA", "lat": 33.180944, "lon": 129.056972}, {"name_en": "kogurojima", "name_island": "小黒島", "url_island": "https://ja.wikipedia.org/wiki/%E5%B0%8F%E9%BB%92%E5%B3%B6", "name_municipality": "小値賀町", "url_municipality": "https://ja.wikipedia.org/wiki/%E5%B0%8F%E5%80%A4%E8%B3%80%E7%94%BA", "lat": 33.184111, "lon": 129.07425}, {"name_en": "mushima_nagasaki", "name_island": "六島_長崎", "url_island": "https://ja.wikipedia.org/wiki/%E5%85%AD%E5%B3%B6_(%E9%95%B7%E5%B4%8E%E7%9C%8C)", "name_municipality": "小値賀町", "url_municipality": "https://ja.wikipedia.org/wiki/%E5%B0%8F%E5%80%A4%E8%B3%80%E7%94%BA", "lat": 33.223972, "lon": 129.134722}, {"name_en": "noushima", "name_island": "納島", "url_island": "https://ja.wikipedia.org/wiki/%E7%B4%8D%E5%B3%B6", "name_municipality": "小値賀町", "url_municipality": "https://ja.wikipedia.org/wiki/%E5%B0%8F%E5%80%A4%E8%B3%80%E7%94%BA", "lat": 33.222028, "lon": 129.068389}, {"name_en": "uujima", "name_island": "宇々島", "url_island": "https://ja.wikipedia.org/wiki/%E5%AE%87%E3%80%85%E5%B3%B6", "name_municipality": "小値賀町", "url_municipality": "https://ja.wikipedia.org/wiki/%E5%B0%8F%E5%80%A4%E8%B3%80%E7%94%BA", "lat": 33.173478, "lon": 129.037794}, {"name_en": "nozaki_jima", "name_island": "野崎島", "url_island": "https://ja.wikipedia.org/wiki/%E9%87%8E%E5%B4%8E%E5%B3%B6", "name_municipality": "小値賀町", "url_municipality": "https://ja.wikipedia.org/wiki/%E5%B0%8F%E5%80%A4%E8%B3%80%E7%94%BA", "lat": 33.186667, "lon": 129.130556}]}