{"title": "List of Islands in Fukuoka", "title_ja": "福岡県の島の一覧", "reference": "wikipedia: 福岡県の島", "url_reference": "https://ja.wikipedia.org/wiki/Category:%E7%A6%8F%E5%B2%A1%E7%9C%8C%E3%81%AE%E5%B3%B6", "islands": [{"name_en": "ainoshima_fukuoka", "name_island": "相島_福岡", "url_island": "https://ja.wikipedia.org/wiki/%E7%9B%B8%E5%B3%B6_(%E7%A6%8F%E5%B2%A1%E7%9C%8C)", "name_municipality": "新宮町", "url_municipality": "https://ja.wikipedia.org/wiki/%E6%96%B0%E5%AE%AE%E7%94%BA", "lat": 33.762361, "lon": 130.365139}, {"name_en": "ainoshima_2", "name_island": "藍島", "url_island": "https://ja.wikipedia.org/wiki/%E8%97%8D%E5%B3%B6", "name_municipality": "北九州市", "url_municipality": "https://ja.wikipedia.org/wiki/%E5%8C%97%E4%B9%9D%E5%B7%9E%E5%B8%82", "lat": 33.990278, "lon": 130.818056}, {"name_en": "umashima_fukuoa", "name_island": "馬島_福岡", "url_island": "https://ja.wikipedia.org/wiki/%E9%A6%AC%E5%B3%B6_(%E7%A6%8F%E5%B2%A1%E7%9C%8C)", "name_municipality": "北九州市", "url_municipality": "https://ja.wikipedia.org/wiki/%E5%8C%97%E4%B9%9D%E5%B7%9E%E5%B8%82", "lat": 33.967167, "lon": 130.854153}, {"name_en": "eboshijima_fukuoka", "name_island": "烏帽子島_福岡", "url_island": "https://ja.wikipedia.org/wiki/%E7%83%8F%E5%B8%BD%E5%AD%90%E5%B3%B6_(%E7%A6%8F%E5%B2%A1%E7%9C%8C)", "name_municipality": "糸島市", "url_municipality": "https://ja.wikipedia.org/wiki/%E7%B3%B8%E5%B3%B6%E5%B8%82", "lat": 33.689722, "lon": 129.9825}, {"name_en": "ooshima_fukuoka", "name_island": "大島_福岡", "url_island": "https://ja.wikipedia.org/wiki/%E5%A4%A7%E5%B3%B6_(%E7%A6%8F%E5%B2%A1%E7%9C%8C)", "name_municipality": "宗像市", "url_municipality": "https://ja.wikipedia.org/wiki/%E5%AE%97%E5%83%8F%E5%B8%82", "lat": 33.90225, "lon": 130.425556}, {"name_en": "oonoshima", "name_island": "大野島", "url_island": "https://ja.wikipedia.org/wiki/%E5%A4%A7%E9%87%8E%E5%B3%B6", "name_municipality": "大川市", "url_municipality": "https://ja.wikipedia.org/wiki/%E5%A4%A7%E5%B7%9D%E5%B8%82", "lat": 33.186111, "lon": 130.344444}, {"name_en": "oronoshima", "name_island": "小呂島", "url_island": "https://ja.wikipedia.org/wiki/%E5%B0%8F%E5%91%82%E5%B3%B6", "name_municipality": "福岡市", "url_municipality": "https://ja.wikipedia.org/wiki/%E7%A6%8F%E5%B2%A1%E5%B8%82", "lat": 33.866944, "lon": 130.035833}, {"name_en": "genkai_jima", "name_island": "玄界島", "url_island": "https://ja.wikipedia.org/wiki/%E7%8E%84%E7%95%8C%E5%B3%B6", "name_municipality": "福岡市", "url_municipality": "https://ja.wikipedia.org/wiki/%E7%A6%8F%E5%B2%A1%E5%B8%82", "lat": 33.69, "lon": 130.233333}, {"name_en": "shikanoshima", "name_island": "志賀島", "url_island": "https://ja.wikipedia.org/wiki/%E5%BF%97%E8%B3%80%E5%B3%B6", "name_municipality": "福岡市", "url_municipality": "https://ja.wikipedia.org/wiki/%E7%A6%8F%E5%B2%A1%E5%B8%82", "lat": 33.675, "lon": 130.3}, {"name_en": "jinoshima", "name_island": "地島", "url_island": "https://ja.wikipedia.org/wiki/%E5%9C%B0%E5%B3%B6", "name_municipality": "宗像市", "url_municipality": "https://ja.wikipedia.org/wiki/%E5%AE%97%E5%83%8F%E5%B8%82", "lat": 33.906039, "lon": 130.493889}, {"name_en": "shirashima", "name_island": "白島_福岡", "url_island": "https://ja.wikipedia.org/wiki/%E7%99%BD%E5%B3%B6_(%E7%A6%8F%E5%B2%A1%E7%9C%8C)", "name_municipality": "北九州市", "url_municipality": "https://ja.wikipedia.org/wiki/%E5%8C%97%E4%B9%9D%E5%B7%9E%E5%B8%82", "lat": 34.012403, "lon": 130.729908}, {"name_en": "me_jima", "name_island": "女島", "url_island": "https://ja.wikipedia.org/wiki/%E7%99%BD%E5%B3%B6_(%E7%A6%8F%E5%B2%A1%E7%9C%8C)", "name_municipality": "北九州市", "url_municipality": "https://ja.wikipedia.org/wiki/%E5%8C%97%E4%B9%9D%E5%B7%9E%E5%B8%82", "lat": 34.003133, "lon": 130.712938}, {"name_en": "hatsushima_oomuta", "name_island": "初島_大牟田", "url_island": "https://ja.wikipedia.org/wiki/%E5%88%9D%E5%B3%B6_(%E5%A4%A7%E7%89%9F%E7%94%B0%E5%B8%82)", "name_municipality": "大牟田市", "url_municipality": "https://ja.wikipedia.org/wiki/%E5%A4%A7%E7%89%9F%E7%94%B0%E5%B8%82", "lat": 33.05325, "lon": 130.404472}, {"name_en": "himeshima_fukuoka", "name_island": "姫島_福岡", "url_island": "https://ja.wikipedia.org/wiki/%E5%A7%AB%E5%B3%B6_(%E7%A6%8F%E5%B2%A1%E7%9C%8C)", "name_municipality": "糸島市", "url_municipality": "https://ja.wikipedia.org/wiki/%E7%B3%B8%E5%B3%B6%E5%B8%82", "lat": 33.570556, "lon": 130.048611}, {"name_en": "okinoshima", "name_island": "沖ノ島", "url_island": "https://ja.wikipedia.org/wiki/%E6%B2%96%E3%83%8E%E5%B3%B6", "name_municipality": "宗像市", "url_municipality": "https://ja.wikipedia.org/wiki/%E5%AE%97%E5%83%8F%E5%B8%82", "lat": 34.244767, "lon": 130.105427}, {"name_en": "katsushima", "name_island": "勝島", "url_island": "", "name_municipality": "宗像市", "url_municipality": "https://ja.wikipedia.org/wiki/%E5%AE%97%E5%83%8F%E5%B8%82", "lat": 33.861879, "lon": 130.471402}, {"name_en": "nokonoshima", "name_island": "能古島", "url_island": "https://ja.wikipedia.org/wiki/%E8%83%BD%E5%8F%A4%E5%B3%B6", "name_municipality": "福岡市", "url_municipality": "https://ja.wikipedia.org/wiki/%E7%A6%8F%E5%B2%A1%E5%B8%82", "lat": 33.620833, "lon": 130.303333}, {"name_en": "kounoshima", "name_island": "神ノ島", "url_island": "", "name_municipality": "苅田町", "url_municipality": "https://ja.wikipedia.org/wiki/%E8%8B%85%E7%94%B0%E7%94%BA", "lat": 33.791982, "lon": 131.009709}, {"name_en": "majima", "name_island": "間島", "url_island": "", "name_municipality": "北九州市", "url_municipality": "https://ja.wikipedia.org/wiki/%E5%8C%97%E4%B9%9D%E5%B7%9E%E5%B8%82", "lat": 33.829055, "lon": 130.97527}]}