{"title": "List of Islands in Ishikawa", "title_ja": "石川県の島の島の一覧", "reference": "wikipedia: 石川県の島", "url_reference": "https://ja.wikipedia.org/wiki/Category:%E7%9F%B3%E5%B7%9D%E7%9C%8C%E3%81%AE%E5%B3%B6", "islands": [{"name_en": "ooshima_wajima", "name_island": "大島_輪島", "url_island": "https://ja.wikipedia.org/wiki/%E4%B8%83%E3%83%84%E5%B3%B6", "name_municipality": "輪島市", "url_municipality": "https://ja.wikipedia.org/wiki/%E8%BC%AA%E5%B3%B6%E5%B8%82", "lat": 37.610667, "lon": 136.900278}, {"name_en": "karimata_jima", "name_island": "狩又島", "url_island": "https://ja.wikipedia.org/wiki/%E4%B8%83%E3%83%84%E5%B3%B6", "name_municipality": "輪島市", "url_municipality": "https://ja.wikipedia.org/wiki/%E8%BC%AA%E5%B3%B6%E5%B8%82", "lat": 37.614809, "lon": 136.890639}, {"name_en": "tatsu_jima", "name_island": "竜島", "url_island": "https://ja.wikipedia.org/wiki/%E4%B8%83%E3%83%84%E5%B3%B6", "name_municipality": "輪島市", "url_municipality": "https://ja.wikipedia.org/wiki/%E8%BC%AA%E5%B3%B6%E5%B8%82", "lat": 37.615346, "lon": 136.887056}, {"name_en": "aramiko_jima", "name_island": "荒三子島", "url_island": "https://ja.wikipedia.org/wiki/%E4%B8%83%E3%83%84%E5%B3%B6", "name_municipality": "輪島市", "url_municipality": "https://ja.wikipedia.org/wiki/%E8%BC%AA%E5%B3%B6%E5%B8%82", "lat": 37.588345, "lon": 136.876708}, {"name_en": "eboshi_jima", "name_island": "烏帽子島", "url_island": "https://ja.wikipedia.org/wiki/%E4%B8%83%E3%83%84%E5%B3%B6", "name_municipality": "輪島市", "url_municipality": "https://ja.wikipedia.org/wiki/%E8%BC%AA%E5%B3%B6%E5%B8%82", "lat": 37.584574, "lon": 136.864833}, {"name_en": "aka_jima_wajima", "name_island": "赤島_輪島", "url_island": "https://ja.wikipedia.org/wiki/%E4%B8%83%E3%83%84%E5%B3%B6", "name_municipality": "輪島市", "url_municipality": "https://ja.wikipedia.org/wiki/%E8%BC%AA%E5%B3%B6%E5%B8%82", "lat": 37.592112, "lon": 136.863167}, {"name_en": "hegura_jima", "name_island": "舳倉島", "url_island": "https://ja.wikipedia.org/wiki/%E8%88%B3%E5%80%89%E5%B3%B6", "name_municipality": "海士町_輪島", "url_municipality": "https://ja.wikipedia.org/wiki/%E6%B5%B7%E5%A3%AB%E7%94%BA_(%E8%BC%AA%E5%B3%B6%E5%B8%82)", "lat": 37.851389, "lon": 136.918611}, {"name_en": "mitsuke_jima_ishikawa", "name_island": "見附島_石川", "url_island": "https://ja.wikipedia.org/wiki/%E8%A6%8B%E9%99%84%E5%B3%B6_(%E7%9F%B3%E5%B7%9D%E7%9C%8C)", "name_municipality": "珠洲市", "url_municipality": "https://ja.wikipedia.org/wiki/%E7%8F%A0%E6%B4%B2%E5%B8%82", "lat": 37.396183, "lon": 137.247289}, {"name_en": "noto_jima", "name_island": "能登島", "url_island": "https://ja.wikipedia.org/wiki/%E8%83%BD%E7%99%BB%E5%B3%B6", "name_municipality": "七尾市", "url_municipality": "https://ja.wikipedia.org/wiki/%E4%B8%83%E5%B0%BE%E5%B8%82", "lat": 37.125, "lon": 136.996389}, {"name_en": "tanaga_shima_nanao", "name_island": "種ケ島", "url_island": "", "name_municipality": "七尾市", "url_municipality": "https://ja.wikipedia.org/wiki/%E4%B8%83%E5%B0%BE%E5%B8%82", "lat": 37.10552759576177, "lon": 136.8912658652967}]}