{"title": "List of Islands of Okinawa", "title_ja": "沖縄諸島の島の一覧", "reference": "wikipedia: 沖縄諸島", "url_reference": "https://ja.wikipedia.org/wiki/Category:%E6%B2%96%E7%B8%84%E8%AB%B8%E5%B3%B6", "islands": [{"name_en": "okinawa_honntou", "name_island": "沖縄本島", "url_island": "https://ja.wikipedia.org/wiki/%E6%B2%96%E7%B8%84%E6%9C%AC%E5%B3%B6", "name_municipality": "沖縄県", "url_municipality": "https://ja.wikipedia.org/wiki/%E6%B2%96%E7%B8%84%E7%9C%8C", "lat": 26.2125, "lon": 127.681111}, {"name_en": "adaka_jima", "name_island": "安田ヶ島", "url_island": "https://ja.wikipedia.org/wiki/%E5%AE%89%E7%94%B0%E3%83%B6%E5%B3%B6", "name_municipality": "国頭村", "url_municipality": "https://ja.wikipedia.org/wiki/%E5%9B%BD%E9%A0%AD%E6%9D%91", "lat": 26.746667, "lon": 128.332778}, {"name_en": "abu_ooru_shima", "name_island": "安部オール島", "url_island": "https://ja.wikipedia.org/wiki/%E5%AE%89%E9%83%A8%E3%82%AA%E3%83%BC%E3%83%AB%E5%B3%B6", "name_municipality": "名護市", "url_municipality": "https://ja.wikipedia.org/wiki/%E5%90%8D%E8%AD%B7%E5%B8%82", "lat": 26.53275, "lon": 128.098528}, {"name_en": "iejima", "name_island": "伊江島", "url_island": "https://ja.wikipedia.org/wiki/%E4%BC%8A%E6%B1%9F%E5%B3%B6", "name_municipality": "伊江村", "url_municipality": "https://ja.wikipedia.org/wiki/%E4%BC%8A%E6%B1%9F%E6%9D%91", "lat": 26.716111, "lon": 127.790278}, {"name_en": "ioutorishima", "name_island": "硫黄鳥島", "url_island": "https://ja.wikipedia.org/wiki/%E7%A1%AB%E9%BB%84%E9%B3%A5%E5%B3%B6", "name_municipality": "久米島町", "url_municipality": "https://ja.wikipedia.org/wiki/%E4%B9%85%E7%B1%B3%E5%B3%B6%E7%94%BA", "lat": 27.874167, "lon": 128.226389}, {"name_en": "ikei_jima", "name_island": "伊計島", "url_island": "https://ja.wikipedia.org/wiki/%E4%BC%8A%E8%A8%88%E5%B3%B6", "name_municipality": "うるま市", "url_municipality": "https://ja.wikipedia.org/wiki/%E3%81%86%E3%82%8B%E3%81%BE%E5%B8%82", "lat": 26.393889, "lon": 127.9975}, {"name_en": "ukibaru_jima", "name_island": "浮原島", "url_island": "https://ja.wikipedia.org/wiki/%E6%B5%AE%E5%8E%9F%E5%B3%B6", "name_municipality": "うるま市", "url_municipality": "https://ja.wikipedia.org/wiki/%E3%81%86%E3%82%8B%E3%81%BE%E5%B8%82", "lat": 26.301111, "lon": 127.991944}, {"name_en": "ejina_tou", "name_island": "エージナ島", "url_island": "https://ja.wikipedia.org/wiki/%E3%82%A8%E3%83%BC%E3%82%B8%E3%83%8A%E5%B3%B6", "name_municipality": "糸満市", "url_municipality": "https://ja.wikipedia.org/wiki/%E7%B3%B8%E6%BA%80%E5%B8%82", "lat": 26.108889, "lon": 127.658889}, {"name_en": "oujima_kume", "name_island": "奥武島_久米", "url_island": "https://ja.wikipedia.org/wiki/%E5%A5%A5%E6%AD%A6%E5%B3%B6_(%E6%B2%96%E7%B8%84%E7%9C%8C%E4%B9%85%E7%B1%B3%E5%B3%B6%E7%94%BA)", "name_municipality": "久米島町", "url_municipality": "https://ja.wikipedia.org/wiki/%E4%B9%85%E7%B1%B3%E5%B3%B6%E7%94%BA", "lat": 26.338611, "lon": 126.828056}, {"name_en": "oujima_nago", "name_island": "奥武島_名護", "url_island": "https://ja.wikipedia.org/wiki/%E5%A5%A5%E6%AD%A6%E5%B3%B6_(%E6%B2%96%E7%B8%84%E7%9C%8C%E5%90%8D%E8%AD%B7%E5%B8%82)", "name_municipality": "名護市", "url_municipality": "https://ja.wikipedia.org/wiki/%E5%90%8D%E8%AD%B7%E5%B8%82", "lat": 26.63866, "lon": 128.03274}, {"name_en": "oujima_nanjyo", "name_island": "奥武島_南城", "url_island": "https://ja.wikipedia.org/wiki/%E5%A5%A5%E6%AD%A6%E5%B3%B6_(%E6%B2%96%E7%B8%84%E7%9C%8C%E5%8D%97%E5%9F%8E%E5%B8%82)", "name_municipality": "南城市", "url_municipality": "https://ja.wikipedia.org/wiki/%E5%8D%97%E5%9F%8E%E5%B8%82", "lat": 26.129444, "lon": 127.772778}, {"name_en": "oha_jima", "name_island": "オーハ島", "url_island": "https://ja.wikipedia.org/wiki/%E3%82%AA%E3%83%BC%E3%83%8F%E5%B3%B6", "name_municipality": "久米島町", "url_municipality": "https://ja.wikipedia.org/wiki/%E4%B9%85%E7%B1%B3%E5%B3%B6%E7%94%BA", "lat": 26.34, "lon": 126.839722}, {"name_en": "kudaka_jima", "name_island": "久高島", "url_island": "https://ja.wikipedia.org/wiki/%E4%B9%85%E9%AB%98%E5%B3%B6", "name_municipality": "南城市", "url_municipality": "https://ja.wikipedia.org/wiki/%E5%8D%97%E5%9F%8E%E5%B8%82", "lat": 26.157778, "lon": 127.886667}, {"name_en": "kume_jima", "name_island": "久米島", "url_island": "https://ja.wikipedia.org/wiki/%E4%B9%85%E7%B1%B3%E5%B3%B6", "name_municipality": "久米島町", "url_municipality": "https://ja.wikipedia.org/wiki/%E4%B9%85%E7%B1%B3%E5%B3%B6%E7%94%BA", "lat": 26.354444, "lon": 126.770833}, {"name_en": "kouri_jima", "name_island": "古宇利島", "url_island": "https://ja.wikipedia.org/wiki/%E5%8F%A4%E5%AE%87%E5%88%A9%E5%B3%B6", "name_municipality": "今帰仁村", "url_municipality": "https://ja.wikipedia.org/wiki/%E4%BB%8A%E5%B8%B0%E4%BB%81%E6%9D%91", "lat": 26.706111, "lon": 128.017778}, {"name_en": "sesoko_jima", "name_island": "瀬底島", "url_island": "https://ja.wikipedia.org/wiki/%E7%80%AC%E5%BA%95%E5%B3%B6", "name_municipality": "本部町", "url_municipality": "https://ja.wikipedia.org/wiki/%E6%9C%AC%E9%83%A8%E7%94%BA", "lat": 26.646111, "lon": 127.865}, {"name_en": "senaga_jima", "name_island": "瀬長島", "url_island": "https://ja.wikipedia.org/wiki/%E7%80%AC%E9%95%B7%E5%B3%B6", "name_municipality": "豊見城市", "url_municipality": "https://ja.wikipedia.org/wiki/%E8%B1%8A%E8%A6%8B%E5%9F%8E%E5%B8%82", "lat": 26.175, "lon": 127.6425}, {"name_en": "tsuken_jima", "name_island": "津堅島", "url_island": "https://ja.wikipedia.org/wiki/%E6%B4%A5%E5%A0%85%E5%B3%B6", "name_municipality": "うるま市", "url_municipality": "https://ja.wikipedia.org/wiki/%E3%81%86%E3%82%8B%E3%81%BE%E5%B8%82", "lat": 26.250278, "lon": 127.941667}, {"name_en": "torishima_okinawa", "name_island": "鳥島_沖縄", "url_island": "https://ja.wikipedia.org/wiki/%E9%B3%A5%E5%B3%B6_(%E6%B2%96%E7%B8%84%E7%9C%8C)", "name_municipality": "久米島町", "url_municipality": "https://ja.wikipedia.org/wiki/%E4%B9%85%E7%B1%B3%E5%B3%B6%E7%94%BA", "lat": 26.595556, "lon": 126.833056}, {"name_en": "hamahiga_jima", "name_island": "浜比嘉島", "url_island": "https://ja.wikipedia.org/wiki/%E6%B5%9C%E6%AF%94%E5%98%89%E5%B3%B6", "name_municipality": "うるま市", "url_municipality": "https://ja.wikipedia.org/wiki/%E3%81%86%E3%82%8B%E3%81%BE%E5%B8%82", "lat": 26.319703, "lon": 127.958107}, {"name_en": "henza_jima", "name_island": "平安座島", "url_island": "https://ja.wikipedia.org/wiki/%E5%B9%B3%E5%AE%89%E5%BA%A7%E5%B3%B6", "name_municipality": "うるま市", "url_municipality": "https://ja.wikipedia.org/wiki/%E3%81%86%E3%82%8B%E3%81%BE%E5%B8%82", "lat": 26.348889, "lon": 127.958056}, {"name_en": "minamiukibaru_jima", "name_island": "南浮原島", "url_island": "https://ja.wikipedia.org/wiki/%E5%8D%97%E6%B5%AE%E5%8E%9F%E5%B3%B6", "name_municipality": "うるま市", "url_municipality": "https://ja.wikipedia.org/wiki/%E3%81%86%E3%82%8B%E3%81%BE%E5%B8%82", "lat": 26.289444, "lon": 127.980278}, {"name_en": "miyagijima_uruma", "name_island": "宮城島_うるま", "url_island": "https://ja.wikipedia.org/wiki/%E5%AE%AE%E5%9F%8E%E5%B3%B6_(%E6%B2%96%E7%B8%84%E7%9C%8C%E3%81%86%E3%82%8B%E3%81%BE%E5%B8%82)", "name_municipality": "うるま市", "url_municipality": "https://ja.wikipedia.org/wiki/%E3%81%86%E3%82%8B%E3%81%BE%E5%B8%82", "lat": 26.368333, "lon": 127.981389}, {"name_en": "miyagijima_oogimi", "name_island": "宮城島 _大宜味", "url_island": "https://ja.wikipedia.org/wiki/%E5%AE%AE%E5%9F%8E%E5%B3%B6_(%E6%B2%96%E7%B8%84%E7%9C%8C%E5%A4%A7%E5%AE%9C%E5%91%B3%E6%9D%91)", "name_municipality": "大宜味村", "url_municipality": "https://ja.wikipedia.org/wiki/%E5%A4%A7%E5%AE%9C%E5%91%B3%E6%9D%91", "lat": 26.6675, "lon": 128.101944}, {"name_en": "minnajima_motobu", "name_island": "水納島_本部", "url_island": "https://ja.wikipedia.org/wiki/%E6%B0%B4%E7%B4%8D%E5%B3%B6_(%E6%B2%96%E7%B8%84%E7%9C%8C%E6%9C%AC%E9%83%A8%E7%94%BA)", "name_municipality": "本部町", "url_municipality": "https://ja.wikipedia.org/wiki/%E6%9C%AC%E9%83%A8%E7%94%BA", "lat": 26.647222, "lon": 127.817778}, {"name_en": "yagajishima", "name_island": "屋我地島", "url_island": "https://ja.wikipedia.org/wiki/%E5%B1%8B%E6%88%91%E5%9C%B0%E5%B3%B6", "name_municipality": "名護市", "url_municipality": "https://ja.wikipedia.org/wiki/%E5%90%8D%E8%AD%B7%E5%B8%82", "lat": 26.665556, "lon": 128.010556}, {"name_en": "yabuchi_jima", "name_island": "藪地島", "url_island": "https://ja.wikipedia.org/wiki/%E8%97%AA%E5%9C%B0%E5%B3%B6", "name_municipality": "うるま市", "url_municipality": "https://ja.wikipedia.org/wiki/%E3%81%86%E3%82%8B%E3%81%BE%E5%B8%82", "lat": 26.319444, "lon": 127.923333}]}