{"title": "List of Islands of Bouyo", "title_ja": "防予諸島の島の一覧", "reference": "wikipedia: 防予諸島", "url_reference": "https://ja.wikipedia.org/wiki/%E9%98%B2%E4%BA%88%E8%AB%B8%E5%B3%B6", "islands": [{"name_en": "yashiro_jima", "name_island": "屋代島", "url_island": "https://ja.wikipedia.org/wiki/%E5%B1%8B%E4%BB%A3%E5%B3%B6", "name_municipality": "周防大島町", "url_municipality": "https://ja.wikipedia.org/wiki/%E5%91%A8%E9%98%B2%E5%A4%A7%E5%B3%B6%E7%94%BA", "lat": 33.916667, "lon": 132.266667}, {"name_en": "kasasa_jima", "name_island": "笠佐島", "url_island": "https://ja.wikipedia.org/wiki/%E7%AC%A0%E4%BD%90%E5%B3%B6", "name_municipality": "周防大島町", "url_municipality": "https://ja.wikipedia.org/wiki/%E5%91%A8%E9%98%B2%E5%A4%A7%E5%B3%B6%E7%94%BA", "lat": 33.943611, "lon": 132.166111}, {"name_en": "nasakejima_yamaguchi", "name_island": "情島_山口", "url_island": "https://ja.wikipedia.org/wiki/%E6%83%85%E5%B3%B6_(%E5%B1%B1%E5%8F%A3%E7%9C%8C)", "name_municipality": "周防大島町", "url_municipality": "https://ja.wikipedia.org/wiki/%E5%91%A8%E9%98%B2%E5%A4%A7%E5%B3%B6%E7%94%BA", "lat": 33.959444, "lon": 132.473889}, {"name_en": "ukashima_yamaguchi", "name_island": "浮島_山口", "url_island": "https://ja.wikipedia.org/wiki/%E6%B5%AE%E5%B3%B6_(%E5%B1%B1%E5%8F%A3%E7%9C%8C)", "name_municipality": "周防大島町", "url_municipality": "https://ja.wikipedia.org/wiki/%E5%91%A8%E9%98%B2%E5%A4%A7%E5%B3%B6%E7%94%BA", "lat": 33.946778, "lon": 132.348889}, {"name_en": "okikamuro_jima", "name_island": "沖家室島", "url_island": "https://ja.wikipedia.org/wiki/%E6%B2%96%E5%AE%B6%E5%AE%A4%E5%B3%B6", "name_municipality": "周防大島町", "url_municipality": "https://ja.wikipedia.org/wiki/%E5%91%A8%E9%98%B2%E5%A4%A7%E5%B3%B6%E7%94%BA", "lat": 33.851389, "lon": 132.364333}, {"name_en": "maejima_yamaguchi", "name_island": "前島_山口", "url_island": "https://ja.wikipedia.org/wiki/%E5%89%8D%E5%B3%B6_(%E5%B1%B1%E5%8F%A3%E7%9C%8C)", "name_municipality": "周防大島町", "url_municipality": "https://ja.wikipedia.org/wiki/%E5%91%A8%E9%98%B2%E5%A4%A7%E5%B3%B6%E7%94%BA", "lat": 34.0, "lon": 132.266667}, {"name_en": "heigun_tou", "name_island": "平郡島", "url_island": "https://ja.wikipedia.org/wiki/%E5%B9%B3%E9%83%A1%E5%B3%B6", "name_municipality": "柳井市", "url_municipality": "https://ja.wikipedia.org/wiki/%E6%9F%B3%E4%BA%95%E5%B8%82", "lat": 33.795556, "lon": 132.222222}, {"name_en": "nagashima_yamaguchi", "name_island": "長島_山口", "url_island": "https://ja.wikipedia.org/wiki/%E9%95%B7%E5%B3%B6_(%E5%B1%B1%E5%8F%A3%E7%9C%8C)", "name_municipality": "上関町", "url_municipality": "https://ja.wikipedia.org/wiki/%E4%B8%8A%E9%96%A2%E7%94%BA", "lat": 33.835278, "lon": 132.092778}, {"name_en": "iwaishima", "name_island": "祝島", "url_island": "https://ja.wikipedia.org/wiki/%E7%A5%9D%E5%B3%B6", "name_municipality": "上関町", "url_municipality": "https://ja.wikipedia.org/wiki/%E4%B8%8A%E9%96%A2%E7%94%BA", "lat": 33.784083, "lon": 131.990611}, {"name_en": "yashima_yanaguchi", "name_island": "八島_山口", "url_island": "https://ja.wikipedia.org/wiki/%E5%85%AB%E5%B3%B6_(%E5%B1%B1%E5%8F%A3%E7%9C%8C)", "name_municipality": "上関町", "url_municipality": "https://ja.wikipedia.org/wiki/%E4%B8%8A%E9%96%A2%E7%94%BA", "lat": 33.723333, "lon": 132.140972}, {"name_en": "sagou_jima", "name_island": "佐合島", "url_island": "https://ja.wikipedia.org/wiki/%E4%BD%90%E5%90%88%E5%B3%B6", "name_municipality": "平生町", "url_municipality": "https://ja.wikipedia.org/wiki/%E5%B9%B3%E7%94%9F%E7%94%BA", "lat": 33.875556, "lon": 132.063056}, {"name_en": "umashima_yamaguchi", "name_island": "馬島_山口", "url_island": "https://ja.wikipedia.org/wiki/%E9%A6%AC%E5%B3%B6_(%E5%B1%B1%E5%8F%A3%E7%9C%8C)", "name_municipality": "田布施町", "url_municipality": "https://ja.wikipedia.org/wiki/%E7%94%B0%E5%B8%83%E6%96%BD%E7%94%BA", "lat": 33.894778, "lon": 132.047889}, {"name_en": "hashima_yamaguchi", "name_island": "端島_山口", "url_island": "https://ja.wikipedia.org/wiki/%E7%AB%AF%E5%B3%B6_(%E5%B1%B1%E5%8F%A3%E7%9C%8C)", "name_municipality": "岩国市", "url_municipality": "https://ja.wikipedia.org/wiki/%E5%B2%A9%E5%9B%BD%E5%B8%82", "lat": 34.036444, "lon": 132.38375}]}