{"title": "List of Islands in Mie", "title_ja": "三重県の島の一覧", "reference": "wikipedia: 三重県の島", "url_reference": "https://ja.wikipedia.org/wiki/Category:%E4%B8%89%E9%87%8D%E7%9C%8C%E3%81%AE%E5%B3%B6", "islands": [{"name_en": "oozukumi_jima", "name_island": "大築海島", "url_island": "https://ja.wikipedia.org/wiki/%E5%A4%A7%E7%AF%89%E6%B5%B7%E5%B3%B6", "name_municipality": "鳥羽市", "url_municipality": "https://ja.wikipedia.org/wiki/%E9%B3%A5%E7%BE%BD%E5%B8%82", "lat": 34.541667, "lon": 136.911111}, {"name_en": "kamishima_mie", "name_island": "神島_三重", "url_island": "https://ja.wikipedia.org/wiki/%E7%A5%9E%E5%B3%B6_(%E4%B8%89%E9%87%8D%E7%9C%8C)", "name_municipality": "鳥羽市", "url_municipality": "https://ja.wikipedia.org/wiki/%E9%B3%A5%E7%BE%BD%E5%B8%82", "lat": 34.548333, "lon": 136.984722}, {"name_en": "kozukumi_jima", "name_island": "小築海島", "url_island": "https://ja.wikipedia.org/wiki/%E5%B0%8F%E7%AF%89%E6%B5%B7%E5%B3%B6", "name_municipality": "鳥羽市", "url_municipality": "https://ja.wikipedia.org/wiki/%E9%B3%A5%E7%BE%BD%E5%B8%82", "lat": 34.548889, "lon": 136.924722}, {"name_en": "zagashima", "name_island": "座賀島", "url_island": "", "name_municipality": "志摩市", "url_municipality": "https://ja.wikipedia.org/wiki/%E5%BF%97%E6%91%A9%E5%B8%82", "lat": 34.275833, "lon": 136.804444}, {"name_en": "sakate_jima", "name_island": "坂手島", "url_island": "https://ja.wikipedia.org/wiki/%E5%9D%82%E6%89%8B%E5%B3%B6", "name_municipality": "鳥羽市", "url_municipality": "https://ja.wikipedia.org/wiki/%E9%B3%A5%E7%BE%BD%E5%B8%82", "lat": 34.484806, "lon": 136.859472}, {"name_en": "santousan", "name_island": "三島山_三重", "url_island": "https://ja.wikipedia.org/wiki/%E4%B8%89%E5%B3%B6%E5%B1%B1_(%E4%B8%89%E9%87%8D%E7%9C%8C)", "name_municipality": "志摩市", "url_municipality": "https://ja.wikipedia.org/wiki/%E5%BF%97%E6%91%A9%E5%B8%82", "lat": 34.271389, "lon": 136.879167}, {"name_en": "sugashima", "name_island": "菅島", "url_island": "https://ja.wikipedia.org/wiki/%E8%8F%85%E5%B3%B6", "name_municipality": "鳥羽市", "url_municipality": "https://ja.wikipedia.org/wiki/%E9%B3%A5%E7%BE%BD%E5%B8%82", "lat": 34.499, "lon": 136.9005}, {"name_en": "suzushima", "name_island": "鈴島", "url_island": "https://ja.wikipedia.org/wiki/%E9%88%B4%E5%B3%B6", "name_municipality": "紀北町", "url_municipality": "https://ja.wikipedia.org/wiki/%E7%B4%80%E5%8C%97%E7%94%BA", "lat": 34.160556, "lon": 136.303333}, {"name_en": "seiganshima", "name_island": "誓願島", "url_island": "https://ja.wikipedia.org/wiki/%E8%AA%93%E9%A1%98%E5%B3%B6", "name_municipality": "鳥羽市", "url_municipality": "https://ja.wikipedia.org/wiki/%E9%B3%A5%E7%BE%BD%E5%B8%82", "lat": 34.483583, "lon": 136.866722}, {"name_en": "tatoku_jima", "name_island": "多徳島", "url_island": "https://ja.wikipedia.org/wiki/%E5%A4%9A%E5%BE%B3%E5%B3%B6", "name_municipality": "志摩市", "url_municipality": "https://ja.wikipedia.org/wiki/%E5%BF%97%E6%91%A9%E5%B8%82", "lat": 34.300333, "lon": 136.815472}, {"name_en": "toushi_jima", "name_island": "答志島", "url_island": "https://ja.wikipedia.org/wiki/%E7%AD%94%E5%BF%97%E5%B3%B6", "name_municipality": "鳥羽市", "url_municipality": "https://ja.wikipedia.org/wiki/%E9%B3%A5%E7%BE%BD%E5%B8%82", "lat": 34.520278, "lon": 136.877611}, {"name_en": "hinata_jima", "name_island": "日向島", "url_island": "https://ja.wikipedia.org/wiki/%E6%97%A5%E5%90%91%E5%B3%B6", "name_municipality": "鳥羽市", "url_municipality": "https://ja.wikipedia.org/wiki/%E9%B3%A5%E7%BE%BD%E5%B8%82", "lat": 34.506025, "lon": 136.8373}, {"name_en": "masaki-jima", "name_island": "間崎島", "url_island": "https://ja.wikipedia.org/wiki/%E9%96%93%E5%B4%8E%E5%B3%B6", "name_municipality": "m志摩市", "url_municipality": "https://ja.wikipedia.org/wiki/%E5%BF%97%E6%91%A9%E5%B8%82", "lat": 34.290278, "lon": 136.815833}, {"name_en": "mie_jima", "name_island": "見江島", "url_island": "https://ja.wikipedia.org/wiki/%E8%A6%8B%E6%B1%9F%E5%B3%B6", "name_municipality": "南伊勢町", "url_municipality": "https://ja.wikipedia.org/wiki/%E5%8D%97%E4%BC%8A%E5%8B%A2%E7%94%BA", "lat": 34.245944, "lon": 136.550917}, {"name_en": "mikimoto_pearl_island", "name_island": "ミキモト真珠島", "url_island": "https://ja.wikipedia.org/wiki/%E3%83%9F%E3%82%AD%E3%83%A2%E3%83%88%E7%9C%9F%E7%8F%A0%E5%B3%B6", "name_municipality": "鳥羽市", "url_municipality": "https://ja.wikipedia.org/wiki/%E9%B3%A5%E7%BE%BD%E5%B8%82", "lat": 34.483333, "lon": 136.846944}, {"name_en": "yadori_jima", "name_island": "矢取島", "url_island": "https://ja.wikipedia.org/wiki/%E7%9F%A2%E5%8F%96%E5%B3%B6", "name_municipality": "志摩市", "url_municipality": "https://ja.wikipedia.org/wiki/%E5%BF%97%E6%91%A9%E5%B8%82", "lat": 34.291139, "lon": 136.765306}, {"name_en": "yokoyama_jima", "name_island": "横山島", "url_island": "https://ja.wikipedia.org/wiki/%E6%A8%AA%E5%B1%B1%E5%B3%B6", "name_municipality": "志摩市", "url_municipality": "https://ja.wikipedia.org/wiki/%E5%BF%97%E6%91%A9%E5%B8%82", "lat": 34.301083, "lon": 136.820231}, {"name_en": "wagu_ooshima", "name_island": "和具大島", "url_island": "", "name_municipality": "志摩市", "url_municipality": "https://ja.wikipedia.org/wiki/%E5%BF%97%E6%91%A9%E5%B8%82", "lat": 34.150442, "lon": 136.364235}, {"name_en": "watakano_jima", "name_island": "渡鹿野島", "url_island": "https://ja.wikipedia.org/wiki/%E6%B8%A1%E9%B9%BF%E9%87%8E%E5%B3%B6", "name_municipality": "志摩市", "url_municipality": "https://ja.wikipedia.org/wiki/%E5%BF%97%E6%91%A9%E5%B8%82", "lat": 34.362778, "lon": 136.874167}, {"name_en": "ukishima", "name_island": "浮島", "url_island": "", "name_municipality": "鳥羽市", "url_municipality": "https://ja.wikipedia.org/wiki/%E9%B3%A5%E7%BE%BD%E5%B8%82", "lat": 34.518149, "lon": 136.841884}, {"name_en": "ushi_jima", "name_island": "牛島", "url_island": "", "name_municipality": "鳥羽市", "url_municipality": "https://ja.wikipedia.org/wiki/%E9%B3%A5%E7%BE%BD%E5%B8%82", "lat": 34.520481888475295, "lon": 136.85617236483992}, {"name_en": "oomura_jima", "name_island": "大村島", "url_island": "", "name_municipality": "鳥羽市", "url_municipality": "https://ja.wikipedia.org/wiki/%E9%B3%A5%E7%BE%BD%E5%B8%82", "lat": 34.457975, "lon": 136.894659}, {"name_en": "oomushiro_jima", "name_island": "大莚島", "url_island": "", "name_municipality": "志摩市", "url_municipality": "https://ja.wikipedia.org/wiki/%E5%BF%97%E6%91%A9%E5%B8%82", "lat": 34.267882, "lon": 136.838804}, {"name_en": "kuzhushima", "name_island": "葛島", "url_island": "", "name_municipality": "南伊勢町", "url_municipality": "https://ja.wikipedia.org/wiki/%E5%8D%97%E4%BC%8A%E5%8B%A2%E7%94%BA", "lat": 34.297492, "lon": 136.681823}, {"name_en": "minami_jima", "name_island": "南島", "url_island": "", "name_municipality": "南伊勢町", "url_municipality": "https://ja.wikipedia.org/wiki/%E5%8D%97%E4%BC%8A%E5%8B%A2%E7%94%BA", "lat": 34.28487, "lon": 136.5748}, {"name_en": "okano_jima", "name_island": "赤野島", "url_island": "", "name_municipality": "紀北町", "url_municipality": "https://ja.wikipedia.org/wiki/%E7%B4%80%E5%8C%97%E7%94%BA", "lat": 34.16677, "lon": 136.32002}, {"name_en": "sabaru_jima", "name_island": "佐波留島", "url_island": "https://ja.wikipedia.org/wiki/%E4%BD%90%E6%B3%A2%E7%95%99%E5%B3%B6", "name_municipality": "尾鷲市", "url_municipality": "https://ja.wikipedia.org/wiki/%E5%B0%BE%E9%B7%B2%E5%B8%82", "lat": 34.070802, "lon": 136.254564}, {"name_en": "toga_jima", "name_island": "桃頭島", "url_island": "https://ja.wikipedia.org/wiki/%E6%A1%83%E9%A0%AD%E5%B3%B6", "name_municipality": "尾鷲市", "url_municipality": "https://ja.wikipedia.org/wiki/%E5%B0%BE%E9%B7%B2%E5%B8%82", "lat": 34.059547, "lon": 136.260239}, {"name_en": "tendou_jima", "name_island": "天童島", "url_island": "", "name_municipality": "志摩市", "url_municipality": "https://ja.wikipedia.org/wiki/%E5%BF%97%E6%91%A9%E5%B8%82", "lat": 34.290097, "lon": 136.830341}]}