{"title": "List of Islands of Chishima", "title_ja": "千島列島の島の一覧", "reference": "wikipedia: 千島列島", "url_reference": "https://ja.wikipedia.org/wiki/Category:%E5%8D%83%E5%B3%B6%E5%88%97%E5%B3%B6", "islands": [{"name_en": "etorofu_tou", "name_island": "択捉島", "url_island": "https://ja.wikipedia.org/wiki/%E6%8A%9E%E6%8D%89%E5%B3%B6", "name_municipality": "ロシア", "url_municipality": "", "lat": 45.225, "lon": 147.875}, {"name_en": "kunashiri_tou", "name_island": "国後島", "url_island": "https://ja.wikipedia.org/wiki/%E5%9B%BD%E5%BE%8C%E5%B3%B6", "name_municipality": "ロシア", "url_municipality": "", "lat": 44.026472, "lon": 145.862528}, {"name_en": "shikotam_tou", "name_island": "色丹島", "url_island": "https://ja.wikipedia.org/wiki/%E8%89%B2%E4%B8%B9%E5%B3%B6", "name_municipality": "ロシア", "url_municipality": "", "lat": 43.793611, "lon": 146.747222}, {"name_en": "araido_tou", "name_island": "阿頼度島", "url_island": "https://ja.wikipedia.org/wiki/%E9%98%BF%E9%A0%BC%E5%BA%A6%E5%B3%B6", "name_municipality": "ロシア", "url_municipality": "", "lat": 50.858333, "lon": 155.558333}, {"name_en": "ushishiru_tou", "name_island": "宇志知島", "url_island": "https://ja.wikipedia.org/wiki/%E5%AE%87%E5%BF%97%E7%9F%A5%E5%B3%B6", "name_municipality": "ロシア", "url_municipality": "", "lat": 47.52, "lon": 152.8}, {"name_en": "uruppu_tou", "name_island": "得撫島", "url_island": "https://ja.wikipedia.org/wiki/%E5%BE%97%E6%92%AB%E5%B3%B6", "name_municipality": "ロシア", "url_municipality": "", "lat": 45.933333, "lon": 150.033333}, {"name_en": "ekaruma_tou", "name_island": "越渇磨島", "url_island": "https://ja.wikipedia.org/wiki/%E8%B6%8A%E6%B8%87%E7%A3%A8%E5%B3%B6", "name_municipality": "ロシア", "url_municipality": "", "lat": 48.958, "lon": 153.93}, {"name_en": "ooshima_shikotan", "name_island": "大島_色丹", "url_island": "https://ja.wikipedia.org/wiki/%E5%A4%A7%E5%B3%B6_(%E5%8C%97%E6%B5%B7%E9%81%93%E8%89%B2%E4%B8%B9%E6%9D%91)", "name_municipality": "ロシア", "url_municipality": "", "lat": 43.752778, "lon": 146.799167}, {"name_en": "onnekotan_tou", "name_island": "温禰古丹島", "url_island": "https://ja.wikipedia.org/wiki/%E6%B8%A9%E7%A6%B0%E5%8F%A4%E4%B8%B9%E5%B3%B6", "name_municipality": "ロシア", "url_municipality": "", "lat": 49.45, "lon": 154.75}, {"name_en": "ketoi_tou", "name_island": "計吐夷島", "url_island": "https://ja.wikipedia.org/wiki/%E8%A8%88%E5%90%90%E5%A4%B7%E5%B3%B6", "name_municipality": "ロシア", "url_municipality": "", "lat": 47.35, "lon": 152.475}, {"name_en": "shimusiru_tou", "name_island": "新知島", "url_island": "https://ja.wikipedia.org/wiki/%E6%96%B0%E7%9F%A5%E5%B3%B6", "name_municipality": "ロシア", "url_municipality": "", "lat": 46.966667, "lon": 152.033333}, {"name_en": "shasukotan_tou", "name_island": "捨子古丹島", "url_island": "https://ja.wikipedia.org/wiki/%E6%8D%A8%E5%AD%90%E5%8F%A4%E4%B8%B9%E5%B3%B6", "name_municipality": "ロシア", "url_municipality": "", "lat": 48.816667, "lon": 154.1}, {"name_en": "shumushu_tou", "name_island": "占守島", "url_island": "https://ja.wikipedia.org/wiki/%E5%8D%A0%E5%AE%88%E5%B3%B6", "name_municipality": "ロシア", "url_municipality": "", "lat": 50.733333, "lon": 156.316667}, {"name_en": "shirinki_tou", "name_island": "志林規島", "url_island": "https://ja.wikipedia.org/wiki/%E5%BF%97%E6%9E%97%E8%A6%8F%E5%B3%B6", "name_municipality": "ロシア", "url_municipality": "", "lat": 50.2, "lon": 154.98}, {"name_en": "surideiwa", "name_island": "摺手岩", "url_island": "https://ja.wikipedia.org/wiki/%E6%91%BA%E6%89%8B%E5%B2%A9", "name_municipality": "ロシア", "url_municipality": "", "lat": 47.58333, "lon": 152.88333}, {"name_en": "chirihoi_tou", "name_island": "知理保以島", "url_island": "https://ja.wikipedia.org/wiki/%E7%9F%A5%E7%90%86%E4%BF%9D%E4%BB%A5%E5%B3%B6", "name_municipality": "ロシア", "url_municipality": "", "lat": 46.525, "lon": 150.875}, {"name_en": "chirinkotan_tou", "name_island": "知林古丹島", "url_island": "https://ja.wikipedia.org/wiki/%E7%9F%A5%E6%9E%97%E5%8F%A4%E4%B8%B9%E5%B3%B6", "name_municipality": "ロシア", "url_municipality": "", "lat": 48.98, "lon": 153.48}, {"name_en": "paramushiru_tou", "name_island": "幌筵島", "url_island": "https://ja.wikipedia.org/wiki/%E5%B9%8C%E7%AD%B5%E5%B3%B6", "name_municipality": "ロシア", "url_municipality": "", "lat": 50.333333, "lon": 155.75}, {"name_en": "harimukotan_tou", "name_island": "春牟古丹島", "url_island": "https://ja.wikipedia.org/wiki/%E6%98%A5%E7%89%9F%E5%8F%A4%E4%B8%B9%E5%B3%B6", "name_municipality": "ロシア", "url_municipality": "", "lat": 49.116667, "lon": 154.508056}, {"name_en": "buroton_tou", "name_island": "武魯頓島", "url_island": "https://ja.wikipedia.org/wiki/%E6%AD%A6%E9%AD%AF%E9%A0%93%E5%B3%B6", "name_municipality": "ロシア", "url_municipality": "", "lat": 46.711667, "lon": 150.733333}, {"name_en": "makanru_tou", "name_island": "磨勘留島", "url_island": "https://ja.wikipedia.org/wiki/%E7%A3%A8%E5%8B%98%E7%95%99%E5%B3%B6", "name_municipality": "ロシア", "url_municipality": "", "lat": 49.78, "lon": 154.43}, {"name_en": "matsuwa-tou", "name_island": "松輪島", "url_island": "https://ja.wikipedia.org/wiki/%E6%9D%BE%E8%BC%AA%E5%B3%B6", "name_municipality": "ロシア", "url_municipality": "", "lat": 48.083333, "lon": 153.233333}, {"name_en": "raikoke_tou", "name_island": "雷公計島", "url_island": "https://ja.wikipedia.org/wiki/%E9%9B%B7%E5%85%AC%E8%A8%88%E5%B3%B6", "name_municipality": "ロシア", "url_municipality": "", "lat": 8.291667, "lon": 153.241667}, {"name_en": "rashowa_tou", "name_island": "羅処和島", "url_island": "https://ja.wikipedia.org/wiki/%E7%BE%85%E5%87%A6%E5%92%8C%E5%B3%B6", "name_municipality": "ロシア", "url_municipality": "", "lat": 47.77, "lon": 153.02}]}