{"title": "List of Islands of Habomai", "title_ja": "歯舞群島の島の一覧", "reference": "wikipedia: 歯舞群島", "url_reference": "https://ja.wikipedia.org/wiki/%E6%AD%AF%E8%88%9E%E7%BE%A4%E5%B3%B6", "islands": [{"name_en": "kaibajima_habomai", "name_island": "海馬島_歯舞", "url_island": "https://ja.wikipedia.org/wiki/%E6%B5%B7%E9%A6%AC%E5%B3%B6_(%E6%AD%AF%E8%88%9E%E7%BE%A4%E5%B3%B6)", "name_municipality": "根室市", "url_municipality": "https://ja.wikipedia.org/wiki/%E6%A0%B9%E5%AE%A4%E5%B8%82", "lat": 43.567603, "lon": 146.401696}, {"name_en": "taraku_tou", "name_island": "多楽島", "url_island": "https://ja.wikipedia.org/wiki/%E5%A4%9A%E6%A5%BD%E5%B3%B6", "name_municipality": "根室市", "url_municipality": "https://ja.wikipedia.org/wiki/%E6%A0%B9%E5%AE%A4%E5%B8%82", "lat": 43.627778, "lon": 146.322222}, {"name_en": "shibotsu_tou", "name_island": "志発島", "url_island": "https://ja.wikipedia.org/wiki/%E5%BF%97%E7%99%BA%E5%B3%B6", "name_municipality": "根室市", "url_municipality": "https://ja.wikipedia.org/wiki/%E6%A0%B9%E5%AE%A4%E5%B8%82", "lat": 43.494444, "lon": 146.15}, {"name_en": "harukaru_tou", "name_island": "春苅島", "url_island": "https://ja.wikipedia.org/wiki/%E6%98%A5%E8%8B%85%E5%B3%B6", "name_municipality": "根室市", "url_municipality": "https://ja.wikipedia.org/wiki/%E6%A0%B9%E5%AE%A4%E5%B8%82", "lat": 43.41754, "lon": 146.162131}, {"name_en": "yuri_tou", "name_island": "勇留島", "url_island": "https://ja.wikipedia.org/wiki/%E5%8B%87%E7%95%99%E5%B3%B6", "name_municipality": "根室市", "url_municipality": "https://ja.wikipedia.org/wiki/%E6%A0%B9%E5%AE%A4%E5%B8%82", "lat": 43.419722, "lon": 146.069722}, {"name_en": "akiyuri_tou", "name_island": "秋勇留島", "url_island": "https://ja.wikipedia.org/wiki/%E7%A7%8B%E5%8B%87%E7%95%99%E5%B3%B6", "name_municipality": "根室市", "url_municipality": "https://ja.wikipedia.org/wiki/%E6%A0%B9%E5%AE%A4%E5%B8%82", "lat": 43.366417, "lon": 146.005833}, {"name_en": "suishou_jima", "name_island": "水晶島", "url_island": "https://ja.wikipedia.org/wiki/%E6%B0%B4%E6%99%B6%E5%B3%B6", "name_municipality": "根室市", "url_municipality": "https://ja.wikipedia.org/wiki/%E6%A0%B9%E5%AE%A4%E5%B8%82", "lat": 43.438639, "lon": 145.9175}, {"name_en": "moeshiri_tou", "name_island": "萌茂尻島", "url_island": "https://ja.wikipedia.org/wiki/%E8%90%8C%E8%8C%82%E5%B0%BB%E5%B3%B6", "name_municipality": "根室市", "url_municipality": "https://ja.wikipedia.org/wiki/%E6%A0%B9%E5%AE%A4%E5%B8%82", "lat": 43.383611, "lon": 145.8925}, {"name_en": "odoke_tou", "name_island": "オドケ島", "url_island": "https://ja.wikipedia.org/wiki/%E3%82%AA%E3%83%89%E3%82%B1%E5%B3%B6", "name_municipality": "根室市", "url_municipality": "https://ja.wikipedia.org/wiki/%E6%A0%B9%E5%AE%A4%E5%B8%82", "lat": 43.39, "lon": 145.875556}, {"name_en": "kaigara_jima", "name_island": "貝殻島", "url_island": "https://ja.wikipedia.org/wiki/%E8%B2%9D%E6%AE%BB%E5%B3%B6", "name_municipality": "根室市", "url_municipality": "https://ja.wikipedia.org/wiki/%E6%A0%B9%E5%AE%A4%E5%B8%82", "lat": 43.396111, "lon": 145.858333}]}