{"title": "List of Islands in Tokushima", "title_ja": "徳島県の島の一覧", "reference": "wikipedia: 徳島県の島", "url_reference": "https://ja.wikipedia.org/wiki/Category:%E5%BE%B3%E5%B3%B6%E7%9C%8C%E3%81%AE%E5%B3%B6", "islands": [{"name_en": "ishima_anan", "name_island": "伊島_阿南", "url_island": "https://ja.wikipedia.org/wiki/%E4%BC%8A%E5%B3%B6_(%E9%98%BF%E5%8D%97%E5%B8%82)", "name_municipality": "阿南市", "url_municipality": "https://ja.wikipedia.org/wiki/%E9%98%BF%E5%8D%97%E5%B8%82", "lat": 33.85, "lon": 134.815278}, {"name_en": "udo_jima", "name_island": "鵜渡島", "url_island": "https://ja.wikipedia.org/wiki/%E9%B5%9C%E6%B8%A1%E5%B3%B6", "name_municipality": "阿南市", "url_municipality": "https://ja.wikipedia.org/wiki/%E9%98%BF%E5%8D%97%E5%B8%82", "lat": 33.878472, "lon": 134.674639}, {"name_en": "ubae_jima", "name_island": "ウバエ島", "url_island": "https://ja.wikipedia.org/wiki/%E3%82%A6%E3%83%90%E3%82%A8%E5%B3%B6", "name_municipality": "海陽町", "url_municipality": "https://ja.wikipedia.org/wiki/%E6%B5%B7%E9%99%BD%E7%94%BA", "lat": 33.557778, "lon": 134.32525}, {"name_en": "uba_jima", "name_island": "姥島", "url_island": "https://ja.wikipedia.org/wiki/%E5%A7%A5%E5%B3%B6_(%E5%BE%B3%E5%B3%B6%E7%9C%8C)", "name_municipality": "阿南市", "url_municipality": "https://ja.wikipedia.org/wiki/%E9%98%BF%E5%8D%97%E5%B8%82", "lat": 33.852444, "lon": 134.67475}, {"name_en": "urume_jima", "name_island": "ウルメ島", "url_island": "https://ja.wikipedia.org/wiki/%E3%82%A6%E3%83%AB%E3%83%A1%E5%B3%B6", "name_municipality": "阿南市", "url_municipality": "https://ja.wikipedia.org/wiki/%E9%98%BF%E5%8D%97%E5%B8%82", "lat": 33.862306, "lon": 134.686972}, {"name_en": "ooge_jima", "name_island": "大毛島", "url_island": "https://ja.wikipedia.org/wiki/%E5%A4%A7%E6%AF%9B%E5%B3%B6", "name_municipality": "鳴門市", "url_municipality": "https://ja.wikipedia.org/wiki/%E9%B3%B4%E9%96%80%E5%B8%82", "lat": 34.2125, "lon": 134.626111}, {"name_en": "ooshima_tokushima", "name_island": "大島_徳島", "url_island": "https://ja.wikipedia.org/wiki/%E5%A4%A7%E5%B3%B6_(%E5%BE%B3%E5%B3%B6%E7%9C%8C)", "name_municipality": "牟岐町", "url_municipality": "https://ja.wikipedia.org/wiki/%E7%89%9F%E5%B2%90%E7%94%BA", "lat": 33.636111, "lon": 134.491667}, {"name_en": "ootatsumi_jima", "name_island": "大辰巳島", "url_island": "https://ja.wikipedia.org/wiki/%E5%A4%A7%E8%BE%B0%E5%B7%B3%E5%B3%B6", "name_municipality": "美波町", "url_municipality": "https://ja.wikipedia.org/wiki/%E7%BE%8E%E6%B3%A2%E7%94%BA", "lat": 33.733556, "lon": 134.570417}, {"name_en": "okishima_tokushima", "name_island": "沖島_徳島", "url_island": "https://ja.wikipedia.org/wiki/%E6%B2%96%E5%B3%B6_(%E5%BE%B3%E5%B3%B6%E7%9C%8C)", "name_municipality": "牟岐町", "url_municipality": "https://ja.wikipedia.org/wiki/%E7%89%9F%E5%B2%90%E7%94%BA", "lat": 33.666056, "lon": 134.445194}, {"name_en": "ozushima", "name_island": "小津島", "url_island": "https://ja.wikipedia.org/wiki/%E5%B0%8F%E6%B4%A5%E5%B3%B6", "name_municipality": "牟岐町", "url_municipality": "https://ja.wikipedia.org/wiki/%E7%89%9F%E5%B2%90%E7%94%BA", "lat": 33.634306, "lon": 134.440639}, {"name_en": "kainage_jima", "name_island": "櫂投島", "url_island": "https://ja.wikipedia.org/wiki/%E6%AB%82%E6%8A%95%E5%B3%B6", "name_municipality": "牟岐町", "url_municipality": "https://ja.wikipedia.org/wiki/%E7%89%9F%E5%B2%90%E7%94%BA", "lat": 33.647944, "lon": 134.495194}, {"name_en": "kagamishima_tokushima", "name_island": "鏡島_徳島", "url_island": "https://ja.wikipedia.org/wiki/%E9%8F%A1%E5%B3%B6_(%E5%BE%B3%E5%B3%B6%E7%9C%8C)", "name_municipality": "鳴門市", "url_municipality": "https://ja.wikipedia.org/wiki/%E9%B3%B4%E9%96%80%E5%B8%82", "lat": 34.224944, "lon": 134.606111}, {"name_en": "kagori_jima", "name_island": "鹿子居島", "url_island": "https://ja.wikipedia.org/wiki/%E9%B9%BF%E5%AD%90%E5%B1%85%E5%B3%B6", "name_municipality": "海陽町", "url_municipality": "https://ja.wikipedia.org/wiki/%E6%B5%B7%E9%99%BD%E7%94%BA", "lat": 33.560472, "lon": 134.319083}, {"name_en": "kokatsu_jima", "name_island": "小勝島", "url_island": "https://ja.wikipedia.org/wiki/%E5%B0%8F%E5%8B%9D%E5%B3%B6", "name_municipality": "阿南市", "url_municipality": "https://ja.wikipedia.org/wiki/%E9%98%BF%E5%8D%97%E5%B8%82", "lat": 33.859167, "lon": 134.655833}, {"name_en": "kojima_tokushima", "name_island": "小島_徳島", "url_island": "https://ja.wikipedia.org/wiki/%E5%B0%8F%E5%B3%B6_(%E5%BE%B3%E5%B3%B6%E7%9C%8C)", "name_municipality": "海陽町", "url_municipality": "https://ja.wikipedia.org/wiki/%E6%B5%B7%E9%99%BD%E7%94%BA", "lat": 33.588889, "lon": 134.366944}, {"name_en": "kotatsumi_jima", "name_island": "小辰巳島", "url_island": "https://ja.wikipedia.org/wiki/%E5%B0%8F%E8%BE%B0%E5%B7%B3%E5%B3%B6", "name_municipality": "美波町", "url_municipality": "https://ja.wikipedia.org/wiki/%E7%BE%8E%E6%B3%A2%E7%94%BA", "lat": 33.735389, "lon": 134.569583}, {"name_en": "sabi_jima", "name_island": "サビ島", "url_island": "https://ja.wikipedia.org/wiki/%E3%82%B5%E3%83%93%E5%B3%B6", "name_municipality": "海陽町", "url_municipality": "https://ja.wikipedia.org/wiki/%E6%B5%B7%E9%99%BD%E7%94%BA", "lat": 33.558806, "lon": 134.318472}, {"name_en": "shimada_jima", "name_island": "島田島", "url_island": "https://ja.wikipedia.org/wiki/%E5%B3%B6%E7%94%B0%E5%B3%B6", "name_municipality": "鳴門市", "url_municipality": "https://ja.wikipedia.org/wiki/%E9%B3%B4%E9%96%80%E5%B8%82", "lat": 34.235833, "lon": 134.602778}, {"name_en": "takashima_tokushima", "name_island": "高島_徳島", "url_island": "https://ja.wikipedia.org/wiki/%E9%AB%98%E5%B3%B6_(%E5%BE%B3%E5%B3%B6%E7%9C%8C)", "name_municipality": "鳴門市", "url_municipality": "https://ja.wikipedia.org/wiki/%E9%B3%B4%E9%96%80%E5%B8%82", "lat": 34.205833, "lon": 134.599444}, {"name_en": "takashima_anan", "name_island": "高島_阿南", "url_island": "https://ja.wikipedia.org/wiki/%E9%AB%98%E5%B3%B6_(%E9%98%BF%E5%8D%97%E5%B8%82)", "name_municipality": "阿南市", "url_municipality": "https://ja.wikipedia.org/wiki/%E9%98%BF%E5%8D%97%E5%B8%82", "lat": 33.8625, "lon": 134.675278}, {"name_en": "takegashima_tokushima", "name_island": "竹ヶ島_徳島", "url_island": "https://ja.wikipedia.org/wiki/%E7%AB%B9%E3%83%B6%E5%B3%B6_(%E5%BE%B3%E5%B3%B6%E7%9C%8C)", "name_municipality": "海陽町", "url_municipality": "https://ja.wikipedia.org/wiki/%E6%B5%B7%E9%99%BD%E7%94%BA", "lat": 33.543417, "lon": 134.319722}, {"name_en": "tatsushima_tkushima", "name_island": "立島_徳島", "url_island": "https://ja.wikipedia.org/wiki/%E7%AB%8B%E5%B3%B6_(%E5%BE%B3%E5%B3%B6%E7%9C%8C)", "name_municipality": "美波町", "url_municipality": "https://ja.wikipedia.org/wiki/%E7%BE%8E%E6%B3%A2%E7%94%BA", "lat": 33.730861, "lon": 134.543611}, {"name_en": "tanago_jima", "name_island": "棚子島", "url_island": "https://ja.wikipedia.org/wiki/%E6%A3%9A%E5%AD%90%E5%B3%B6", "name_municipality": "阿南市", "url_municipality": "https://ja.wikipedia.org/wiki/%E9%98%BF%E5%8D%97%E5%B8%82", "lat": 33.846417, "lon": 134.797778}, {"name_en": "tsushima_tokushima", "name_island": "津島_徳島", "url_island": "https://ja.wikipedia.org/wiki/%E6%B4%A5%E5%B3%B6_(%E5%BE%B3%E5%B3%B6%E7%9C%8C)", "name_municipality": "牟岐町", "url_municipality": "https://ja.wikipedia.org/wiki/%E7%89%9F%E5%B2%90%E7%94%BA", "lat": 33.638056, "lon": 134.448611}, {"name_en": "teba_jima", "name_island": "出羽島", "url_island": "https://ja.wikipedia.org/wiki/%E5%87%BA%E7%BE%BD%E5%B3%B6", "name_municipality": "牟岐町", "url_municipality": "https://ja.wikipedia.org/wiki/%E7%89%9F%E5%B2%90%E7%94%BA", "lat": 33.631667, "lon": 134.424167}, {"name_en": "tobishima_anan", "name_island": "飛島_阿南", "url_island": "https://ja.wikipedia.org/wiki/%E9%A3%9B%E5%B3%B6_(%E5%BE%B3%E5%B3%B6%E7%9C%8C%E9%98%BF%E5%8D%97%E5%B8%82)", "name_municipality": "阿南市", "url_municipality": "https://ja.wikipedia.org/wiki/%E9%98%BF%E5%8D%97%E5%B8%82", "lat": 33.863, "lon": 134.716278}, {"name_en": "tobishima_naruto", "name_island": "飛島_鳴門", "url_island": "https://ja.wikipedia.org/wiki/%E9%A3%9B%E5%B3%B6_(%E5%BE%B3%E5%B3%B6%E7%9C%8C%E9%B3%B4%E9%96%80%E5%B8%82)", "name_municipality": "鳴門市", "url_municipality": "https://ja.wikipedia.org/wiki/%E9%B3%B4%E9%96%80%E5%B8%82", "lat": 34.231722, "lon": 134.648167}, {"name_en": "nagashima_tokushima", "name_island": "長島_徳島", "url_island": "https://ja.wikipedia.org/wiki/%E9%95%B7%E5%B3%B6_(%E5%BE%B3%E5%B3%B6%E7%9C%8C)", "name_municipality": "阿南市", "url_municipality": "https://ja.wikipedia.org/wiki/%E9%98%BF%E5%8D%97%E5%B8%82", "lat": 33.876667, "lon": 134.669167}, {"name_en": "nakatsushima", "name_island": "中津島", "url_island": "https://ja.wikipedia.org/wiki/%E4%B8%AD%E6%B4%A5%E5%B3%B6", "name_municipality": "阿南市", "url_municipality": "https://ja.wikipedia.org/wiki/%E9%98%BF%E5%8D%97%E5%B8%82", "lat": 33.918333, "lon": 134.721111}, {"name_en": "nunoshima", "name_island": "箆野島", "url_island": "https://ja.wikipedia.org/wiki/%E7%AE%86%E9%87%8E%E5%B3%B6", "name_municipality": "美波町", "url_municipality": "https://ja.wikipedia.org/wiki/%E7%BE%8E%E6%B3%A2%E7%94%BA", "lat": 33.761111, "lon": 134.591667}, {"name_en": "nonoshima_tokushima", "name_island": "野々島_徳島", "url_island": "https://ja.wikipedia.org/wiki/%E9%87%8E%E3%80%85%E5%B3%B6_(%E5%BE%B3%E5%B3%B6%E7%9C%8C)", "name_municipality": "阿南市", "url_municipality": "https://ja.wikipedia.org/wiki/%E9%98%BF%E5%8D%97%E5%B8%82", "lat": 33.854722, "lon": 134.711111}, {"name_en": "hadakajima_naruto", "name_island": "裸島_鳴門", "url_island": "https://ja.wikipedia.org/wiki/%E8%A3%B8%E5%B3%B6", "name_municipality": "鳴門市", "url_municipality": "https://ja.wikipedia.org/wiki/%E9%B3%B4%E9%96%80%E5%B8%82", "lat": 34.237167, "lon": 134.645194}, {"name_en": "hadakajima_anan", "name_island": "裸島_阿南", "url_island": "https://ja.wikipedia.org/wiki/%E8%A3%B8%E5%B3%B6_(%E9%98%BF%E5%8D%97%E5%B8%82)", "name_municipality": "阿南市", "url_municipality": "https://ja.wikipedia.org/wiki/%E9%98%BF%E5%8D%97%E5%B8%82", "lat": 33.8715, "lon": 134.716639}, {"name_en": "futago_jima", "name_island": "二子島", "url_island": "https://ja.wikipedia.org/wiki/%E4%BA%8C%E5%AD%90%E5%B3%B6", "name_municipality": "海陽町", "url_municipality": "https://ja.wikipedia.org/wiki/%E6%B5%B7%E9%99%BD%E7%94%BA", "lat": 33.540278, "lon": 134.314444}, {"name_en": "futagojima_tokushima", "name_island": "二子島_徳島", "url_island": "https://ja.wikipedia.org/wiki/%E4%BA%8C%E5%AD%90%E5%B3%B6_(%E5%BE%B3%E5%B3%B6%E7%9C%8C)", "name_municipality": "海陽町", "url_municipality": "https://ja.wikipedia.org/wiki/%E6%B5%B7%E9%99%BD%E7%94%BA", "lat": 33.583611, "lon": 134.335556}, {"name_en": "bentenjima_anan", "name_island": "弁天島_阿南", "url_island": "https://ja.wikipedia.org/wiki/%E5%BC%81%E5%A4%A9%E5%B3%B6_(%E9%98%BF%E5%8D%97%E5%B8%82)", "name_municipality": "阿南市", "url_municipality": "https://ja.wikipedia.org/wiki/%E9%98%BF%E5%8D%97%E5%B8%82", "lat": 33.872778, "lon": 134.658056}, {"name_en": "maikoshima", "name_island": "舞子島", "url_island": "https://ja.wikipedia.org/wiki/%E8%88%9E%E5%AD%90%E5%B3%B6", "name_municipality": "阿南市", "url_municipality": "https://ja.wikipedia.org/wiki/%E9%98%BF%E5%8D%97%E5%B8%82", "lat": 33.849167, "lon": 134.736667}, {"name_en": "maejima_tokushima", "name_island": "前島_徳島", "url_island": "https://ja.wikipedia.org/wiki/%E5%89%8D%E5%B3%B6_(%E5%BE%B3%E5%B3%B6%E7%9C%8C)", "name_municipality": "阿南市", "url_municipality": "https://ja.wikipedia.org/wiki/%E9%98%BF%E5%8D%97%E5%B8%82", "lat": 33.841111, "lon": 134.803333}, {"name_en": "marushima", "name_island": "丸島", "url_island": "https://ja.wikipedia.org/wiki/%E4%B8%B8%E5%B3%B6", "name_municipality": "阿南市", "url_municipality": "https://ja.wikipedia.org/wiki/%E9%98%BF%E5%8D%97%E5%B8%82", "lat": 33.911667, "lon": 134.7125}, {"name_en": "minamikojima_tokushima", "name_island": "南小島_徳島", "url_island": "https://ja.wikipedia.org/wiki/%E5%8D%97%E5%B0%8F%E5%B3%B6_(%E5%BE%B3%E5%B3%B6%E7%9C%8C)", "name_municipality": "牟岐町", "url_municipality": "https://ja.wikipedia.org/wiki/%E7%89%9F%E5%B2%90%E7%94%BA", "lat": 33.629361, "lon": 134.498028}, {"name_en": "yoshima_tokushima", "name_island": "四島_徳島", "url_island": "https://ja.wikipedia.org/wiki/%E5%9B%9B%E5%B3%B6_(%E5%BE%B3%E5%B3%B6%E7%9C%8C)", "name_municipality": "海陽町", "url_municipality": "https://ja.wikipedia.org/wiki/%E6%B5%B7%E9%99%BD%E7%94%BA", "lat": 33.557333, "lon": 134.319417}]}