{"title": "List of Islands in Wakayama", "title_ja": "和歌山県の島の一覧", "reference": "wikipedia: 和歌山県の島", "url_reference": "https://ja.wikipedia.org/wiki/Category:%E5%92%8C%E6%AD%8C%E5%B1%B1%E7%9C%8C%E3%81%AE%E5%B3%B6", "islands": [{"name_en": "okinoshima_wakayama", "name_island": "沖ノ島_和歌山", "url_island": "https://ja.wikipedia.org/wiki/%E6%B2%96%E3%83%8E%E5%B3%B6_(%E5%92%8C%E6%AD%8C%E5%B1%B1%E7%9C%8C%E5%92%8C%E6%AD%8C%E5%B1%B1%E5%B8%82)", "name_municipality": "和歌山市", "url_municipality": "https://ja.wikipedia.org/wiki/%E5%92%8C%E6%AD%8C%E5%B1%B1%E5%B8%82", "lat": 34.282222, "lon": 135.011944}, {"name_en": "okinoshima_2", "name_island": "沖ノ島_2", "url_island": "", "name_municipality": "和歌山市", "url_municipality": "https://ja.wikipedia.org/wiki/%E5%92%8C%E6%AD%8C%E5%B1%B1%E5%B8%82", "lat": 34.1128119, "lon": 135.079234}, {"name_en": "kii_ooshima", "name_island": "紀伊大島", "url_island": "https://ja.wikipedia.org/wiki/%E7%B4%80%E4%BC%8A%E5%A4%A7%E5%B3%B6", "name_municipality": "串本町", "url_municipality": "https://ja.wikipedia.org/wiki/%E4%B8%B2%E6%9C%AC%E7%94%BA", "lat": 33.468056, "lon": 135.828056}, {"name_en": "kuroshima", "name_island": "九龍島", "url_island": "https://ja.wikipedia.org/wiki/%E4%B9%9D%E9%BE%8D%E5%B3%B6%E3%81%A8%E9%AF%9B%E5%B3%B6", "name_municipality": "串本町", "url_municipality": "https://ja.wikipedia.org/wiki/%E4%B8%B2%E6%9C%AC%E7%94%BA", "lat": 33.504447, "lon": 135.825628}, {"name_en": "komariyama_jima", "name_island": "小鞠山島", "url_island": "https://ja.wikipedia.org/wiki/%E5%B0%8F%E9%9E%A0%E5%B1%B1%E5%B3%B6", "name_municipality": "白浜町", "url_municipality": "https://ja.wikipedia.org/wiki/%E7%99%BD%E6%B5%9C%E7%94%BA", "lat": 33.691389, "lon": 135.3725}, {"name_en": "jinoshima_walayama", "name_island": "地ノ島_和歌山", "url_island": "https://ja.wikipedia.org/wiki/%E5%9C%B0%E3%83%8E%E5%B3%B6_(%E5%92%8C%E6%AD%8C%E5%B1%B1%E7%9C%8C%E5%92%8C%E6%AD%8C%E5%B1%B1%E5%B8%82)", "name_municipality": "和歌山市", "url_municipality": "https://ja.wikipedia.org/wiki/%E5%92%8C%E6%AD%8C%E5%B1%B1%E5%B8%82", "lat": 34.295556, "lon": 135.045278}, {"name_en": "jinoshima_2", "name_island": "地ノ島_2", "url_island": "", "name_municipality": "和歌山市", "url_municipality": "https://ja.wikipedia.org/wiki/%E5%92%8C%E6%AD%8C%E5%B1%B1%E5%B8%82", "lat": 34.1121701, "lon": 135.0994334}, {"name_en": "sobieto_wakayama", "name_island": "ソビエト_和歌山", "url_island": "https://ja.wikipedia.org/wiki/%E3%82%BD%E3%83%93%E3%82%A8%E3%83%88_(%E5%92%8C%E6%AD%8C%E5%B1%B1%E7%9C%8C)", "name_municipality": "すさみ町", "url_municipality": "https://ja.wikipedia.org/wiki/%E3%81%99%E3%81%95%E3%81%BF%E7%94%BA", "lat": 33.508694, "lon": 135.552111}, {"name_en": "takashima_wakayama", "name_island": "高嶋_和歌山", "url_island": "https://ja.wikipedia.org/wiki/%E9%AB%98%E5%B6%8B_(%E5%92%8C%E6%AD%8C%E5%B1%B1%E7%9C%8C)", "name_municipality": "白浜町", "url_municipality": "https://ja.wikipedia.org/wiki/%E7%99%BD%E6%B5%9C%E7%94%BA", "lat": 33.689996, "lon": 135.336431}, {"name_en": "tomogashima", "name_island": "友ヶ島", "url_island": "https://ja.wikipedia.org/wiki/%E5%8F%8B%E3%83%B6%E5%B3%B6", "name_municipality": "和歌山市", "url_municipality": "https://ja.wikipedia.org/wiki/%E5%92%8C%E6%AD%8C%E5%B1%B1%E5%B8%82", "lat": 34.287222, "lon": 135.026667}, {"name_en": "nakanoshima_wakayama", "name_island": "中ノ島_和歌山", "url_island": "https://ja.wikipedia.org/wiki/%E4%B8%AD%E3%83%8E%E5%B3%B6_(%E5%92%8C%E6%AD%8C%E5%B1%B1%E7%9C%8C)", "name_municipality": "那智勝浦町", "url_municipality": "https://ja.wikipedia.org/wiki/%E9%82%A3%E6%99%BA%E5%8B%9D%E6%B5%A6%E7%94%BA", "lat": 33.62, "lon": 135.947222}, {"name_en": "bentenjima_nachikatsuura", "name_island": "弁天島_那智勝浦", "url_island": "https://ja.wikipedia.org/wiki/%E5%BC%81%E5%A4%A9%E5%B3%B6_(%E9%82%A3%E6%99%BA%E5%8B%9D%E6%B5%A6%E7%94%BA)", "name_municipality": "那智勝浦町", "url_municipality": "https://ja.wikipedia.org/wiki/%E9%82%A3%E6%99%BA%E5%8B%9D%E6%B5%A6%E7%94%BA", "lat": 33.6345, "lon": 135.948972}, {"name_en": "tsuya_jima", "name_island": "通夜島", "url_island": "", "name_municipality": "串本町", "url_municipality": "https://ja.wikipedia.org/wiki/%E4%B8%B2%E6%9C%AC%E7%94%BA", "lat": 33.449261, "lon": 135.816674}, {"name_en": "ari_jima", "name_island": "蟻島", "url_island": "", "name_municipality": "日高町_和歌山", "url_municipality": "https://ja.wikipedia.org/wiki/%E6%97%A5%E9%AB%98%E7%94%BA_(%E5%92%8C%E6%AD%8C%E5%B1%B1%E7%9C%8C)", "lat": 33.949081, "lon": 135.074068}, {"name_en": "kuroshima", "name_island": "黒島", "url_island": "", "name_municipality": "由良町", "url_municipality": "https://ja.wikipedia.org/wiki/%E7%94%B1%E8%89%AF%E7%94%BA", "lat": 34.004848, "lon": 135.09606}, {"name_en": "tsurushima", "name_island": "十九島", "url_island": "", "name_municipality": "由良町", "url_municipality": "https://ja.wikipedia.org/wiki/%E7%94%B1%E8%89%AF%E7%94%BA", "lat": 33.989324, "lon": 135.085968}, {"name_en": "takashima", "name_island": "鷹島", "url_island": "", "name_municipality": "広川町_和歌山", "url_municipality": "https://ja.wikipedia.org/wiki/%E5%BA%83%E5%B7%9D%E7%94%BA_(%E5%92%8C%E6%AD%8C%E5%B1%B1%E7%9C%8C)", "lat": 34.017554, "lon": 135.122869}, {"name_en": "tomogashima", "name_island": "友ヶ島", "url_island": "https://ja.wikipedia.org/wiki/%E5%8F%8B%E3%83%B6%E5%B3%B6", "name_municipality": "和歌山県", "url_municipality": "https://ja.wikipedia.org/wiki/%E5%92%8C%E6%AD%8C%E5%B1%B1%E7%9C%8C", "lat": 34.2830085, "lon": 135.0115644}]}