{"title": "List of Islands in Okayama", "title_ja": "岡山県の島の一覧", "reference": "wikipedia: 岡山県の島", "url_reference": "https://ja.wikipedia.org/wiki/Category:%E5%B2%A1%E5%B1%B1%E7%9C%8C%E3%81%AE%E5%B3%B6", "islands": [{"name_en": "ishima", "name_island": "石島", "url_island": "https://ja.wikipedia.org/wiki/%E4%BA%95%E5%B3%B6", "name_municipality": "玉野市", "url_municipality": "https://ja.wikipedia.org/wiki/%E7%8E%89%E9%87%8E%E5%B8%82", "lat": 34.5011568, "lon": 134.01543}, {"name_en": "inu_jima", "name_island": "犬島", "url_island": "https://ja.wikipedia.org/wiki/%E7%8A%AC%E5%B3%B6", "name_municipality": "岡山市", "url_municipality": "https://ja.wikipedia.org/wiki/%E5%B2%A1%E5%B1%B1%E5%B8%82'", "lat": 34.562694, "lon": 134.101778}, {"name_en": "oozuchi_jima", "name_island": "大槌島", "url_island": "https://ja.wikipedia.org/wiki/%E5%A4%A7%E6%A7%8C%E5%B3%B6", "name_municipality": "玉野市", "url_municipality": "https://ja.wikipedia.org/wiki/%E7%8E%89%E9%87%8E%E5%B8%82", "lat": 34.418907, "lon": 133.92266}, {"name_en": "kamashima", "name_island": "釜島", "url_island": "https://ja.wikipedia.org/wiki/%E9%87%9C%E5%B3%B6", "name_municipality": "倉敷市", "url_municipality": "https://ja.wikipedia.org/wiki/%E5%80%89%E6%95%B7%E5%B8%82", "lat": 34.4215135, "lon": 133.8315528}, {"name_en": "kamimizushima", "name_island": "上水島", "url_island": "https://ja.wikipedia.org/wiki/%E6%B0%B4%E5%B3%B6%E8%AB%B8%E5%B3%B6#%E6%B0%B4%E5%B3%B6%E7%BE%A4%E5%B3%B6", "name_municipality": "倉敷市", "url_municipality": "https://ja.wikipedia.org/wiki/%E5%80%89%E6%95%B7%E5%B8%82", "lat": 34.4632613, "lon": 133.712248}, {"name_en": "shimomzushima", "name_island": "下水島", "url_island": "https://ja.wikipedia.org/wiki/%E6%B0%B4%E5%B3%B6%E8%AB%B8%E5%B3%B6#%E6%B0%B4%E5%B3%B6%E7%BE%A4%E5%B3%B6", "name_municipality": "倉敷市", "url_municipality": "https://ja.wikipedia.org/wiki/%E5%80%89%E6%95%B7%E5%B8%82", "lat": 34.462222, "lon": 133.690833}, {"name_en": "kijima_okayama", "name_island": "黄島_岡山", "url_island": "https://ja.wikipedia.org/wiki/%E9%BB%84%E5%B3%B6_(%E5%B2%A1%E5%B1%B1%E7%9C%8C)", "name_municipality": "瀬戸内市", "url_municipality": "https://ja.wikipedia.org/wiki/%E7%80%AC%E6%88%B8%E5%86%85%E5%B8%82", "lat": 34.5984715, "lon": 134.194947}, {"name_en": "kuroshima_okayama", "name_island": "黒島 _岡山", "url_island": "https://ja.wikipedia.org/wiki/%E9%BB%92%E5%B3%B6_(%E5%B2%A1%E5%B1%B1%E7%9C%8C)", "name_municipality": "瀬戸内市", "url_municipality": "https://ja.wikipedia.org/wiki/%E7%80%AC%E6%88%B8%E5%86%85%E5%B8%82", "lat": 34.598611, "lon": 134.160278}, {"name_en": "shiraishi_jima_2", "name_island": "白石島_2", "url_island": "", "name_municipality": "笠岡市", "url_municipality": "https://ja.wikipedia.org/wiki/%E7%AC%A0%E5%B2%A1%E5%B8%82", "lat": 34.3735885, "lon": 133.5855455}, {"name_en": "takashima_okayama", "name_island": "高島_岡山", "url_island": "https://ja.wikipedia.org/wiki/%E9%AB%98%E5%B3%B6_(%E5%B2%A1%E5%B1%B1%E5%B8%82%E5%8D%97%E5%8C%BA)", "name_municipality": "岡山市", "url_municipality": "https://ja.wikipedia.org/wiki/%E5%B2%A1%E5%B1%B1%E5%B8%82'", "lat": 34.603028, "lon": 133.989556}, {"name_en": "nagashima_2", "name_island": "長島_2", "url_island": "", "name_municipality": "瀬戸内市", "url_municipality": "https://ja.wikipedia.org/wiki/%E7%80%AC%E6%88%B8%E5%86%85%E5%B8%82", "lat": 34.681685, "lon": 134.258895}, {"name_en": "maejima_okayama", "name_island": "前島_岡山", "url_island": "https://ja.wikipedia.org/wiki/%E5%89%8D%E5%B3%B6_(%E5%B2%A1%E5%B1%B1%E7%9C%8C)", "name_municipality": "瀬戸内市", "url_municipality": "https://ja.wikipedia.org/wiki/%E7%80%AC%E6%88%B8%E5%86%85%E5%B8%82", "lat": 34.608611, "lon": 134.183333}, {"name_en": "maejima_2", "name_island": "前島_2", "url_island": "", "name_municipality": "備前市", "url_municipality": "https://ja.wikipedia.org/wiki/%E5%82%99%E5%89%8D%E5%B8%82", "lat": 34.7224429, "lon": 134.213712}, {"name_en": "matsushima_okayama", "name_island": "松島_岡山", "url_island": "https://ja.wikipedia.org/wiki/%E6%9D%BE%E5%B3%B6_(%E5%B2%A1%E5%B1%B1%E7%9C%8C)", "name_municipality": "倉敷市", "url_municipality": "https://ja.wikipedia.org/wiki/%E5%80%89%E6%95%B7%E5%B8%82", "lat": 34.425278, "lon": 133.8175}, {"name_en": "muguchi_jima", "name_island": "六口島", "url_island": "https://ja.wikipedia.org/wiki/%E5%85%AD%E5%8F%A3%E5%B3%B6", "name_municipality": "倉敷市", "url_municipality": "https://ja.wikipedia.org/wiki/%E5%80%89%E6%95%B7%E5%B8%82", "lat": 34.423333, "lon": 133.767222}, {"name_en": "kijima", "name_island": "木島", "url_island": "", "name_municipality": "瀬戸内市", "url_municipality": "https://ja.wikipedia.org/wiki/%E7%80%AC%E6%88%B8%E5%86%85%E5%B8%82", "lat": 34.6655267, "lon": 134.2139461}, {"name_en": "aoshima", "name_island": "青嶋", "url_island": "", "name_municipality": "瀬戸内市", "url_municipality": "https://ja.wikipedia.org/wiki/%E7%80%AC%E6%88%B8%E5%86%85%E5%B8%82", "lat": 34.6101577, "lon": 134.2056747}, {"name_en": "kashiba_jima", "name_island": "樫場島", "url_island": "", "name_municipality": "倉敷市", "url_municipality": "https://ja.wikipedia.org/wiki/%E5%80%89%E6%95%B7%E5%B8%82", "lat": 34.447827, "lon": 133.8530128}, {"name_en": "ooshima_kasaoka", "name_island": "大島_笠岡", "url_island": "", "name_municipality": "笠岡市", "url_municipality": "https://ja.wikipedia.org/wiki/%E7%AC%A0%E5%B2%A1%E5%B8%82", "lat": 34.3793635, "lon": 133.585171}, {"name_en": "kajiko_jima", "name_island": "梶子島", "url_island": "", "name_municipality": "笠岡市", "url_municipality": "https://ja.wikipedia.org/wiki/%E7%AC%A0%E5%B2%A1%E5%B8%82", "lat": 34.3832019, "lon": 133.4978708}, {"name_en": "myuoji_jima", "name_island": "明地島", "url_island": "https://ja.wikipedia.org/wiki/%E7%AC%A0%E5%B2%A1%E8%AB%B8%E5%B3%B6", "name_municipality": "笠岡市", "url_municipality": "https://ja.wikipedia.org/wiki/%E7%AC%A0%E5%B2%A1%E5%B8%82", "lat": 34.433351, "lon": 133.4984019}, {"name_en": "kotakashima", "name_island": "小高島", "url_island": "", "name_municipality": "笠岡市", "url_municipality": "https://ja.wikipedia.org/wiki/%E7%AC%A0%E5%B2%A1%E5%B8%82", "lat": 34.4230571, "lon": 133.5136812}, {"name_en": "ootabu_jima", "name_island": "大多府島", "url_island": "https://ja.wikipedia.org/wiki/%E5%A4%A7%E5%A4%9A%E5%BA%9C%E5%B3%B6", "name_municipality": "備前市", "url_municipality": "https://ja.wikipedia.org/wiki/%E5%82%99%E5%89%8D%E5%B8%82", "lat": 34.682694, "lon": 134.296611}, {"name_en": "kakui_jima", "name_island": "鹿久居島", "url_island": "https://ja.wikipedia.org/wiki/%E9%B9%BF%E4%B9%85%E5%B1%85%E5%B3%B6", "name_municipality": "備前市", "url_municipality": "https://ja.wikipedia.org/wiki/%E5%82%99%E5%89%8D%E5%B8%82", "lat": 34.719306, "lon": 134.30475}, {"name_en": "kashira_jima", "name_island": "頭島", "url_island": "https://ja.wikipedia.org/wiki/%E9%A0%AD%E5%B3%B6", "name_municipality": "備前市", "url_municipality": "https://ja.wikipedia.org/wiki/%E5%82%99%E5%89%8D%E5%B8%82", "lat": 34.700826, "lon": 134.286842}, {"name_en": "kubikiri_jima", "name_island": "首切島", "url_island": "https://ja.wikipedia.org/wiki/%E9%A6%96%E5%88%87%E5%B3%B6", "name_municipality": "備前市", "url_municipality": "https://ja.wikipedia.org/wiki/%E5%82%99%E5%89%8D%E5%B8%82", "lat": 34.704167, "lon": 134.310278}, {"name_en": "koujima", "name_island": "鴻島", "url_island": "https://ja.wikipedia.org/wiki/%E9%B4%BB%E5%B3%B6", "name_municipality": "備前市", "url_municipality": "https://ja.wikipedia.org/wiki/%E5%82%99%E5%89%8D%E5%B8%82", "lat": 34.699278, "lon": 134.257556}, {"name_en": "soshima", "name_island": "曽島", "url_island": "https://ja.wikipedia.org/wiki/%E6%9B%BD%E5%B3%B6", "name_municipality": "備前市", "url_municipality": "https://ja.wikipedia.org/wiki/%E5%82%99%E5%89%8D%E5%B8%82", "lat": 34.711111, "lon": 134.258333}, {"name_en": "tsurushima", "name_island": "鶴島", "url_island": "https://ja.wikipedia.org/wiki/%E9%B6%B4%E5%B3%B6", "name_municipality": "備前市", "url_municipality": "https://ja.wikipedia.org/wiki/%E5%82%99%E5%89%8D%E5%B8%82", "lat": 34.69567, "lon": 134.321199}, {"name_en": "toriage_jima", "name_island": "取揚島", "url_island": "https://ja.wikipedia.org/wiki/%E5%8F%96%E6%8F%9A%E5%B3%B6", "name_municipality": "赤穂市", "url_municipality": "https://ja.wikipedia.org/wiki/%E8%B5%A4%E7%A9%82%E5%B8%82", "lat": 34.719917, "lon": 134.38175}, {"name_en": "nagashima_okayama", "name_island": "長島_岡山", "url_island": "https://ja.wikipedia.org/wiki/%E9%95%B7%E5%B3%B6_(%E5%B2%A1%E5%B1%B1%E7%9C%8C)", "name_municipality": "瀬戸内市", "url_municipality": "https://ja.wikipedia.org/wiki/%E7%80%AC%E6%88%B8%E5%86%85%E5%B8%82", "lat": 34.675388, "lon": 134.242195}, {"name_en": "oobishima", "name_island": "大飛島", "url_island": "https://ja.wikipedia.org/wiki/%E5%A4%A7%E9%A3%9B%E5%B3%B6", "name_municipality": "笠岡市", "url_municipality": "https://ja.wikipedia.org/wiki/%E7%AC%A0%E5%B2%A1%E5%B8%82", "lat": 34.341667, "lon": 133.5025}, {"name_en": "kobishima", "name_island": "小飛島", "url_island": "https://ja.wikipedia.org/wiki/%E5%B0%8F%E9%A3%9B%E5%B3%B6", "name_municipality": "笠岡市", "url_municipality": "https://ja.wikipedia.org/wiki/%E7%AC%A0%E5%B2%A1%E5%B8%82", "lat": 34.346944, "lon": 133.521111}, {"name_en": "kitagishima", "name_island": "北木島", "url_island": "https://ja.wikipedia.org/wiki/%E5%8C%97%E6%9C%A8%E5%B3%B6", "name_municipality": "笠岡市", "url_municipality": "https://ja.wikipedia.org/wiki/%E7%AC%A0%E5%B2%A1%E5%B8%82", "lat": 34.381944, "lon": 133.536389}, {"name_en": "shiraishi_jima", "name_island": "白石島", "url_island": "https://ja.wikipedia.org/wiki/%E7%99%BD%E7%9F%B3%E5%B3%B6", "name_municipality": "笠岡市", "url_municipality": "https://ja.wikipedia.org/wiki/%E7%AC%A0%E5%B2%A1%E5%B8%82", "lat": 34.402331, "lon": 133.515947}, {"name_en": "takashima_kasaoka", "name_island": "高島_笠岡", "url_island": "https://ja.wikipedia.org/wiki/%E9%AB%98%E5%B3%B6_(%E5%B2%A1%E5%B1%B1%E7%9C%8C%E7%AC%A0%E5%B2%A1%E5%B8%82)", "name_municipality": "笠岡市", "url_municipality": "https://ja.wikipedia.org/wiki/%E7%AC%A0%E5%B2%A1%E5%B8%82", "lat": 34.428917, "lon": 133.508083}, {"name_en": "manabeshima", "name_island": "真鍋島", "url_island": "https://ja.wikipedia.org/wiki/%E7%9C%9F%E9%8D%8B%E5%B3%B6", "name_municipality": "笠岡市", "url_municipality": "https://ja.wikipedia.org/wiki/%E7%AC%A0%E5%B2%A1%E5%B8%82", "lat": 34.353889, "lon": 133.577778}, {"name_en": "mushima_okayama", "name_island": "六島_岡山", "url_island": "https://ja.wikipedia.org/wiki/%E5%85%AD%E5%B3%B6_(%E5%B2%A1%E5%B1%B1%E7%9C%8C)", "name_municipality": "笠岡市", "url_municipality": "https://ja.wikipedia.org/wiki/%E7%AC%A0%E5%B2%A1%E5%B8%82", "lat": 34.303667, "lon": 133.532111}]}