{"title": "List of Islands in Aichi", "title_ja": "愛知県の島の一覧", "reference": "wikipedia: 愛知県の島", "url_reference": "https://ja.wikipedia.org/wiki/Category:%E6%84%9B%E7%9F%A5%E7%9C%8C%E3%81%AE%E5%B3%B6", "islands": [{"name_en": "okishima_aichi", "name_island": "沖島_愛知", "url_island": "https://ja.wikipedia.org/wiki/%E6%B2%96%E5%B3%B6_(%E6%84%9B%E7%9F%A5%E7%9C%8C)", "name_municipality": "西尾市", "url_municipality": "https://ja.wikipedia.org/wiki/%E8%A5%BF%E5%B0%BE%E5%B8%82", "lat": 34.771389, "lon": 137.145833}, {"name_en": "kajishima", "name_island": "梶島", "url_island": "https://ja.wikipedia.org/wiki/%E6%A2%B6%E5%B3%B6", "name_municipality": "西尾市", "url_municipality": "https://ja.wikipedia.org/wiki/%E8%A5%BF%E5%B0%BE%E5%B8%82", "lat": 34.767422, "lon": 137.100492}, {"name_en": "sakushima", "name_island": "佐久島", "url_island": "https://ja.wikipedia.org/wiki/%E4%BD%90%E4%B9%85%E5%B3%B6", "name_municipality": "西尾市", "url_municipality": "https://ja.wikipedia.org/wiki/%E8%A5%BF%E5%B0%BE%E5%B8%82", "lat": 34.729167, "lon": 137.041667}, {"name_en": "shino_jima", "name_island": "篠島", "url_island": "https://ja.wikipedia.org/wiki/%E7%AF%A0%E5%B3%B6", "name_municipality": "南知多町", "url_municipality": "https://ja.wikipedia.org/wiki/%E5%8D%97%E7%9F%A5%E5%A4%9A%E7%94%BA", "lat": 34.676389, "lon": 137.003056}, {"name_en": "takeshima_aichi", "name_island": "竹島_愛知", "url_island": "https://ja.wikipedia.org/wiki/%E7%AB%B9%E5%B3%B6_(%E6%84%9B%E7%9F%A5%E7%9C%8C)", "name_municipality": "蒲郡市", "url_municipality": "https://ja.wikipedia.org/wiki/%E8%92%B2%E9%83%A1%E5%B8%82", "lat": 34.811111, "lon": 137.231667}, {"name_en": "hiinosekimon", "name_island": "日出の石門", "url_island": "https://ja.wikipedia.org/wiki/%E6%97%A5%E5%87%BA%E3%81%AE%E7%9F%B3%E9%96%80", "name_municipality": "田原市", "url_municipality": "https://ja.wikipedia.org/wiki/%E7%94%B0%E5%8E%9F%E5%B8%82", "lat": 34.577417, "lon": 137.038694}, {"name_en": "himaka_jima", "name_island": "日間賀島", "url_island": "https://ja.wikipedia.org/wiki/%E6%97%A5%E9%96%93%E8%B3%80%E5%B3%B6", "name_municipality": "南知多町", "url_municipality": "https://ja.wikipedia.org/wiki/%E5%8D%97%E7%9F%A5%E5%A4%9A%E7%94%BA", "lat": 34.705, "lon": 137.005}, {"name_en": "himeshima_aichi", "name_island": "姫島_愛知", "url_island": "https://ja.wikipedia.org/wiki/%E5%A7%AB%E5%B3%B6_(%E6%84%9B%E7%9F%A5%E7%9C%8C%E7%94%B0%E5%8E%9F%E5%B8%82)", "name_municipality": "田原市", "url_municipality": "https://ja.wikipedia.org/wiki/%E7%94%B0%E5%8E%9F%E5%B8%82", "lat": 34.712252, "lon": 137.249445}, {"name_en": "mawshima_aichi", "name_island": "前島_愛知", "url_island": "https://ja.wikipedia.org/wiki/%E5%89%8D%E5%B3%B6_(%E6%84%9B%E7%9F%A5%E7%9C%8C)", "name_municipality": "西尾市", "url_municipality": "https://ja.wikipedia.org/wiki/%E8%A5%BF%E5%B0%BE%E5%B8%82", "lat": 34.778972, "lon": 137.145}, {"name_en": "mikawa_ooshima", "name_island": "三河大島", "url_island": "https://ja.wikipedia.org/wiki/%E4%B8%89%E6%B2%B3%E5%A4%A7%E5%B3%B6", "name_municipality": "蒲郡市", "url_municipality": "https://ja.wikipedia.org/wiki/%E8%92%B2%E9%83%A1%E5%B8%82", "lat": 34.788333, "lon": 137.233056}]}