{"title": "List of Islands of Yaeyama", "title_ja": "八重山諸島の島の一覧", "reference": "wikipedia: 八重山諸島", "url_reference": "https://ja.wikipedia.org/wiki/Category:%E5%85%AB%E9%87%8D%E5%B1%B1%E8%AB%B8%E5%B3%B6", "islands": [{"name_en": "akabanare_jima", "name_island": "赤離島", "url_island": "https://ja.wikipedia.org/wiki/%E8%B5%A4%E9%9B%A2%E5%B3%B6", "name_municipality": "竹富町", "url_municipality": "https://ja.wikipedia.org/wiki/%E7%AB%B9%E5%AF%8C%E7%94%BA", "lat": 24.405278, "lon": 123.868056}, {"name_en": "aragusuku_jima", "name_island": "新城島", "url_island": "https://ja.wikipedia.org/wiki/%E6%96%B0%E5%9F%8E%E5%B3%B6", "name_municipality": "竹富町", "url_municipality": "https://ja.wikipedia.org/wiki/%E7%AB%B9%E5%AF%8C%E7%94%BA", "lat": 24.233889, "lon": 123.944444}, {"name_en": "ishigaki_jima", "name_island": "石垣島", "url_island": "https://ja.wikipedia.org/wiki/%E7%9F%B3%E5%9E%A3%E5%B3%B6", "name_municipality": "石垣市", "url_municipality": "https://ja.wikipedia.org/wiki/%E7%9F%B3%E5%9E%A3%E5%B8%82", "lat": 24.432764, "lon": 124.205327}, {"name_en": "iriomote_jima", "name_island": "西表島", "url_island": "https://ja.wikipedia.org/wiki/%E8%A5%BF%E8%A1%A8%E5%B3%B6", "name_municipality": "竹富町", "url_municipality": "https://ja.wikipedia.org/wiki/%E7%AB%B9%E5%AF%8C%E7%94%BA", "lat": 24.2925, "lon": 123.861944}, {"name_en": "uchibanare_jima", "name_island": "内離島", "url_island": "https://ja.wikipedia.org/wiki/%E5%86%85%E9%9B%A2%E5%B3%B6", "name_municipality": "竹富町", "url_municipality": "https://ja.wikipedia.org/wiki/%E7%AB%B9%E5%AF%8C%E7%94%BA", "lat": 24.350833, "lon": 123.735}, {"name_en": "ubanare_jima", "name_island": "ウ離島", "url_island": "https://ja.wikipedia.org/wiki/%E3%82%A6%E9%9B%A2%E5%B3%B6", "name_municipality": "竹富町", "url_municipality": "https://ja.wikipedia.org/wiki/%E7%AB%B9%E5%AF%8C%E7%94%BA", "lat": 24.366944, "lon": 123.942778}, {"name_en": "kabirawan_kojima", "name_island": "川平湾小島", "url_island": "https://ja.wikipedia.org/wiki/%E5%B7%9D%E5%B9%B3%E6%B9%BE%E5%B0%8F%E5%B3%B6", "name_municipality": "石垣市", "url_municipality": "https://ja.wikipedia.org/wiki/%E7%9F%B3%E5%9E%A3%E5%B8%82", "lat": 24.457778, "lon": 124.149167}, {"name_en": "kayama_jima", "name_island": "嘉弥真島", "url_island": "https://ja.wikipedia.org/wiki/%E5%98%89%E5%BC%A5%E7%9C%9F%E5%B3%B6", "name_municipality": "竹富町", "url_municipality": "https://ja.wikipedia.org/wiki/%E7%AB%B9%E5%AF%8C%E7%94%BA", "lat": 24.363333, "lon": 123.999444}, {"name_en": "kuroshima_taketomi", "name_island": "黒島_竹富", "url_island": "https://ja.wikipedia.org/wiki/%E9%BB%92%E5%B3%B6_(%E6%B2%96%E7%B8%84%E7%9C%8C%E7%AB%B9%E5%AF%8C%E7%94%BA)", "name_municipality": "竹富町", "url_municipality": "https://ja.wikipedia.org/wiki/%E7%AB%B9%E5%AF%8C%E7%94%BA", "lat": 24.239444, "lon": 124.014722}, {"name_en": "kohama_jima", "name_island": "小浜島", "url_island": "https://ja.wikipedia.org/wiki/%E5%B0%8F%E6%B5%9C%E5%B3%B6", "name_municipality": "竹富町", "url_municipality": "https://ja.wikipedia.org/wiki/%E7%AB%B9%E5%AF%8C%E7%94%BA", "lat": 24.341111, "lon": 123.980833}, {"name_en": "sotobanare_jima", "name_island": "外離島", "url_island": "https://ja.wikipedia.org/wiki/%E5%A4%96%E9%9B%A2%E5%B3%B6", "name_municipality": "竹富町", "url_municipality": "https://ja.wikipedia.org/wiki/%E7%AB%B9%E5%AF%8C%E7%94%BA", "lat": 24.369722, "lon": 123.718333}, {"name_en": "sonaichizaki", "name_island": "祖納地崎", "url_island": "https://ja.wikipedia.org/wiki/%E7%A5%96%E7%B4%8D%E5%9C%B0%E5%B4%8E", "name_municipality": "与那国町", "url_municipality": "https://ja.wikipedia.org/wiki/%E4%B8%8E%E9%82%A3%E5%9B%BD%E7%94%BA", "lat": 24.472361, "lon": 123.002083}, {"name_en": "daichibanari_jima", "name_island": "大地離島", "url_island": "https://ja.wikipedia.org/wiki/%E5%A4%A7%E5%9C%B0%E9%9B%A2%E5%B3%B6", "name_municipality": "石垣市", "url_municipality": "https://ja.wikipedia.org/wiki/%E7%9F%B3%E5%9E%A3%E5%B8%82", "lat": 24.617222, "lon": 124.3175}, {"name_en": "taketomi_jima", "name_island": "竹富島", "url_island": "https://ja.wikipedia.org/wiki/%E7%AB%B9%E5%AF%8C%E5%B3%B6", "name_municipality": "竹富町", "url_municipality": "https://ja.wikipedia.org/wiki/%E7%AB%B9%E5%AF%8C%E7%94%BA", "lat": 24.329722, "lon": 124.086667}, {"name_en": "tuishi", "name_island": "トゥイシ", "url_island": "https://ja.wikipedia.org/wiki/%E3%83%88%E3%82%A5%E3%82%A4%E3%82%B7", "name_municipality": "与那国町", "url_municipality": "https://ja.wikipedia.org/wiki/%E4%B8%8E%E9%82%A3%E5%9B%BD%E7%94%BA", "lat": 24.451389, "lon": 122.9325}, {"name_en": "nakanokamishima", "name_island": "仲の神島", "url_island": "https://ja.wikipedia.org/wiki/%E4%BB%B2%E3%81%AE%E7%A5%9E%E5%B3%B6", "name_municipality": "竹富町", "url_municipality": "https://ja.wikipedia.org/wiki/%E7%AB%B9%E5%AF%8C%E7%94%BA", "lat": 24.195, "lon": 123.563889}, {"name_en": "hateruma_jima", "name_island": "波照間島", "url_island": "https://ja.wikipedia.org/wiki/%E6%B3%A2%E7%85%A7%E9%96%93%E5%B3%B6", "name_municipality": "竹富町", "url_municipality": "https://ja.wikipedia.org/wiki/%E7%AB%B9%E5%AF%8C%E7%94%BA", "lat": 24.059167, "lon": 123.7825}, {"name_en": "hatopanari_jima", "name_island": "鳩離島", "url_island": "https://ja.wikipedia.org/wiki/%E9%B3%A9%E9%9B%A2%E5%B3%B6", "name_municipality": "竹富町", "url_municipality": "https://ja.wikipedia.org/wiki/%E7%AB%B9%E5%AF%8C%E7%94%BA", "lat": 24.419056, "lon": 123.821111}, {"name_en": "hatoma_jima", "name_island": "鳩間島", "url_island": "https://ja.wikipedia.org/wiki/%E9%B3%A9%E9%96%93%E5%B3%B6", "name_municipality": "竹富町", "url_municipality": "https://ja.wikipedia.org/wiki/%E7%AB%B9%E5%AF%8C%E7%94%BA", "lat": 24.472778, "lon": 123.82}, {"name_en": "hamajima_okinawa", "name_island": "浜島_沖縄", "url_island": "https://ja.wikipedia.org/wiki/%E6%B5%9C%E5%B3%B6_(%E6%B2%96%E7%B8%84%E7%9C%8C)", "name_municipality": "竹富町", "url_municipality": "https://ja.wikipedia.org/wiki/%E7%AB%B9%E5%AF%8C%E7%94%BA", "lat": 24.356306, "lon": 124.039333}, {"name_en": "pini_jima", "name_island": "平西島", "url_island": "https://ja.wikipedia.org/wiki/%E5%B9%B3%E8%A5%BF%E5%B3%B6", "name_municipality": "竹富町", "url_municipality": "https://ja.wikipedia.org/wiki/%E7%AB%B9%E5%AF%8C%E7%94%BA", "lat": 24.322778, "lon": 123.915}, {"name_en": "hirabanari_jima", "name_island": "平離島", "url_island": "https://ja.wikipedia.org/wiki/%E5%B9%B3%E9%9B%A2%E5%B3%B6", "name_municipality": "石垣市", "url_municipality": "https://ja.wikipedia.org/wiki/%E7%9F%B3%E5%9E%A3%E5%B8%82", "lat": 24.484444, "lon": 124.116111}, {"name_en": "majipanari", "name_island": "マジパナリ", "url_island": "https://ja.wikipedia.org/wiki/%E3%83%9E%E3%82%B8%E3%83%91%E3%83%8A%E3%83%AA", "name_municipality": "石垣市", "url_municipality": "https://ja.wikipedia.org/wiki/%E7%9F%B3%E5%9E%A3%E5%B8%82", "lat": 24.463889, "lon": 124.146667}, {"name_en": "yubu_jima", "name_island": "由布島", "url_island": "https://ja.wikipedia.org/wiki/%E7%94%B1%E5%B8%83%E5%B3%B6", "name_municipality": "竹富町", "url_municipality": "https://ja.wikipedia.org/wiki/%E7%AB%B9%E5%AF%8C%E7%94%BA", "lat": 24.342778, "lon": 123.933611}, {"name_en": "yonsguri_jima", "name_island": "与那国島", "url_island": "https://ja.wikipedia.org/wiki/%E4%B8%8E%E9%82%A3%E5%9B%BD%E5%B3%B6", "name_municipality": "与那国町", "url_municipality": "https://ja.wikipedia.org/wiki/%E4%B8%8E%E9%82%A3%E5%9B%BD%E7%94%BA", "lat": 24.468333, "lon": 123.004722}]}