{"title": "List of Japan Prefectures GeoJson", "title_ja": "都道府県の GeoJson の一覧", "reference": "47都道府県のポリゴンデータ", "url_reference": "https://japonyol.net/editor/article/47-prefectures-geojson.html", "url_base": " https://github.com/ohwada/World_Countries/blob/main/geojson/japan_prefectures/geojson/", "url_raw_base": "https://raw.githubusercontent.com/ohwada/World_Countries/main/geojson/japan_prefectures/geojson/", "prefectures": [{"code": "01", "name_en": "hokkaido", "name_ja": "北海道", "lat": 43.064333, "lon": 141.346889, "filename": "hokkaido.geojson"}, {"code": "02", "name_en": "aomori", "name_ja": "青森県", "lat": 40.82461, "lon": 140.74056, "filename": "aomori.geojson"}, {"code": "03", "name_en": "iwate", "name_ja": "岩手県", "lat": 39.7035, "lon": 141.15272, "filename": "iwate.geojson"}, {"code": "04", "name_en": "miyagi", "name_ja": "宮城県", "lat": 38.26858, "lon": 140.87203, "filename": "miyagi.geojson"}, {"code": "05", "name_en": "akita", "name_ja": "秋田県", "lat": 39.7186, "lon": 140.1025, "filename": "akita.geojson"}, {"code": "06", "name_en": "yamagata", "name_ja": "山形県", "lat": 38.24044, "lon": 140.36356, "filename": "yamagata.geojson"}, {"code": "07", "name_en": "fukushima", "name_ja": "福島県", "lat": 37.75028, "lon": 140.46775, "filename": "fukushima.geojson"}, {"code": "08", "name_en": "ibaraki", "name_ja": "茨城県", "lat": 36.34172, "lon": 140.44683, "filename": "ibaraki.geojson"}, {"code": "09", "name_en": "tochigi", "name_ja": "栃木県", "lat": 36.56556, "lon": 139.88353, "filename": "tochigi.geojson"}, {"code": "10", "name_en": "gunma", "name_ja": "群馬県", "lat": 36.39067, "lon": 139.06044, "filename": "gunma.geojson"}, {"code": "11", "name_en": "saitama", "name_ja": "埼玉県", "lat": 35.85717, "lon": 139.64919, "filename": "saitama.geojson"}, {"code": "12", "name_en": "chiba", "name_ja": "千葉県", "lat": 35.60458, "lon": 140.12319, "filename": "chiba.geojson"}, {"code": "13", "name_en": "tokyo", "name_ja": "東京都", "lat": 35.6894, "lon": 139.6917, "filename": "tokyo.geojson"}, {"code": "14", "name_en": "kanagawa", "name_ja": "神奈川県", "lat": 35.44775, "lon": 139.64253, "filename": "kanagawa.geojson"}, {"code": "15", "name_en": "niigata", "name_ja": "新潟県", "lat": 37.90247, "lon": 139.02317, "filename": "niigata.geojson"}, {"code": "16", "name_en": "toyama", "name_ja": "富山県", "lat": 36.69531, "lon": 137.21131, "filename": "toyama.geojson"}, {"code": "17", "name_en": "ishikawa", "name_ja": "石川県", "lat": 36.59461, "lon": 136.62564, "filename": "ishikawa.geojson"}, {"code": "18", "name_en": "fukui", "name_ja": "福井県", "lat": 36.06519, "lon": 136.22167, "filename": "fukui.geojson"}, {"code": "19", "name_en": "yamanashi", "name_ja": "山梨県", "lat": 35.66414, "lon": 138.56842, "filename": "yamanashi.geojson"}, {"code": "20", "name_en": "nagano", "name_ja": "長野県", "lat": 36.65128, "lon": 138.18094, "filename": "nagano.geojson"}, {"code": "21", "name_en": "gifu", "name_ja": "岐阜県", "lat": 35.39119, "lon": 136.72219, "filename": "gifu.geojson"}, {"code": "22", "name_en": "shizuoka", "name_ja": "静岡県", "lat": 34.97694, "lon": 138.383, "filename": "shizuoka.geojson"}, {"code": "23", "name_en": "aichi", "name_ja": "愛知県", "lat": 35.18017, "lon": 136.90642, "filename": "aichi.geojson"}, {"code": "24", "name_en": "mie", "name_ja": "三重県", "lat": 34.73025, "lon": 136.50867, "filename": "mie.geojson"}, {"code": "25", "name_en": "shiga", "name_ja": "滋賀県", "lat": 35.00436, "lon": 135.8685, "filename": "shiga.geojson"}, {"code": "26", "name_en": "kyoto", "name_ja": "京都府", "lat": 35.02103, "lon": 135.75558, "filename": "kyoto.geojson"}, {"code": "27", "name_en": "osaka", "name_ja": "大阪府", "lat": 34.68633, "lon": 135.51986, "filename": "osaka.geojson"}, {"code": "28", "name_en": "hyōgo", "name_ja": "兵庫県", "lat": 34.69125, "lon": 135.18308, "filename": "hyōgo.geojson"}, {"code": "29", "name_en": "nara", "name_ja": "奈良県", "lat": 34.68519, "lon": 135.83294, "filename": "nara.geojson"}, {"code": "30", "name_en": "wakayama", "name_ja": "和歌山県", "lat": 34.22603, "lon": 135.1675, "filename": "wakayama.geojson"}, {"code": "31", "name_en": "tottori", "name_ja": "鳥取県", "lat": 35.5039, "lon": 134.2375, "filename": "tottori.geojson"}, {"code": "32", "name_en": "shimane", "name_ja": "島根県", "lat": 35.4722, "lon": 133.0503, "filename": "shimane.geojson"}, {"code": "33", "name_en": "okayama", "name_ja": "岡山県", "lat": 34.6617, "lon": 133.9347, "filename": "okayama.geojson"}, {"code": "34", "name_en": "hiroshima", "name_ja": "広島県", "lat": 34.3964, "lon": 132.4597, "filename": "hiroshima.geojson"}, {"code": "35", "name_en": "yamaguchi", "name_ja": "山口県", "lat": 34.1861, "lon": 131.4703, "filename": "yamaguchi.geojson"}, {"code": "36", "name_en": "tokushima", "name_ja": "徳島県", "lat": 34.0656, "lon": 134.5592, "filename": "tokushima.geojson"}, {"code": "37", "name_en": "kagawa", "name_ja": "香川県", "lat": 34.34, "lon": 134.0431, "filename": "kagawa.geojson"}, {"code": "38", "name_en": "ehime", "name_ja": "愛媛県", "lat": 33.8414, "lon": 132.7656, "filename": "ehime.geojson"}, {"code": "39", "name_en": "kouchi", "name_ja": "高知県", "lat": 33.5594, "lon": 133.5308, "filename": "kouchi.geojson"}, {"code": "40", "name_en": "fukuoka", "name_ja": "福岡県", "lat": 33.6061, "lon": 130.4181, "filename": "fukuoka.geojson"}, {"code": "41", "name_en": "saga", "name_ja": "佐賀県", "lat": 33.2492, "lon": 130.2994, "filename": "saga.geojson"}, {"code": "42", "name_en": "nagasaki", "name_ja": "長崎県", "lat": 32.7503, "lon": 129.8675, "filename": "nagasaki.geojson"}, {"code": "43", "name_en": "kumamoto", "name_ja": "熊本県", "lat": 32.7897, "lon": 130.7414, "filename": "kumamoto.geojson"}, {"code": "44", "name_en": "ooita", "name_ja": "大分県", "lat": 33.2381, "lon": 131.6125, "filename": "ooita.geojson"}, {"code": "45", "name_en": "miyazaki", "name_ja": "宮崎県", "lat": 31.9108, "lon": 131.4236, "filename": "miyazaki.geojson"}, {"code": "46", "name_en": "kagoshima", "name_ja": "鹿児島県", "lat": 31.56, "lon": 130.5581, "filename": "kagoshima.geojson"}, {"code": "47", "name_en": "okinawa", "name_ja": "沖縄県", "lat": 26.2122, "lon": 127.6808, "filename": "okinawa.geojson"}]}