{"title": "List of Islands in Tokyo", "title_ja": "東京都の島の一覧", "reference": "wikipedia: 東京都の島", "url_reference": "https://ja.wikipedia.org/wiki/Category:%E6%9D%B1%E4%BA%AC%E9%83%BD%E3%81%AE%E5%B3%B6", "islands": [{"name_en": "torishima_mukojima", "name_island": "鳥島_聟島", "url_island": "", "name_municipality": "小笠原村", "url_municipality": "https://ja.wikipedia.org/wiki/%E5%B0%8F%E7%AC%A0%E5%8E%9F%E6%9D%91", "lat": 27.679463994388055, "lon": 142.12569978500844}, {"name_en": "megane_jima", "name_island": "眼鏡島", "url_island": "", "name_municipality": "小笠原村", "url_municipality": "https://ja.wikipedia.org/wiki/%E5%B0%8F%E7%AC%A0%E5%8E%9F%E6%9D%91", "lat": 27.128100015511965, "lon": 142.1792888790455}, {"name_en": "kangoku_iwa", "name_island": "監獄岩", "url_island": "", "name_municipality": "小笠原村", "url_municipality": "https://ja.wikipedia.org/wiki/%E5%B0%8F%E7%AC%A0%E5%8E%9F%E6%9D%91", "lat": 24.80289131250507, "lon": 141.28629852175143}, {"name_en": "nishijima_tokyo", "name_island": "西島_東京", "url_island": "", "name_municipality": "小笠原村", "url_municipality": "https://ja.wikipedia.org/wiki/%E5%B0%8F%E7%AC%A0%E5%8E%9F%E6%9D%91", "lat": 27.117222, "lon": 142.1675}, {"name_en": "iwo_jima", "name_island": "硫黄島_東京", "url_island": "https://ja.wikipedia.org/wiki/%E7%A1%AB%E9%BB%84%E5%B3%B6_(%E6%9D%B1%E4%BA%AC%E9%83%BD)", "name_municipality": "小笠原村", "url_municipality": "https://ja.wikipedia.org/wiki/%E5%B0%8F%E7%AC%A0%E5%8E%9F%E6%9D%91", "lat": 24.782269, "lon": 141.316319}, {"name_en": "kita_iwojima", "name_island": "北硫黄島", "url_island": "https://ja.wikipedia.org/wiki/%E5%8C%97%E7%A1%AB%E9%BB%84%E5%B3%B6", "name_municipality": "小笠原村", "url_municipality": "https://ja.wikipedia.org/wiki/%E5%B0%8F%E7%AC%A0%E5%8E%9F%E6%9D%91", "lat": 25.433333, "lon": 141.281944}, {"name_en": "minami_iwojima", "name_island": "南硫黄島", "url_island": "https://ja.wikipedia.org/wiki/%E5%8D%97%E7%A1%AB%E9%BB%84%E5%B3%B6", "name_municipality": "小笠原村", "url_municipality": "https://ja.wikipedia.org/wiki/%E5%B0%8F%E7%AC%A0%E5%8E%9F%E6%9D%91", "lat": 24.233889, "lon": 141.463556}, {"name_en": "nishinoshima", "name_island": "西之島", "url_island": "https://ja.wikipedia.org/wiki/%E8%A5%BF%E4%B9%8B%E5%B3%B6", "name_municipality": "小笠原村", "url_municipality": "https://ja.wikipedia.org/wiki/%E5%B0%8F%E7%AC%A0%E5%8E%9F%E6%9D%91", "lat": 27.246944, "lon": 140.874444}, {"name_en": "izu_ooshima", "name_island": "伊豆大島", "url_island": "https://ja.wikipedia.org/wiki/%E4%BC%8A%E8%B1%86%E5%A4%A7%E5%B3%B6", "name_municipality": "大島町", "url_municipality": "https://ja.wikipedia.org/wiki/%E5%A4%A7%E5%B3%B6%E7%94%BA", "lat": 34.733333, "lon": 139.4}, {"name_en": "nii_jima", "name_island": "新島", "url_island": "https://ja.wikipedia.org/wiki/%E6%96%B0%E5%B3%B6", "name_municipality": "新島村", "url_municipality": "https://ja.wikipedia.org/wiki/%E6%96%B0%E5%B3%B6%E6%9D%91", "lat": 34.366667, "lon": 139.266667}, {"name_en": "shikine_jima", "name_island": "式根島", "url_island": "https://ja.wikipedia.org/wiki/%E5%BC%8F%E6%A0%B9%E5%B3%B6", "name_municipality": "新島村", "url_municipality": "https://ja.wikipedia.org/wiki/%E6%96%B0%E5%B3%B6%E6%9D%91", "lat": 34.326111, "lon": 139.21}, {"name_en": "toshima", "name_island": "利島", "url_island": "https://ja.wikipedia.org/wiki/%E5%88%A9%E5%B3%B6", "name_municipality": "利島村", "url_municipality": "https://ja.wikipedia.org/wiki/%E5%88%A9%E5%B3%B6%E6%9D%91", "lat": 34.520278, "lon": 139.279167}, {"name_en": "kouzushima", "name_island": "神津島", "url_island": "https://ja.wikipedia.org/wiki/%E7%A5%9E%E6%B4%A5%E5%B3%B6", "name_municipality": "神津島村", "url_municipality": "https://ja.wikipedia.org/wiki/%E7%A5%9E%E6%B4%A5%E5%B3%B6%E6%9D%91", "lat": 34.216944, "lon": 139.154167}, {"name_en": "miyake_jima", "name_island": "三宅島", "url_island": "https://ja.wikipedia.org/wiki/%E4%B8%89%E5%AE%85%E5%B3%B6", "name_municipality": "三宅村", "url_municipality": "https://ja.wikipedia.org/wiki/%E4%B8%89%E5%AE%85%E6%9D%91", "lat": 34.081944, "lon": 139.526389}, {"name_en": "mikura_jima", "name_island": "御蔵島", "url_island": "https://ja.wikipedia.org/wiki/%E5%BE%A1%E8%94%B5%E5%B3%B6", "name_municipality": "御蔵島村", "url_municipality": "https://ja.wikipedia.org/wiki/%E5%BE%A1%E8%94%B5%E5%B3%B6%E6%9D%91", "lat": 33.874167, "lon": 139.601944}, {"name_en": "hchijyo", "name_island": "八丈島", "url_island": "https://ja.wikipedia.org/wiki/%E5%85%AB%E4%B8%88%E5%B3%B6", "name_municipality": "八丈町", "url_municipality": "https://ja.wikipedia.org/wiki/%E5%85%AB%E4%B8%88%E7%94%BA", "lat": 33.109444, "lon": 139.791389}, {"name_en": "hachijyo_kojima", "name_island": "八丈小島", "url_island": "https://ja.wikipedia.org/wiki/%E5%85%AB%E4%B8%88%E5%B0%8F%E5%B3%B6", "name_municipality": "八丈町", "url_municipality": "https://ja.wikipedia.org/wiki/%E5%85%AB%E4%B8%88%E7%94%BA", "lat": 33.125278, "lon": 139.688333}, {"name_en": "aogashima", "name_island": "青ヶ島", "url_island": "https://ja.wikipedia.org/wiki/%E9%9D%92%E3%83%B6%E5%B3%B6", "name_municipality": "青ヶ島村", "url_municipality": "https://ja.wikipedia.org/wiki/%E9%9D%92%E3%83%B6%E5%B3%B6%E6%9D%91", "lat": 32.457778, "lon": 139.759167}, {"name_en": "inanba_jima", "name_island": "藺灘波島", "url_island": "https://ja.wikipedia.org/wiki/%E8%97%BA%E7%81%98%E6%B3%A2%E5%B3%B6", "name_municipality": "御蔵島村", "url_municipality": "https://ja.wikipedia.org/wiki/%E5%BE%A1%E8%94%B5%E5%B3%B6%E6%9D%91", "lat": 33.650833, "lon": 139.298889}, {"name_en": "udone_jima", "name_island": "鵜渡根島", "url_island": "https://ja.wikipedia.org/wiki/%E9%B5%9C%E6%B8%A1%E6%A0%B9%E5%B3%B6", "name_municipality": "新島村", "url_municipality": "https://ja.wikipedia.org/wiki/%E6%96%B0%E5%B3%B6%E6%9D%91", "lat": 34.4725, "lon": 139.293889}, {"name_en": "oonohara_jima", "name_island": "大野原島", "url_island": "https://ja.wikipedia.org/wiki/%E5%A4%A7%E9%87%8E%E5%8E%9F%E5%B3%B6", "name_municipality": "三宅村", "url_municipality": "https://ja.wikipedia.org/wiki/%E4%B8%89%E5%AE%85%E6%9D%91", "lat": 34.048056, "lon": 139.383889}, {"name_en": "onbase_jima", "name_island": "恩馳島", "url_island": "https://ja.wikipedia.org/wiki/%E6%81%A9%E9%A6%B3%E5%B3%B6", "name_municipality": "神津島村", "url_municipality": "https://ja.wikipedia.org/wiki/%E7%A5%9E%E6%B4%A5%E5%B3%B6%E6%9D%91", "lat": 34.186667, "lon": 139.076389}, {"name_en": "jinai_jima", "name_island": "地内島", "url_island": "https://ja.wikipedia.org/wiki/%E5%9C%B0%E5%86%85%E5%B3%B6", "name_municipality": "新島村", "url_municipality": "https://ja.wikipedia.org/wiki/%E6%96%B0%E5%B3%B6%E6%9D%91", "lat": 34.372222, "lon": 139.227778}, {"name_en": "sumisu_jima", "name_island": "須美寿島", "url_island": "https://ja.wikipedia.org/wiki/%E9%A0%88%E7%BE%8E%E5%AF%BF%E5%B3%B6", "name_municipality": "東京都", "url_municipality": "https://ja.wikipedia.org/wiki/%E6%9D%B1%E4%BA%AC%E9%83%BD", "lat": 31.438889, "lon": 140.050833}, {"name_en": "zenisu", "name_island": "銭洲", "url_island": "https://ja.wikipedia.org/wiki/%E9%8A%AD%E6%B4%B2", "name_municipality": "神津島村", "url_municipality": "https://ja.wikipedia.org/wiki/%E7%A5%9E%E6%B4%A5%E5%B3%B6%E6%9D%91", "lat": 33.943611, "lon": 138.8175}, {"name_en": "soufu_iwa", "name_island": "孀婦岩", "url_island": "https://ja.wikipedia.org/wiki/%E5%AD%80%E5%A9%A6%E5%B2%A9", "name_municipality": "東京都", "url_municipality": "https://ja.wikipedia.org/wiki/%E6%9D%B1%E4%BA%AC%E9%83%BD", "lat": 29.794167, "lon": 140.341944}, {"name_en": "tadanae_jima", "name_island": "祇苗島", "url_island": "https://ja.wikipedia.org/wiki/%E7%A5%87%E8%8B%97%E5%B3%B6", "name_municipality": "神津島村", "url_municipality": "https://ja.wikipedia.org/wiki/%E7%A5%9E%E6%B4%A5%E5%B3%B6%E6%9D%91", "lat": 34.206944, "lon": 139.191111}, {"name_en": "torishima_hachijyo", "name_island": "鳥島_八丈", "url_island": "https://ja.wikipedia.org/wiki/%E9%B3%A5%E5%B3%B6_(%E5%85%AB%E4%B8%88%E6%94%AF%E5%BA%81)", "name_municipality": "東京都", "url_municipality": "https://ja.wikipedia.org/wiki/%E6%9D%B1%E4%BA%AC%E9%83%BD", "lat": 30.483889, "lon": 140.303056}, {"name_en": "hayashima_tokyo", "name_island": "早島_東京", "url_island": "https://ja.wikipedia.org/wiki/%E6%97%A9%E5%B3%B6_(%E6%9D%B1%E4%BA%AC%E9%83%BD)", "name_municipality": "新島村", "url_municipality": "https://ja.wikipedia.org/wiki/%E6%96%B0%E5%B3%B6%E6%9D%91", "lat": 34.325833, "lon": 139.277222}, {"name_en": "fudeshima", "name_island": "筆島", "url_island": "https://ja.wikipedia.org/wiki/%E7%AD%86%E5%B3%B6", "name_municipality": "大島町", "url_municipality": "https://ja.wikipedia.org/wiki/%E5%A4%A7%E5%B3%B6%E7%94%BA", "lat": 34.706389, "lon": 139.445278}, {"name_en": "bayonnaise_rocks", "name_island": "ベヨネース列岩", "url_island": "https://ja.wikipedia.org/wiki/%E3%83%99%E3%83%A8%E3%83%8D%E3%83%BC%E3%82%B9%E5%88%97%E5%B2%A9", "name_municipality": "東京都", "url_municipality": "https://ja.wikipedia.org/wiki/%E6%9D%B1%E4%BA%AC%E9%83%BD", "lat": 31.887222, "lon": 139.9175}, {"name_en": "okino_torishima", "name_island": "沖ノ鳥島", "url_island": "https://ja.wikipedia.org/wiki/%E6%B2%96%E3%83%8E%E9%B3%A5%E5%B3%B6", "name_municipality": "小笠原村", "url_municipality": "https://ja.wikipedia.org/wiki/%E5%B0%8F%E7%AC%A0%E5%8E%9F%E6%9D%91", "lat": 20.425549, "lon": 136.081151}, {"name_en": "minami_torishima", "name_island": "南鳥島", "url_island": "https://ja.wikipedia.org/wiki/%E5%8D%97%E9%B3%A5%E5%B3%B6", "name_municipality": "小笠原村", "url_municipality": "https://ja.wikipedia.org/wiki/%E5%B0%8F%E7%AC%A0%E5%8E%9F%E6%9D%91", "lat": 24.286667, "lon": 153.980556}, {"name_en": "chichi_jima", "name_island": "父島", "url_island": "https://ja.wikipedia.org/wiki/%E7%88%B6%E5%B3%B6", "name_municipality": "小笠原村", "url_municipality": "https://ja.wikipedia.org/wiki/%E5%B0%8F%E7%AC%A0%E5%8E%9F%E6%9D%91", "lat": 27.077778, "lon": 142.216667}, {"name_en": "ani_jima", "name_island": "兄島", "url_island": "https://ja.wikipedia.org/wiki/%E5%85%84%E5%B3%B6", "name_municipality": "小笠原村", "url_municipality": "https://ja.wikipedia.org/wiki/%E5%B0%8F%E7%AC%A0%E5%8E%9F%E6%9D%91", "lat": 27.121389, "lon": 142.214167}, {"name_en": "otouto_jima", "name_island": "弟島", "url_island": "https://ja.wikipedia.org/wiki/%E5%BC%9F%E5%B3%B6", "name_municipality": "小笠原村", "url_municipality": "https://ja.wikipedia.org/wiki/%E5%B0%8F%E7%AC%A0%E5%8E%9F%E6%9D%91", "lat": 27.166667, "lon": 142.191667}, {"name_en": "mago_jima", "name_island": "孫島", "url_island": "https://ja.wikipedia.org/wiki/%E5%AD%AB%E5%B3%B6", "name_municipality": "小笠原村", "url_municipality": "https://ja.wikipedia.org/wiki/%E5%B0%8F%E7%AC%A0%E5%8E%9F%E6%9D%91", "lat": 27.194722, "lon": 142.195278}, {"name_en": "higashijima_tokyo", "name_island": "東島_東京", "url_island": "https://ja.wikipedia.org/wiki/%E6%9D%B1%E5%B3%B6_(%E6%9D%B1%E4%BA%AC%E9%83%BD)", "name_municipality": "小笠原村", "url_municipality": "https://ja.wikipedia.org/wiki/%E5%B0%8F%E7%AC%A0%E5%8E%9F%E6%9D%91", "lat": 27.093333, "lon": 142.245}, {"name_en": "minamijima_tokyo", "name_island": "南島_東京", "url_island": "https://ja.wikipedia.org/wiki/%E5%8D%97%E5%B3%B6_(%E6%9D%B1%E4%BA%AC%E9%83%BD)", "name_municipality": "小笠原村", "url_municipality": "https://ja.wikipedia.org/wiki/%E5%B0%8F%E7%AC%A0%E5%8E%9F%E6%9D%91", "lat": 27.038447, "lon": 142.175661}, {"name_en": "haha_jima", "name_island": "母島", "url_island": "https://ja.wikipedia.org/wiki/%E6%AF%8D%E5%B3%B6", "name_municipality": "小笠原村", "url_municipality": "https://ja.wikipedia.org/wiki/%E5%B0%8F%E7%AC%A0%E5%8E%9F%E6%9D%91", "lat": 26.663889, "lon": 142.158333}, {"name_en": "ane_jima", "name_island": "姉島", "url_island": "https://ja.wikipedia.org/wiki/%E5%A7%89%E5%B3%B6", "name_municipality": "小笠原村", "url_municipality": "https://ja.wikipedia.org/wiki/%E5%B0%8F%E7%AC%A0%E5%8E%9F%E6%9D%91", "lat": 26.553889, "lon": 142.156944}, {"name_en": "imouto_jima", "name_island": "妹島", "url_island": "https://ja.wikipedia.org/wiki/%E5%A6%B9%E5%B3%B6", "name_municipality": "小笠原村", "url_municipality": "https://ja.wikipedia.org/wiki/%E5%B0%8F%E7%AC%A0%E5%8E%9F%E6%9D%91", "lat": 26.558333, "lon": 142.208333}, {"name_en": "mei_jima", "name_island": "姪島", "url_island": "https://ja.wikipedia.org/wiki/%E5%A7%AA%E5%B3%B6", "name_municipality": "小笠原村", "url_municipality": "https://ja.wikipedia.org/wiki/%E5%B0%8F%E7%AC%A0%E5%8E%9F%E6%9D%91", "lat": 26.569336, "lon": 142.231664}, {"name_en": "mukoujima_hahajima", "name_island": "向島_母島", "url_island": "https://ja.wikipedia.org/wiki/%E5%90%91%E5%B3%B6_(%E6%AF%8D%E5%B3%B6%E5%88%97%E5%B3%B6)", "name_municipality": "小笠原村", "url_municipality": "https://ja.wikipedia.org/wiki/%E5%B0%8F%E7%AC%A0%E5%8E%9F%E6%9D%91", "lat": 26.603333, "lon": 142.13}, {"name_en": "hirajima_tokyo", "name_island": "平島_東京", "url_island": "https://ja.wikipedia.org/wiki/%E5%B9%B3%E5%B3%B6_(%E6%9D%B1%E4%BA%AC%E9%83%BD)", "name_municipality": "小笠原村", "url_municipality": "https://ja.wikipedia.org/wiki/%E5%B0%8F%E7%AC%A0%E5%8E%9F%E6%9D%91", "lat": 26.585556, "lon": 142.154444}, {"name_en": "muko_jima", "name_island": "聟島", "url_island": "https://ja.wikipedia.org/wiki/%E8%81%9F%E5%B3%B6", "name_municipality": "小笠原村", "url_municipality": "https://ja.wikipedia.org/wiki/%E5%B0%8F%E7%AC%A0%E5%8E%9F%E6%9D%91", "lat": 27.681944, "lon": 142.14}, {"name_en": "yome_jima", "name_island": "嫁島", "url_island": "https://ja.wikipedia.org/wiki/%E5%AB%81%E5%B3%B6", "name_municipality": "小笠原村", "url_municipality": "https://ja.wikipedia.org/wiki/%E5%B0%8F%E7%AC%A0%E5%8E%9F%E6%9D%91", "lat": 27.497222, "lon": 142.209722}, {"name_en": "nakoudo_jima", "name_island": "媒島", "url_island": "https://ja.wikipedia.org/wiki/%E5%AA%92%E5%B3%B6", "name_municipality": "小笠原村", "url_municipality": "https://ja.wikipedia.org/wiki/%E5%B0%8F%E7%AC%A0%E5%8E%9F%E6%9D%91", "lat": 27.629167, "lon": 142.177778}, {"name_en": "kitanoshima", "name_island": "北之島", "url_island": "https://ja.wikipedia.org/wiki/%E5%8C%97%E4%B9%8B%E5%B3%B6", "name_municipality": "小笠原村", "url_municipality": "https://ja.wikipedia.org/wiki/%E5%B0%8F%E7%AC%A0%E5%8E%9F%E6%9D%91", "lat": 27.718611, "lon": 142.099722}, {"name_en": "harino_iwa", "name_island": "針之岩", "url_island": "https://ja.wikipedia.org/wiki/%E9%87%9D%E4%B9%8B%E5%B2%A9", "name_municipality": "小笠原村", "url_municipality": "https://ja.wikipedia.org/wiki/%E5%B0%8F%E7%AC%A0%E5%8E%9F%E6%9D%91", "lat": 27.661111, "lon": 142.158056}]}