{"title": "List of places in Tokyo", "title_ja": "東京都の場所の一覧", "places": [{"name_en": "tokyo", "name_place": "東京都", "url_place": "https://ja.wikipedia.org/wiki/%E6%9D%B1%E4%BA%AC%E9%83%BD", "name_municipality": "東京都", "url_municipality": "https://ja.wikipedia.org/wiki/%E6%9D%B1%E4%BA%AC%E9%83%BD", "lat": 35.6894, "lon": 139.6917}, {"name_en": "jyounannjima", "name_place": "城南島", "url_place": "https://ja.wikipedia.org/wiki/%E5%9F%8E%E5%8D%97%E5%B3%B6", "name_municipality": "大田区", "url_municipality": "https://ja.wikipedia.org/wiki/%E5%A4%A7%E7%94%B0%E5%8C%BA", "lat": 35.580639, "lon": 139.77675}, {"name_en": "shouwajima", "name_place": "昭和島", "url_place": "https://ja.wikipedia.org/wiki/%E6%98%AD%E5%92%8C%E5%B3%B6", "name_municipality": "大田区", "url_municipality": "https://ja.wikipedia.org/wiki/%E5%A4%A7%E7%94%B0%E5%8C%BA", "lat": 35.572019, "lon": 139.75}, {"name_en": "keihinnjima", "name_place": "京浜島", "url_place": "https://ja.wikipedia.org/wiki/%E4%BA%AC%E6%B5%9C%E5%B3%B6", "name_municipality": "大田区", "url_municipality": "https://ja.wikipedia.org/wiki/%E5%A4%A7%E7%94%B0%E5%8C%BA", "lat": 35.569753, "lon": 139.765122}, {"name_en": "rewajima", "name_place": "令和島", "url_place": "https://ja.wikipedia.org/wiki/%E4%BB%A4%E5%92%8C%E5%B3%B6", "name_municipality": "大田区", "url_municipality": "https://ja.wikipedia.org/wiki/%E5%A4%A7%E7%94%B0%E5%8C%BA", "lat": 35.592806, "lon": 139.802361}, {"name_en": "kasai_kaihinn_kouen", "name_place": "葛西海浜公園", "url_place": "https://ja.wikipedia.org/wiki/%E8%91%9B%E8%A5%BF%E6%B5%B7%E6%B5%9C%E5%85%AC%E5%9C%92", "name_municipality": "江戸川区", "url_municipality": "https://ja.wikipedia.org/wiki/%E6%B1%9F%E6%88%B8%E5%B7%9D%E5%8C%BA", "lat": 35.638389, "lon": 139.855556}, {"name_en": "shinkiba_dai1", "name_place": "新木場_第1貯木場", "url_place": "https://ja.wikipedia.org/wiki/%E6%96%B0%E6%9C%A8%E5%A0%B4", "name_municipality": "江東区", "url_municipality": "https://ja.wikipedia.org/wiki/%E6%B1%9F%E6%9D%B1%E5%8C%BA", "lat": 35.63832611137248, "lon": 139.82505538305963}, {"name_en": "shinkiba_dai2", "name_place": "新木場_第2貯木場", "url_place": "https://ja.wikipedia.org/wiki/%E6%96%B0%E6%9C%A8%E5%A0%B4", "name_municipality": "江東区", "url_municipality": "https://ja.wikipedia.org/wiki/%E6%B1%9F%E6%9D%B1%E5%8C%BA", "lat": 35.62380720991106, "lon": 139.83370003525198}, {"name_en": "harumi_ferry_futou", "name_place": "青海フェリー埠頭", "url_place": "https://ja.wikipedia.org/wiki/%E6%9D%B1%E4%BA%AC%E6%B8%AF%E3%83%95%E3%82%A7%E3%83%AA%E3%83%BC%E5%9F%A0%E9%A0%AD", "name_municipality": "江東区", "url_municipality": "https://ja.wikipedia.org/wiki/%E6%B1%9F%E6%9D%B1%E5%8C%BA", "lat": 35.616389, "lon": 139.795833}, {"name_en": "haume_kontena_futou", "name_place": "青海コンテナ埠頭", "url_place": "https://ja.wikipedia.org/wiki/%E9%9D%92%E6%B5%B7%E3%82%B3%E3%83%B3%E3%83%86%E3%83%8A%E5%9F%A0%E9%A0%AD", "name_municipality": "江東区", "url_municipality": "https://ja.wikipedia.org/wiki/%E6%B1%9F%E6%9D%B1%E5%8C%BA", "lat": 35.609722, "lon": 139.7825}, {"name_en": "chuuou_bouhatei", "name_place": "中央防波堤埋立地", "url_place": "https://ja.wikipedia.org/wiki/%E4%B8%AD%E5%A4%AE%E9%98%B2%E6%B3%A2%E5%A0%A4%E5%9F%8B%E7%AB%8B%E5%9C%B0", "name_municipality": "江東区", "url_municipality": "https://ja.wikipedia.org/wiki/%E6%B1%9F%E6%9D%B1%E5%8C%BA", "lat": 35.604493207062795, "lon": 139.80395527456744}]}