{"title": "List of Islands in Kumamoto", "title_ja": "熊本県の島の一覧", "reference": "wikipedia: 熊本県の島", "url_reference": "https://ja.wikipedia.org/wiki/Category:%E7%86%8A%E6%9C%AC%E7%9C%8C%E3%81%AE%E5%B3%B6", "islands": [{"name_en": "ubujima_2", "name_island": "産島_2", "url_island": "", "name_municipality": "天草市", "url_municipality": "https://ja.wikipedia.org/wiki/%E5%A4%A9%E8%8D%89%E5%B8%82", "lat": 32.269528, "lon": 130.140943}, {"name_en": "ootukushima", "name_island": "大築島", "url_island": "https://ja.wikipedia.org/wiki/%E5%A4%A7%E7%AF%89%E5%B3%B6", "name_municipality": "八代市", "url_municipality": "https://ja.wikipedia.org/wiki/%E5%85%AB%E4%BB%A3%E5%B8%82", "lat": 32.485372, "lon": 130.498578}, {"name_en": "tsukushima", "name_island": "築島", "url_island": "", "name_municipality": "天草市", "url_municipality": "https://ja.wikipedia.org/wiki/%E5%A4%A9%E8%8D%89%E5%B8%82", "lat": 32.155464, "lon": 130.04251}, {"name_en": "taware_jima", "name_island": "風流島", "url_island": "https://ja.wikipedia.org/wiki/%E9%A2%A8%E6%B5%81%E5%B3%B6", "name_municipality": "宇土市", "url_municipality": "https://ja.wikipedia.org/wiki/%E5%AE%87%E5%9C%9F%E5%B8%82", "lat": 32.712139, "lon": 130.591333}, {"name_en": "nakajima_2", "name_island": "中島_2", "url_island": "", "name_municipality": "八代市", "url_municipality": "https://ja.wikipedia.org/wiki/%E5%85%AB%E4%BB%A3%E5%B8%82", "lat": 32.533318, "lon": 130.525798}, {"name_en": "hinoshima", "name_island": "樋島", "url_island": "https://ja.wikipedia.org/wiki/%E6%A8%8B%E5%B3%B6", "name_municipality": "上天草市", "url_municipality": "https://ja.wikipedia.org/wiki/%E4%B8%8A%E5%A4%A9%E8%8D%89%E5%B8%82", "lat": 32.383333, "lon": 130.419444}, {"name_en": "maejima_2", "name_island": "前島_2", "url_island": "", "name_municipality": "天草市", "url_municipality": "https://ja.wikipedia.org/wiki/%E5%A4%A9%E8%8D%89%E5%B8%82", "lat": 32.354013, "lon": 130.359097}, {"name_en": "makishima_kumamoto", "name_island": "牧島_熊本", "url_island": "https://ja.wikipedia.org/wiki/%E7%89%A7%E5%B3%B6_(%E7%86%8A%E6%9C%AC%E7%9C%8C)", "name_municipality": "天草市", "url_municipality": "https://ja.wikipedia.org/wiki/%E5%A4%A9%E8%8D%89%E5%B8%82", "lat": 32.355556, "lon": 130.318611}, {"name_en": "yokoshima_2", "name_island": "横島_2", "url_island": "", "name_municipality": "上天草市", "url_municipality": "https://ja.wikipedia.org/wiki/%E4%B8%8A%E5%A4%A9%E8%8D%89%E5%B8%82", "lat": 32.38752, "lon": 130.340217}, {"name_en": "kameshime", "name_island": "亀島", "url_island": "", "name_municipality": "天草市", "url_municipality": "https://ja.wikipedia.org/wiki/%E5%A4%A9%E8%8D%89%E5%B8%82", "lat": 32.5418, "lon": 130.196251}, {"name_en": "takeshima_1", "name_island": "竹島_1", "url_island": "", "name_municipality": "天草市", "url_municipality": "https://ja.wikipedia.org/wiki/%E5%A4%A9%E8%8D%89%E5%B8%82", "lat": 32.529898, "lon": 130.373689}, {"name_en": "takeshima_2", "name_island": "竹島_2", "url_island": "", "name_municipality": "天草市", "url_municipality": "https://ja.wikipedia.org/wiki/%E5%A4%A9%E8%8D%89%E5%B8%82", "lat": 32.372448, "lon": 130.411304}, {"name_en": "takeshima_3", "name_island": "竹島_3", "url_island": "", "name_municipality": "天草市", "url_municipality": "https://ja.wikipedia.org/wiki/%E5%A4%A9%E8%8D%89%E5%B8%82", "lat": 32.32976, "lon": 130.300109}, {"name_en": "tatsuzaki", "name_island": "龍崎", "url_island": "", "name_municipality": "天草市", "url_municipality": "https://ja.wikipedia.org/wiki/%E5%A4%A9%E8%8D%89%E5%B8%82", "lat": 32.52281, "lon": 130.380413}, {"name_en": "ike_jima", "name_island": "池島", "url_island": "", "name_municipality": "上天草市", "url_municipality": "https://ja.wikipedia.org/wiki/%E4%B8%8A%E5%A4%A9%E8%8D%89%E5%B8%82", "lat": 32.533917, "lon": 130.42268}, {"name_en": "kugu_jima", "name_island": "椚島", "url_island": "", "name_municipality": "上天草市", "url_municipality": "https://ja.wikipedia.org/wiki/%E4%B8%8A%E5%A4%A9%E8%8D%89%E5%B8%82", "lat": 32.389646, "lon": 130.401981}, {"name_en": "kuwa_jima", "name_island": "桑島", "url_island": "", "name_municipality": "天草市", "url_municipality": "https://ja.wikipedia.org/wiki/%E5%A4%A9%E8%8D%89%E5%B8%82", "lat": 32.204646, "lon": 129.973108}, {"name_en": "ooshima", "name_island": "大島", "url_island": "", "name_municipality": "天草市", "url_municipality": "https://ja.wikipedia.org/wiki/%E5%A4%A9%E8%8D%89%E5%B8%82", "lat": 32.182444, "lon": 129.96834}, {"name_en": "ryuuzen_jima", "name_island": "龍仙島", "url_island": "", "name_municipality": "天草市", "url_municipality": "https://ja.wikipedia.org/wiki/%E5%A4%A9%E8%8D%89%E5%B8%82", "lat": 32.146245, "lon": 129.973145}, {"name_en": "hougashima", "name_island": "法ヶ島", "url_island": "", "name_municipality": "天草市", "url_municipality": "https://ja.wikipedia.org/wiki/%E5%A4%A9%E8%8D%89%E5%B8%82", "lat": 32.165303, "lon": 130.053506}, {"name_en": "ushijima", "name_island": "牛島", "url_island": "", "name_municipality": "天草市", "url_municipality": "https://ja.wikipedia.org/wiki/%E5%A4%A9%E8%8D%89%E5%B8%82", "lat": 32.176584, "lon": 130.045909}, {"name_en": "toshima", "name_island": "戸島", "url_island": "", "name_municipality": "天草市", "url_municipality": "https://ja.wikipedia.org/wiki/%E5%A4%A9%E8%8D%89%E5%B8%82", "lat": 32.19764, "lon": 130.076121}, {"name_en": "kuroshima_1", "name_island": "黒島_1", "url_island": "", "name_municipality": "天草市", "url_municipality": "https://ja.wikipedia.org/wiki/%E5%A4%A9%E8%8D%89%E5%B8%82", "lat": 32.18483, "lon": 130.015121}, {"name_en": "kuroshima_2", "name_island": "黒島_2", "url_island": "", "name_municipality": "天草市", "url_municipality": "https://ja.wikipedia.org/wiki/%E5%A4%A9%E8%8D%89%E5%B8%82", "lat": 32.338321, "lon": 130.288098}, {"name_en": "kamichijika_jima", "name_island": "上血塚島", "url_island": "", "name_municipality": "天草市", "url_municipality": "https://ja.wikipedia.org/wiki/%E5%A4%A9%E8%8D%89%E5%B8%82", "lat": 32.405283, "lon": 130.230738}, {"name_en": "shimochijika_jima", "name_island": "下血塚島", "url_island": "", "name_municipality": "天草市", "url_municipality": "https://ja.wikipedia.org/wiki/%E5%A4%A9%E8%8D%89%E5%B8%82", "lat": 32.400932, "lon": 130.231936}, {"name_en": "goshiki_jima", "name_island": "五色島", "url_island": "", "name_municipality": "天草市", "url_municipality": "https://ja.wikipedia.org/wiki/%E5%A4%A9%E8%8D%89%E5%B8%82", "lat": 32.415955, "lon": 130.214389}, {"name_en": "hirase_jima", "name_island": "平瀬島", "url_island": "", "name_municipality": "天草市", "url_municipality": "https://ja.wikipedia.org/wiki/%E5%A4%A9%E8%8D%89%E5%B8%82", "lat": 32.391208, "lon": 130.3283749}, {"name_en": "kusumori_jima", "name_island": "楠森島", "url_island": "", "name_municipality": "上天草市", "url_municipality": "https://ja.wikipedia.org/wiki/%E4%B8%8A%E5%A4%A9%E8%8D%89%E5%B8%82", "lat": 32.375563, "lon": 130.322801}, {"name_en": "dakute_jima", "name_island": "ダクテ島", "url_island": "", "name_municipality": "上天草市", "url_municipality": "https://ja.wikipedia.org/wiki/%E4%B8%8A%E5%A4%A9%E8%8D%89%E5%B8%82", "lat": 32.370353, "lon": 130.308193}, {"name_en": "oni_jima", "name_island": "鬼島", "url_island": "", "name_municipality": "上天草市", "url_municipality": "https://ja.wikipedia.org/wiki/%E4%B8%8A%E5%A4%A9%E8%8D%89%E5%B8%82", "lat": 32.596295, "lon": 130.449908}, {"name_en": "mayu_jima", "name_island": "眉島", "url_island": "", "name_municipality": "天草市", "url_municipality": "https://ja.wikipedia.org/wiki/%E5%A4%A9%E8%8D%89%E5%B8%82", "lat": 32.341832, "lon": 130.331462}, {"name_en": "koiji_jima", "name_island": "恋路島", "url_island": "", "name_municipality": "水俣市", "url_municipality": "https://ja.wikipedia.org/wiki/%E6%B0%B4%E4%BF%A3%E5%B8%82", "lat": 32.19809, "lon": 130.365077}, {"name_en": "iwajima", "name_island": "維和島", "url_island": "https://ja.wikipedia.org/wiki/%E7%B6%AD%E5%92%8C%E5%B3%B6", "name_municipality": "上天草市", "url_municipality": "https://ja.wikipedia.org/wiki/%E4%B8%8A%E5%A4%A9%E8%8D%89%E5%B8%82", "lat": 32.575556, "lon": 130.466139}, {"name_en": "ubujima", "name_island": "産島", "url_island": "https://ja.wikipedia.org/wiki/%E7%94%A3%E5%B3%B6", "name_municipality": "天草市", "url_municipality": "https://ja.wikipedia.org/wiki/%E5%A4%A9%E8%8D%89%E5%B8%82", "lat": 32.269722, "lon": 130.139722}, {"name_en": "ooyanojima", "name_island": "大矢野島", "url_island": "https://ja.wikipedia.org/wiki/%E5%A4%A7%E7%9F%A2%E9%87%8E%E5%B3%B6", "name_municipality": "上天草市", "url_municipality": "https://ja.wikipedia.org/wiki/%E4%B8%8A%E5%A4%A9%E8%8D%89%E5%B8%82", "lat": 32.578639, "lon": 130.430028}, {"name_en": "kamishima_amakusa", "name_island": "上島_天草", "url_island": "https://ja.wikipedia.org/wiki/%E4%B8%8A%E5%B3%B6_(%E5%A4%A9%E8%8D%89%E8%AB%B8%E5%B3%B6)", "name_municipality": "天草市", "url_municipality": "https://ja.wikipedia.org/wiki/%E5%A4%A9%E8%8D%89%E5%B8%82", "lat": 32.433333, "lon": 130.333333}, {"name_en": "shimoshima_amakusa", "name_island": "下島_天草", "url_island": "https://ja.wikipedia.org/wiki/%E4%B8%8B%E5%B3%B6_(%E5%A4%A9%E8%8D%89%E8%AB%B8%E5%B3%B6)", "name_municipality": "天草市", "url_municipality": "https://ja.wikipedia.org/wiki/%E5%A4%A9%E8%8D%89%E5%B8%82", "lat": 32.436306, "lon": 130.083722}, {"name_en": "gesujima", "name_island": "下須島", "url_island": "https://ja.wikipedia.org/wiki/%E4%B8%8B%E9%A0%88%E5%B3%B6", "name_municipality": "天草市", "url_municipality": "https://ja.wikipedia.org/wiki/%E5%A4%A9%E8%8D%89%E5%B8%82", "lat": 32.178611, "lon": 130.026667}, {"name_en": "goshourajima", "name_island": "御所浦島", "url_island": "https://ja.wikipedia.org/wiki/%E5%BE%A1%E6%89%80%E6%B5%A6%E5%B3%B6", "name_municipality": "天草市", "url_municipality": "https://ja.wikipedia.org/wiki/%E5%A4%A9%E8%8D%89%E5%B8%82", "lat": 32.333333, "lon": 130.35}, {"name_en": "seshima", "name_island": "瀬島", "url_island": "https://ja.wikipedia.org/wiki/%E7%80%AC%E5%B3%B6", "name_municipality": "上天草市", "url_municipality": "https://ja.wikipedia.org/wiki/%E4%B8%8A%E5%A4%A9%E8%8D%89%E5%B8%82", "lat": 32.535, "lon": 130.438333}, {"name_en": "takamokujima", "name_island": "高杢島", "url_island": "https://ja.wikipedia.org/wiki/%E9%AB%98%E6%9D%A2%E5%B3%B6", "name_municipality": "上天草市", "url_municipality": "https://ja.wikipedia.org/wiki/%E4%B8%8A%E5%A4%A9%E8%8D%89%E5%B8%82", "lat": 32.544722, "lon": 130.391111}, {"name_en": "tsujishima", "name_island": "通詞島", "url_island": "https://ja.wikipedia.org/wiki/%E9%80%9A%E8%A9%9E%E5%B3%B6", "name_municipality": "天草市", "url_municipality": "https://ja.wikipedia.org/wiki/%E5%A4%A9%E8%8D%89%E5%B8%82", "lat": 32.551111, "lon": 130.114722}, {"name_en": "tobasejima", "name_island": "戸馳島", "url_island": "https://ja.wikipedia.org/wiki/%E6%88%B8%E9%A6%B3%E5%B3%B6", "name_municipality": "宇城市", "url_municipality": "https://ja.wikipedia.org/wiki/%E5%AE%87%E5%9F%8E%E5%B8%82", "lat": 32.600833, "lon": 130.496389}, {"name_en": "nagaurajima", "name_island": "永浦島", "url_island": "https://ja.wikipedia.org/wiki/%E6%B0%B8%E6%B5%A6%E5%B3%B6", "name_municipality": "上天草市", "url_municipality": "https://ja.wikipedia.org/wiki/%E4%B8%8A%E5%A4%A9%E8%8D%89%E5%B8%82", "lat": 32.542917, "lon": 130.41691}, {"name_en": "nakajima_kumamoto", "name_island": "中島_熊本", "url_island": "https://ja.wikipedia.org/wiki/%E4%B8%AD%E5%B3%B6_(%E7%86%8A%E6%9C%AC%E7%9C%8C)", "name_municipality": "上天草市", "url_municipality": "https://ja.wikipedia.org/wiki/%E4%B8%8A%E5%A4%A9%E8%8D%89%E5%B8%82", "lat": 32.530556, "lon": 130.433056}, {"name_en": "nogamajima", "name_island": "野釜島", "url_island": "https://ja.wikipedia.org/wiki/%E9%87%8E%E9%87%9C%E5%B3%B6", "name_municipality": "上天草市", "url_municipality": "https://ja.wikipedia.org/wiki/%E4%B8%8A%E5%A4%A9%E8%8D%89%E5%B8%82", "lat": 32.583333, "lon": 130.385833}, {"name_en": "hiaijima", "name_island": "樋合島", "url_island": "https://ja.wikipedia.org/wiki/%E6%A8%8B%E5%90%88%E5%B3%B6", "name_municipality": "上天草市", "url_municipality": "https://ja.wikipedia.org/wiki/%E4%B8%8A%E5%A4%A9%E8%8D%89%E5%B8%82", "lat": 32.540278, "lon": 130.401389}, {"name_en": "maejima_kumamoto", "name_island": "前島_熊本", "url_island": "https://ja.wikipedia.org/wiki/%E5%89%8D%E5%B3%B6_(%E7%86%8A%E6%9C%AC%E7%9C%8C)", "name_municipality": "天草市", "url_municipality": "https://ja.wikipedia.org/wiki/%E5%A4%A9%E8%8D%89%E5%B8%82", "lat": 32.523889, "lon": 130.4275}, {"name_en": "miyajima_kumamoto", "name_island": "宮島_熊本", "url_island": "https://ja.wikipedia.org/wiki/%E5%AE%AE%E5%B3%B6_(%E7%86%8A%E6%9C%AC%E7%9C%8C)", "name_municipality": "天草市", "url_municipality": "https://ja.wikipedia.org/wiki/%E5%A4%A9%E8%8D%89%E5%B8%82", "lat": 32.322972, "lon": 130.167222}, {"name_en": "ysgyujima", "name_island": "野牛島", "url_island": "https://ja.wikipedia.org/wiki/%E9%87%8E%E7%89%9B%E5%B3%B6", "name_municipality": "上天草市", "url_municipality": "https://ja.wikipedia.org/wiki/%E4%B8%8A%E5%A4%A9%E8%8D%89%E5%B8%82", "lat": 32.57, "lon": 130.455}, {"name_en": "yushima_amakusa", "name_island": "湯島_天草", "url_island": "https://ja.wikipedia.org/wiki/%E6%B9%AF%E5%B3%B6_(%E5%A4%A9%E8%8D%89%E8%AB%B8%E5%B3%B6)", "name_municipality": "上天草市", "url_municipality": "https://ja.wikipedia.org/wiki/%E4%B8%8A%E5%A4%A9%E8%8D%89%E5%B8%82", "lat": 32.600278, "lon": 130.335583}, {"name_en": "yokourajima", "name_island": "横浦島", "url_island": "https://ja.wikipedia.org/wiki/%E6%A8%AA%E6%B5%A6%E5%B3%B6", "name_municipality": "天草市", "url_municipality": "https://ja.wikipedia.org/wiki/%E5%A4%A9%E8%8D%89%E5%B8%82", "lat": 32.366139, "lon": 130.347306}, {"name_en": "yokohama_kumamoto", "name_island": "横島_熊本", "url_island": "https://ja.wikipedia.org/wiki/%E6%A8%AA%E5%B3%B6_(%E7%86%8A%E6%9C%AC%E7%9C%8C)", "name_municipality": "天草市", "url_municipality": "https://ja.wikipedia.org/wiki/%E5%A4%A9%E8%8D%89%E5%B8%82", "lat": 32.373333, "lon": 130.233333}, {"name_en": "nagashima_kagoshima", "name_island": "長島_鹿児島", "url_island": "https://ja.wikipedia.org/wiki/%E9%95%B7%E5%B3%B6_(%E9%B9%BF%E5%85%90%E5%B3%B6%E7%9C%8C)", "name_municipality": "長島町", "url_municipality": "https://ja.wikipedia.org/wiki/%E9%95%B7%E5%B3%B6%E7%94%BA", "lat": 32.15, "lon": 130.15}, {"name_en": "ikarajima", "name_island": "伊唐島", "url_island": "https://ja.wikipedia.org/wiki/%E4%BC%8A%E5%94%90%E5%B3%B6", "name_municipality": "長島町", "url_municipality": "https://ja.wikipedia.org/wiki/%E9%95%B7%E5%B3%B6%E7%94%BA", "lat": 32.218781, "lon": 130.200339}, {"name_en": "shishijima", "name_island": "獅子島", "url_island": "https://ja.wikipedia.org/wiki/%E7%8D%85%E5%AD%90%E5%B3%B6", "name_municipality": "長島町", "url_municipality": "https://ja.wikipedia.org/wiki/%E9%95%B7%E5%B3%B6%E7%94%BA", "lat": 32.278917, "lon": 130.240417}, {"name_en": "shourajima", "name_island": "諸浦島", "url_island": "https://ja.wikipedia.org/wiki/%E8%AB%B8%E6%B5%A6%E5%B3%B6", "name_municipality": "長島町", "url_municipality": "https://ja.wikipedia.org/wiki/%E9%95%B7%E5%B3%B6%E7%94%BA", "lat": 32.241278, "lon": 130.171528}]}