{"title": "List of Islands in Miyazaki", "title_ja": "宮崎県の島の一覧", "reference": "wikipedia: 宮崎県の島", "url_reference": "https://ja.wikipedia.org/wiki/Category:%E5%AE%AE%E5%B4%8E%E7%9C%8C%E3%81%AE%E5%B3%B6", "islands": [{"name_en": "aoshima_miyazaki", "name_island": "青島_宮崎", "url_island": "https://ja.wikipedia.org/wiki/%E9%9D%92%E5%B3%B6_(%E5%AE%AE%E5%B4%8E%E7%9C%8C)", "name_municipality": "宮崎市", "url_municipality": "https://ja.wikipedia.org/wiki/%E5%AE%AE%E5%B4%8E%E5%B8%82", "lat": 31.805222, "lon": 131.475889}, {"name_en": "ooshima_miyazaki", "name_island": "大島_宮崎", "url_island": "https://ja.wikipedia.org/wiki/%E5%A4%A7%E5%B3%B6_(%E5%AE%AE%E5%B4%8E%E7%9C%8C)", "name_municipality": "日南市", "url_municipality": "https://ja.wikipedia.org/wiki/%E6%97%A5%E5%8D%97%E5%B8%82", "lat": 31.526389, "lon": 131.411111}, {"name_en": "oto_jima", "name_island": "乙島", "url_island": "https://ja.wikipedia.org/wiki/%E4%B9%99%E5%B3%B6", "name_municipality": "門川町", "url_municipality": "https://ja.wikipedia.org/wiki/%E9%96%80%E5%B7%9D%E7%94%BA", "lat": 32.466944, "lon": 131.668611}, {"name_en": "kou_jima", "name_island": "幸島", "url_island": "https://ja.wikipedia.org/wiki/%E5%B9%B8%E5%B3%B6", "name_municipality": "串間市", "url_municipality": "https://ja.wikipedia.org/wiki/%E4%B8%B2%E9%96%93%E5%B8%82", "lat": 31.452778, "lon": 131.376111}, {"name_en": "shimaura_tou", "name_island": "島浦島", "url_island": "https://ja.wikipedia.org/wiki/%E5%B3%B6%E6%B5%A6%E5%B3%B6", "name_municipality": "延岡市", "url_municipality": "https://ja.wikipedia.org/wiki/%E5%BB%B6%E5%B2%A1%E5%B8%82", "lat": 32.663889, "lon": 131.821667}, {"name_en": "tsukishima", "name_island": "築島", "url_island": "https://ja.wikipedia.org/wiki/%E7%AF%89%E5%B3%B6", "name_municipality": "串間市", "url_municipality": "https://ja.wikipedia.org/wiki/%E4%B8%B2%E9%96%93%E5%B8%82", "lat": 31.476422, "lon": 131.390175}, {"name_en": "birou_jima", "name_island": "枇榔島", "url_island": "https://ja.wikipedia.org/wiki/%E6%9E%87%E6%A6%94%E5%B3%B6", "name_municipality": "門川町", "url_municipality": "https://ja.wikipedia.org/wiki/%E9%96%80%E5%B7%9D%E7%94%BA", "lat": 32.465, "lon": 131.730833}, {"name_en": "kobirou_jima", "name_island": "小枇榔島", "url_island": "", "name_municipality": "門川町", "url_municipality": "https://ja.wikipedia.org/wiki/%E9%96%80%E5%B7%9D%E7%94%BA", "lat": 32.468186, "lon": 131.7297}, {"name_en": "takashima", "name_island": "高島", "url_island": "", "name_municipality": "延岡市", "url_municipality": "https://ja.wikipedia.org/wiki/%E5%BB%B6%E5%B2%A1%E5%B8%82", "lat": 32.68342, "lon": 131.844653}, {"name_en": "kinchaku_jima", "name_island": "巾着島", "url_island": "", "name_municipality": "宮崎市", "url_municipality": "https://ja.wikipedia.org/wiki/%E5%AE%AE%E5%B4%8E%E5%B8%82", "lat": 31.738824, "lon": 131.472006}, {"name_en": "koyou_jima", "name_island": "小楊島", "url_island": "", "name_municipality": "日南市", "url_municipality": "https://ja.wikipedia.org/wiki/%E6%97%A5%E5%8D%97%E5%B8%82", "lat": 31.551876, "lon": 131.412699}, {"name_en": "torishima", "name_island": "鳥島", "url_island": "", "name_municipality": "串間市", "url_municipality": "https://ja.wikipedia.org/wiki/%E4%B8%B2%E9%96%93%E5%B8%82", "lat": 31.453949, "lon": 131.386186}]}