{"title": "List of Islands of Goto", "title_ja": "五島列島の島の一覧", "reference": "wikipedia: 五島列島", "url_reference": "https://ja.wikipedia.org/wiki/Category:%E4%BA%94%E5%B3%B6%E5%88%97%E5%B3%B6", "islands": [{"name_en": "ukujima", "name_island": "宇久島", "url_island": "https://ja.wikipedia.org/wiki/%E5%AE%87%E4%B9%85%E5%B3%B6", "name_municipality": "佐世保市", "url_municipality": "https://ja.wikipedia.org/wiki/%E4%BD%90%E4%B8%96%E4%BF%9D%E5%B8%82", "lat": 33.269694, "lon": 129.112694}, {"name_en": "orishima", "name_island": "折島", "url_island": "https://ja.wikipedia.org/wiki/%E6%8A%98%E5%B3%B6", "name_municipality": "新上五島町", "url_municipality": "https://ja.wikipedia.org/wiki/%E6%96%B0%E4%B8%8A%E4%BA%94%E5%B3%B6%E7%94%BA", "lat": 32.988417, "lon": 129.023694}, {"name_en": "kashiragashima", "name_island": "頭ヶ島", "url_island": "https://ja.wikipedia.org/wiki/%E9%A0%AD%E3%83%B6%E5%B3%B6", "name_municipality": "新上五島町", "url_municipality": "https://ja.wikipedia.org/wiki/%E6%96%B0%E4%B8%8A%E4%BA%94%E5%B3%B6%E7%94%BA", "lat": 33.01225, "lon": 129.186833}, {"name_en": "kazurashima_nagasaki", "name_island": "葛島_長崎", "url_island": "https://ja.wikipedia.org/wiki/%E8%91%9B%E5%B3%B6_(%E9%95%B7%E5%B4%8E%E7%9C%8C)", "name_municipality": "五島市", "url_municipality": "https://ja.wikipedia.org/wiki/%E4%BA%94%E5%B3%B6%E5%B8%82", "lat": 32.889528, "lon": 128.914}, {"name_en": "kabashima", "name_island": "椛島", "url_island": "https://ja.wikipedia.org/wiki/%E6%A4%9B%E5%B3%B6", "name_municipality": "五島市", "url_municipality": "https://ja.wikipedia.org/wiki/%E4%BA%94%E5%B3%B6%E5%B8%82", "lat": 32.765111, "lon": 128.996278}, {"name_en": "kirino_kojima", "name_island": "桐ノ小島", "url_island": "https://ja.wikipedia.org/wiki/%E6%A1%90%E3%83%8E%E5%B0%8F%E5%B3%B6", "name_municipality": "新上五島町", "url_municipality": "https://ja.wikipedia.org/wiki/%E6%96%B0%E4%B8%8A%E4%BA%94%E5%B3%B6%E7%94%BA", "lat": 32.862789, "lon": 129.044264}, {"name_en": "kushijima", "name_island": "串島", "url_island": "https://ja.wikipedia.org/wiki/%E4%B8%B2%E5%B3%B6", "name_municipality": "新上五島町", "url_municipality": "https://ja.wikipedia.org/wiki/%E6%96%B0%E4%B8%8A%E4%BA%94%E5%B3%B6%E7%94%BA", "lat": 32.956944, "lon": 128.986944}, {"name_en": "saganoshima", "name_island": "嵯峨ノ島", "url_island": "https://ja.wikipedia.org/wiki/%E5%B5%AF%E5%B3%A8%E3%83%8E%E5%B3%B6", "name_municipality": "五島市", "url_municipality": "https://ja.wikipedia.org/wiki/%E4%BA%94%E5%B3%B6%E5%B8%82", "lat": 32.726667, "lon": 128.598056}, {"name_en": "shimayamashima_goto", "name_island": "島山島_五島", "url_island": "https://ja.wikipedia.org/wiki/%E5%B3%B6%E5%B1%B1%E5%B3%B6_(%E9%95%B7%E5%B4%8E%E7%9C%8C%E4%BA%94%E5%B3%B6%E5%B8%82)", "name_municipality": "五島市", "url_municipality": "https://ja.wikipedia.org/wiki/%E4%BA%94%E5%B3%B6%E5%B8%82", "lat": 32.641972, "lon": 128.6208}, {"name_en": "shuugen_jima", "name_island": "祝言島", "url_island": "https://ja.wikipedia.org/wiki/%E7%A5%9D%E8%A8%80%E5%B3%B6", "name_municipality": "新上五島町", "url_municipality": "https://ja.wikipedia.org/wiki/ %E6%96%B0%E4%B8%8A%E4%BA%94%E5%B3%B6%E7%94%BA", "lat": 33.010278, "lon": 129.016667}, {"name_en": "tsubura_jima", "name_island": "ツブラ島", "url_island": "https://ja.wikipedia.org/wiki/%E3%83%84%E3%83%96%E3%83%A9%E5%B3%B6", "name_municipality": "五島市", "url_municipality": "https://ja.wikipedia.org/wiki/%E4%BA%94%E5%B3%B6%E5%B8%82", "lat": 32.768636, "lon": 128.960225}, {"name_en": "terashima_sasebo", "name_island": "寺島_佐世保", "url_island": "https://ja.wikipedia.org/wiki/%E5%AF%BA%E5%B3%B6_(%E9%95%B7%E5%B4%8E%E7%9C%8C%E4%BD%90%E4%B8%96%E4%BF%9D%E5%B8%82)", "name_municipality": "佐世保市", "url_municipality": "https://ja.wikipedia.org/wiki/%E4%BD%90%E4%B8%96%E4%BF%9D%E5%B8%82", "lat": 33.250333, "lon": 129.06895}, {"name_en": "nakadoori_jima", "name_island": "中通島", "url_island": "https://ja.wikipedia.org/wiki/%E4%B8%AD%E9%80%9A%E5%B3%B6", "name_municipality": "新上五島町", "url_municipality": "https://ja.wikipedia.org/wiki/%E6%96%B0%E4%B8%8A%E4%BA%94%E5%B3%B6%E7%94%BA", "lat": 32.983333, "lon": 129.083333}, {"name_en": "narushima", "name_island": "奈留島", "url_island": "https://ja.wikipedia.org/wiki/%E5%A5%88%E7%95%99%E5%B3%B6", "name_municipality": "五島市", "url_municipality": "https://ja.wikipedia.org/wiki/%E4%BA%94%E5%B3%B6%E5%B8%82", "lat": 32.83775, "lon": 128.934861}, {"name_en": "hisaka_jima", "name_island": "久賀島", "url_island": "https://ja.wikipedia.org/wiki/%E4%B9%85%E8%B3%80%E5%B3%B6", "name_municipality": "五島市", "url_municipality": "https://ja.wikipedia.org/wiki/%E4%BA%94%E5%B3%B6%E5%B8%82", "lat": 32.783333, "lon": 128.866667}, {"name_en": "hinoshima", "name_island": "日島", "url_island": "https://ja.wikipedia.org/wiki/%E6%97%A5%E5%B3%B6", "name_municipality": "新上五島町", "url_municipality": "https://ja.wikipedia.org/wiki/%E6%96%B0%E4%B8%8A%E4%BA%94%E5%B3%B6%E7%94%BA", "lat": 32.924556, "lon": 128.963}, {"name_en": "himeshima_nagasaki", "name_island": "姫島_長崎", "url_island": "https://ja.wikipedia.org/wiki/%E5%A7%AB%E5%B3%B6_(%E9%95%B7%E5%B4%8E%E7%9C%8C)", "name_municipality": "五島市", "url_municipality": "https://ja.wikipedia.org/wiki/%E4%BA%94%E5%B3%B6%E5%B8%82", "lat": 32.806392, "lon": 128.678508}, {"name_en": "fukue_jima", "name_island": "福江島", "url_island": "https://ja.wikipedia.org/wiki/%E7%A6%8F%E6%B1%9F%E5%B3%B6", "name_municipality": "五島市", "url_municipality": "https://ja.wikipedia.org/wiki/%E4%BA%94%E5%B3%B6%E5%B8%82", "lat": 32.6955, "lon": 128.840806}, {"name_en": "ryouzegayra_shima", "name_island": "漁生浦島", "url_island": "https://ja.wikipedia.org/wiki/%E6%BC%81%E7%94%9F%E6%B5%A6%E5%B3%B6", "name_municipality": "新上五島町", "url_municipality": "https://ja.wikipedia.org/wiki/%E6%96%B0%E4%B8%8A%E4%BA%94%E5%B3%B6%E7%94%BA", "lat": 32.910556, "lon": 128.964194}, {"name_en": "warabi_kojima", "name_island": "蕨小島", "url_island": "https://ja.wikipedia.org/wiki/%E8%95%A8%E5%B0%8F%E5%B3%B6", "name_municipality": "五島市", "url_municipality": "https://ja.wikipedia.org/wiki/%E4%BA%94%E5%B3%B6%E5%B8%82", "lat": 32.827806, "lon": 128.89425}, {"name_en": "yaburogishima", "name_island": "藪路木島", "url_island": "https://ja.wikipedia.org/wiki/%E8%97%AA%E8%B7%AF%E6%9C%A8%E5%B3%B6", "name_municipality": "小値賀町", "url_municipality": "https://ja.wikipedia.org/wiki/%E5%B0%8F%E5%80%A4%E8%B3%80%E7%94%BA", "lat": 33.181778, "lon": 129.020083}, {"name_en": "shiroze", "name_island": "白瀬", "url_island": "https://ja.wikipedia.org/wiki/%E7%99%BD%E7%80%AC", "name_municipality": "小値賀町", "url_municipality": "https://ja.wikipedia.org/wiki/%E5%B0%8F%E5%80%A4%E8%B3%80%E7%94%BA", "lat": 33.183, "lon": 128.803417}]}