{"title": "List of places in Aichi", "title_ja": "愛知県の場所の一覧", "places": [{"name_en": "aichi", "name_place": "愛知県", "url_place": "https://ja.wikipedia.org/wiki/%E6%84%9B%E7%9F%A5%E7%9C%8C", "name_municipality": "愛知県", "url_municipality": "https://ja.wikipedia.org/wiki/%E6%84%9B%E7%9F%A5%E7%9C%8C", "lat": 35.18017, "lon": 136.9064}, {"name_en": "chubu＿airport", "name_place": "中部国際空港", "url_place": "https://ja.wikipedia.org/wiki/%E4%B8%AD%E9%83%A8%E5%9B%BD%E9%9A%9B%E7%A9%BA%E6%B8%AF", "name_municipality": "常滑市", "url_municipality": "https://ja.wikipedia.org/wiki/%E5%B8%B8%E6%BB%91%E5%B8%82", "lat": 34.858333, "lon": 136.805278}, {"name_en": "port_island_aichi", "name_place": "ポートアイランド_愛知", "url_place": "https://ja.wikipedia.org/wiki/%E3%83%9D%E3%83%BC%E3%83%88%E3%82%A2%E3%82%A4%E3%83%A9%E3%83%B3%E3%83%89_(%E6%84%9B%E7%9F%A5%E7%9C%8C)", "name_municipality": "愛知県", "url_municipality": "https://ja.wikipedia.org/wiki/%E6%84%9B%E7%9F%A5%E7%9C%8C", "lat": 35.007361, "lon": 136.812389}, {"name_en": "yarigasaki", "name_place": "鎗ケ崎", "url_place": "", "name_municipality": "田原市", "url_municipality": "https://ja.wikipedia.org/wiki/%E7%94%B0%E5%8E%9F%E5%B8%82", "lat": 34.650585, "lon": 137.125972}, {"name_en": "jinnofutouchou", "name_place": "神野ふ頭町", "url_place": "https://ja.wikipedia.org/wiki/%E7%A5%9E%E9%87%8E%E3%81%B5%E9%A0%AD%E7%94%BA", "name_municipality": "豊橋市", "url_municipality": "https://ja.wikipedia.org/wiki/%E8%B1%8A%E6%A9%8B%E5%B8%82", "lat": 34.740161, "lon": 137.315017}, {"name_en": "mitochou", "name_place": "御津町", "url_place": "https://ja.wikipedia.org/wiki/%E5%BE%A1%E6%B4%A5%E7%94%BA_(%E6%84%9B%E7%9F%A5%E7%9C%8C)", "name_municipality": "豊川市", "url_municipality": "https://ja.wikipedia.org/wiki/%E8%B1%8A%E5%B7%9D%E5%B8%82", "lat": 34.803018, "lon": 137.305831}, {"name_en": "kuniura_kou", "name_place": "衣浦港", "url_place": "https://ja.wikipedia.org/wiki/%E8%A1%A3%E6%B5%A6%E6%B8%AF", "name_municipality": "碧南市", "url_municipality": "https://ja.wikipedia.org/wiki/%E7%A2%A7%E5%8D%97%E5%B8%82", "lat": 34.826217, "lon": 136.951822}, {"name_en": "midorihama_chou", "name_place": "緑浜町", "url_place": "", "name_municipality": "知多市", "url_municipality": "https://ja.wikipedia.org/wiki/%E7%9F%A5%E5%A4%9A%E5%B8%82", "lat": 34.956827, "lon": 136.818851}, {"name_en": "tobishima_futou", "name_place": "飛島埠頭", "url_place": "", "name_municipality": "名古屋市", "url_municipality": "https://ja.wikipedia.org/wiki/%E5%90%8D%E5%8F%A4%E5%B1%8B%E5%B8%82", "lat": 35.037469, "lon": 136.823108}, {"name_en": "kinjyou_futou", "name_place": "金城ふ頭", "url_place": "https://ja.wikipedia.org/wiki/%E9%87%91%E5%9F%8E%E3%81%B5%E9%A0%AD", "name_municipality": "名古屋市", "url_municipality": "https://ja.wikipedia.org/wiki/%E5%90%8D%E5%8F%A4%E5%B1%8B%E5%B8%82", "lat": 35.048285, "lon": 136.84608}, {"name_en": "shiomichou_nagoya", "name_place": "潮見町_名古屋", "url_place": "https://ja.wikipedia.org/wiki/%E6%BD%AE%E8%A6%8B%E7%94%BA_(%E5%90%8D%E5%8F%A4%E5%B1%8B%E5%B8%82)", "name_municipality": "名古屋市", "url_municipality": "https://ja.wikipedia.org/wiki/%E5%90%8D%E5%8F%A4%E5%B1%8B%E5%B8%82", "lat": 35.06145, "lon": 136.873631}]}