{"title": "List of Islands in Okinawa", "title_ja": "沖縄県の島の一覧", "reference": "wikipedia: 沖縄県の島", "url_reference": "https://ja.wikipedia.org/wiki/Category:%E6%B2%96%E7%B8%84%E7%9C%8C%E3%81%AE%E5%B3%B6", "islands": [{"name_en": "nappu_tou", "name_island": "ナップ島", "url_island": "", "name_municipality": "恩納村", "url_municipality": "https://ja.wikipedia.org/wiki/%E6%81%A9%E7%B4%8D%E6%9D%91", "lat": 26.493391, "lon": 127.837529}, {"name_en": "amuro_jima", "name_island": "安室島", "url_island": "", "name_municipality": "座間味村", "url_municipality": "https://ja.wikipedia.org/wiki/%E5%BA%A7%E9%96%93%E5%91%B3%E6%9D%91", "lat": 26.204966, "lon": 127.312351}, {"name_en": "gahi_jima", "name_island": "嘉比島", "url_island": "", "name_municipality": "座間味村", "url_municipality": "https://ja.wikipedia.org/wiki/%E5%BA%A7%E9%96%93%E5%91%B3%E6%9D%91", "lat": 26.218341, "lon": 127.286014}, {"name_en": "agenashiku_jima", "name_island": "安慶名敷島", "url_island": "", "name_municipality": "座間味村", "url_municipality": "https://ja.wikipedia.org/wiki/%E5%BA%A7%E9%96%93%E5%91%B3%E6%9D%91", "lat": 26.215312, "lon": 127.295007}, {"name_en": "nagannu_jima", "name_island": "ナガンヌ島", "url_island": "", "name_municipality": "渡嘉敷村", "url_municipality": "https://ja.wikipedia.org/wiki/%E6%B8%A1%E5%98%89%E6%95%B7%E6%9D%91", "lat": 26.26545, "lon": 127.547169}, {"name_en": "kamiyamajima_1", "name_island": "神山島_1", "url_island": "", "name_municipality": "渡嘉敷村", "url_municipality": "https://ja.wikipedia.org/wiki/%E6%B8%A1%E5%98%89%E6%95%B7%E6%9D%91", "lat": 26.260753, "lon": 127.576897}, {"name_en": "kamiyamajima_2", "name_island": "神山島_2", "url_island": "", "name_municipality": "渡嘉敷村", "url_municipality": "https://ja.wikipedia.org/wiki/%E6%B8%A1%E5%98%89%E6%95%B7%E6%9D%91", "lat": 26.262274, "lon": 127.582206}, {"name_en": "nakajima", "name_island": "中島", "url_island": "", "name_municipality": "渡嘉敷村", "url_municipality": "https://ja.wikipedia.org/wiki/%E6%B8%A1%E5%98%89%E6%95%B7%E6%9D%91", "lat": 26.231084, "lon": 127.45091}, {"name_en": "hatejima", "name_island": "ハテ島", "url_island": "", "name_municipality": "渡嘉敷村", "url_municipality": "https://ja.wikipedia.org/wiki/%E6%B8%A1%E5%98%89%E6%95%B7%E6%9D%91", "lat": 26.240005, "lon": 127.45716}, {"name_en": "kuroshima", "name_island": "黒島", "url_island": "", "name_municipality": "渡嘉敷村", "url_municipality": "https://ja.wikipedia.org/wiki/%E6%B8%A1%E5%98%89%E6%95%B7%E6%9D%91", "lat": 26.252217, "lon": 127.40445}, {"name_en": "unshima", "name_island": "ウン島", "url_island": "", "name_municipality": "渡嘉敷村", "url_municipality": "https://ja.wikipedia.org/wiki/%E6%B8%A1%E5%98%89%E6%95%B7%E6%9D%91", "lat": 26.142544, "lon": 127.34316}, {"name_en": "hanare_jima", "name_island": "離島", "url_island": "", "name_municipality": "渡嘉敷村", "url_municipality": "https://ja.wikipedia.org/wiki/%E6%B8%A1%E5%98%89%E6%95%B7%E6%9D%91", "lat": 26.161896, "lon": 127.338429}, {"name_en": "gusuku_jima", "name_island": "城島", "url_island": "", "name_municipality": "渡嘉敷村", "url_municipality": "https://ja.wikipedia.org/wiki/%E6%B8%A1%E5%98%89%E6%95%B7%E6%9D%91", "lat": 26.198427, "lon": 127.377972}, {"name_en": "gishippu_jima", "name_island": "儀志布島", "url_island": "", "name_municipality": "渡嘉敷村", "url_municipality": "https://ja.wikipedia.org/wiki/%E6%B8%A1%E5%98%89%E6%95%B7%E6%9D%91", "lat": 26.230123, "lon": 127.36914}, {"name_en": "menuhama", "name_island": "メーヌ浜", "url_island": "", "name_municipality": "久米島町", "url_municipality": "https://ja.wikipedia.org/wiki/%E4%B9%85%E7%B1%B3%E5%B3%B6%E7%94%BA", "lat": 26.34, "lon": 126.862888}, {"name_en": "nakanohama", "name_island": "ナカノ浜", "url_island": "", "name_municipality": "久米島町", "url_municipality": "https://ja.wikipedia.org/wiki/%E4%B9%85%E7%B1%B3%E5%B3%B6%E7%94%BA", "lat": 26.34539, "lon": 126.87348}, {"name_en": "hatenohama", "name_island": "ハテノ浜", "url_island": "", "name_municipality": "久米島町", "url_municipality": "https://ja.wikipedia.org/wiki/%E4%B9%85%E7%B1%B3%E5%B3%B6%E7%94%BA", "lat": 26.348903, "lon": 126.890376}, {"name_en": "shimojishima", "name_island": "下地島", "url_island": "https://ja.wikipedia.org/wiki/%E4%B8%8B%E5%9C%B0%E5%B3%B6", "name_municipality": "宮古島市", "url_municipality": "https://ja.wikipedia.org/wiki/%E5%AE%AE%E5%8F%A4%E5%B3%B6%E5%B8%82", "lat": 24.81911, "lon": 125.153946}, {"name_en": "ikema_jima", "name_island": "池間島", "url_island": "https://ja.wikipedia.org/wiki/%E6%B1%A0%E9%96%93%E5%B3%B6", "name_municipality": "宮古島市", "url_municipality": "https://ja.wikipedia.org/wiki/%E5%AE%AE%E5%8F%A4%E5%B3%B6%E5%B8%82", "lat": 24.930538, "lon": 125.2432726}, {"name_en": "aragusuku_kamijijima", "name_island": "新城_上地島", "url_island": "", "name_municipality": "竹富町", "url_municipality": "https://ja.wikipedia.org/wiki/%E7%AB%B9%E5%AF%8C%E7%94%BA", "lat": 24.234084, "lon": 123.945129}, {"name_en": "aragusuku_shimojijima", "name_island": "新城_下地島", "url_island": "", "name_municipality": "竹富町", "url_municipality": "https://ja.wikipedia.org/wiki/%E7%AB%B9%E5%AF%8C%E7%94%BA", "lat": 24.215478, "lon": 123.929546}, {"name_en": "akabanare_jima", "name_island": "赤離島", "url_island": "https://ja.wikipedia.org/wiki/%E8%B5%A4%E9%9B%A2%E5%B3%B6", "name_municipality": "竹富町", "url_municipality": "https://ja.wikipedia.org/wiki/%E7%AB%B9%E5%AF%8C%E7%94%BA", "lat": 24.405278, "lon": 123.868056}, {"name_en": "aragusuku_jima", "name_island": "新城島", "url_island": "https://ja.wikipedia.org/wiki/%E6%96%B0%E5%9F%8E%E5%B3%B6", "name_municipality": "竹富町", "url_municipality": "https://ja.wikipedia.org/wiki/%E7%AB%B9%E5%AF%8C%E7%94%BA", "lat": 24.233889, "lon": 123.944444}, {"name_en": "ishigaki_jima", "name_island": "石垣島", "url_island": "https://ja.wikipedia.org/wiki/%E7%9F%B3%E5%9E%A3%E5%B3%B6", "name_municipality": "石垣市", "url_municipality": "https://ja.wikipedia.org/wiki/%E7%9F%B3%E5%9E%A3%E5%B8%82", "lat": 24.432764, "lon": 124.205327}, {"name_en": "iriomote_jima", "name_island": "西表島", "url_island": "https://ja.wikipedia.org/wiki/%E8%A5%BF%E8%A1%A8%E5%B3%B6", "name_municipality": "竹富町", "url_municipality": "https://ja.wikipedia.org/wiki/%E7%AB%B9%E5%AF%8C%E7%94%BA", "lat": 24.2925, "lon": 123.861944}, {"name_en": "uchibanare_jima", "name_island": "内離島", "url_island": "https://ja.wikipedia.org/wiki/%E5%86%85%E9%9B%A2%E5%B3%B6", "name_municipality": "竹富町", "url_municipality": "https://ja.wikipedia.org/wiki/%E7%AB%B9%E5%AF%8C%E7%94%BA", "lat": 24.350833, "lon": 123.735}, {"name_en": "ubanare_jima", "name_island": "ウ離島", "url_island": "https://ja.wikipedia.org/wiki/%E3%82%A6%E9%9B%A2%E5%B3%B6", "name_municipality": "竹富町", "url_municipality": "https://ja.wikipedia.org/wiki/%E7%AB%B9%E5%AF%8C%E7%94%BA", "lat": 24.366944, "lon": 123.942778}, {"name_en": "kabirawan_kojima", "name_island": "川平湾小島", "url_island": "https://ja.wikipedia.org/wiki/%E5%B7%9D%E5%B9%B3%E6%B9%BE%E5%B0%8F%E5%B3%B6", "name_municipality": "石垣市", "url_municipality": "https://ja.wikipedia.org/wiki/%E7%9F%B3%E5%9E%A3%E5%B8%82", "lat": 24.457778, "lon": 124.149167}, {"name_en": "kayama_jima", "name_island": "嘉弥真島", "url_island": "https://ja.wikipedia.org/wiki/%E5%98%89%E5%BC%A5%E7%9C%9F%E5%B3%B6", "name_municipality": "竹富町", "url_municipality": "https://ja.wikipedia.org/wiki/%E7%AB%B9%E5%AF%8C%E7%94%BA", "lat": 24.363333, "lon": 123.999444}, {"name_en": "kuroshima_taketomi", "name_island": "黒島_竹富", "url_island": "https://ja.wikipedia.org/wiki/%E9%BB%92%E5%B3%B6_(%E6%B2%96%E7%B8%84%E7%9C%8C%E7%AB%B9%E5%AF%8C%E7%94%BA)", "name_municipality": "竹富町", "url_municipality": "https://ja.wikipedia.org/wiki/%E7%AB%B9%E5%AF%8C%E7%94%BA", "lat": 24.239444, "lon": 124.014722}, {"name_en": "kohama_jima", "name_island": "小浜島", "url_island": "https://ja.wikipedia.org/wiki/%E5%B0%8F%E6%B5%9C%E5%B3%B6", "name_municipality": "竹富町", "url_municipality": "https://ja.wikipedia.org/wiki/%E7%AB%B9%E5%AF%8C%E7%94%BA", "lat": 24.341111, "lon": 123.980833}, {"name_en": "sotobanare_jima", "name_island": "外離島", "url_island": "https://ja.wikipedia.org/wiki/%E5%A4%96%E9%9B%A2%E5%B3%B6", "name_municipality": "竹富町", "url_municipality": "https://ja.wikipedia.org/wiki/%E7%AB%B9%E5%AF%8C%E7%94%BA", "lat": 24.369722, "lon": 123.718333}, {"name_en": "sonaichizaki", "name_island": "祖納地崎", "url_island": "https://ja.wikipedia.org/wiki/%E7%A5%96%E7%B4%8D%E5%9C%B0%E5%B4%8E", "name_municipality": "与那国町", "url_municipality": "https://ja.wikipedia.org/wiki/%E4%B8%8E%E9%82%A3%E5%9B%BD%E7%94%BA", "lat": 24.472361, "lon": 123.002083}, {"name_en": "daichibanari_jima", "name_island": "大地離島", "url_island": "https://ja.wikipedia.org/wiki/%E5%A4%A7%E5%9C%B0%E9%9B%A2%E5%B3%B6", "name_municipality": "石垣市", "url_municipality": "https://ja.wikipedia.org/wiki/%E7%9F%B3%E5%9E%A3%E5%B8%82", "lat": 24.617222, "lon": 124.3175}, {"name_en": "taketomi_jima", "name_island": "竹富島", "url_island": "https://ja.wikipedia.org/wiki/%E7%AB%B9%E5%AF%8C%E5%B3%B6", "name_municipality": "竹富町", "url_municipality": "https://ja.wikipedia.org/wiki/%E7%AB%B9%E5%AF%8C%E7%94%BA", "lat": 24.329722, "lon": 124.086667}, {"name_en": "tuishi", "name_island": "トゥイシ", "url_island": "https://ja.wikipedia.org/wiki/%E3%83%88%E3%82%A5%E3%82%A4%E3%82%B7", "name_municipality": "与那国町", "url_municipality": "https://ja.wikipedia.org/wiki/%E4%B8%8E%E9%82%A3%E5%9B%BD%E7%94%BA", "lat": 24.451389, "lon": 122.9325}, {"name_en": "nakanokamishima", "name_island": "仲の神島", "url_island": "https://ja.wikipedia.org/wiki/%E4%BB%B2%E3%81%AE%E7%A5%9E%E5%B3%B6", "name_municipality": "竹富町", "url_municipality": "https://ja.wikipedia.org/wiki/%E7%AB%B9%E5%AF%8C%E7%94%BA", "lat": 24.195, "lon": 123.563889}, {"name_en": "hateruma_jima", "name_island": "波照間島", "url_island": "https://ja.wikipedia.org/wiki/%E6%B3%A2%E7%85%A7%E9%96%93%E5%B3%B6", "name_municipality": "竹富町", "url_municipality": "https://ja.wikipedia.org/wiki/%E7%AB%B9%E5%AF%8C%E7%94%BA", "lat": 24.059167, "lon": 123.7825}, {"name_en": "hatopanari_jima", "name_island": "鳩離島", "url_island": "https://ja.wikipedia.org/wiki/%E9%B3%A9%E9%9B%A2%E5%B3%B6", "name_municipality": "竹富町", "url_municipality": "https://ja.wikipedia.org/wiki/%E7%AB%B9%E5%AF%8C%E7%94%BA", "lat": 24.419056, "lon": 123.821111}, {"name_en": "hatoma_jima", "name_island": "鳩間島", "url_island": "https://ja.wikipedia.org/wiki/%E9%B3%A9%E9%96%93%E5%B3%B6", "name_municipality": "竹富町", "url_municipality": "https://ja.wikipedia.org/wiki/%E7%AB%B9%E5%AF%8C%E7%94%BA", "lat": 24.472778, "lon": 123.82}, {"name_en": "hamajima_okinawa", "name_island": "浜島_沖縄", "url_island": "https://ja.wikipedia.org/wiki/%E6%B5%9C%E5%B3%B6_(%E6%B2%96%E7%B8%84%E7%9C%8C)", "name_municipality": "竹富町", "url_municipality": "https://ja.wikipedia.org/wiki/%E7%AB%B9%E5%AF%8C%E7%94%BA", "lat": 24.356306, "lon": 124.039333}, {"name_en": "pini_jima", "name_island": "平西島", "url_island": "https://ja.wikipedia.org/wiki/%E5%B9%B3%E8%A5%BF%E5%B3%B6", "name_municipality": "竹富町", "url_municipality": "https://ja.wikipedia.org/wiki/%E7%AB%B9%E5%AF%8C%E7%94%BA", "lat": 24.322778, "lon": 123.915}, {"name_en": "hirabanari_jima", "name_island": "平離島", "url_island": "https://ja.wikipedia.org/wiki/%E5%B9%B3%E9%9B%A2%E5%B3%B6", "name_municipality": "石垣市", "url_municipality": "https://ja.wikipedia.org/wiki/%E7%9F%B3%E5%9E%A3%E5%B8%82", "lat": 24.484444, "lon": 124.116111}, {"name_en": "majipanari", "name_island": "マジパナリ", "url_island": "https://ja.wikipedia.org/wiki/%E3%83%9E%E3%82%B8%E3%83%91%E3%83%8A%E3%83%AA", "name_municipality": "石垣市", "url_municipality": "https://ja.wikipedia.org/wiki/%E7%9F%B3%E5%9E%A3%E5%B8%82", "lat": 24.463889, "lon": 124.146667}, {"name_en": "yubu_jima", "name_island": "由布島", "url_island": "https://ja.wikipedia.org/wiki/%E7%94%B1%E5%B8%83%E5%B3%B6", "name_municipality": "竹富町", "url_municipality": "https://ja.wikipedia.org/wiki/%E7%AB%B9%E5%AF%8C%E7%94%BA", "lat": 24.342778, "lon": 123.933611}, {"name_en": "yonsguri_jima", "name_island": "与那国島", "url_island": "https://ja.wikipedia.org/wiki/%E4%B8%8E%E9%82%A3%E5%9B%BD%E5%B3%B6", "name_municipality": "与那国町", "url_municipality": "https://ja.wikipedia.org/wiki/%E4%B8%8E%E9%82%A3%E5%9B%BD%E7%94%BA", "lat": 24.468333, "lon": 123.004722}, {"name_en": "uotauri_jima", "name_island": "魚釣島", "url_island": "https://ja.wikipedia.org/wiki/%E9%AD%9A%E9%87%A3%E5%B3%B6", "name_municipality": "石垣市", "url_municipality": "https://ja.wikipedia.org/wiki/%E7%9F%B3%E5%9E%A3%E5%B8%82", "lat": 25.7425, "lon": 123.47138}, {"name_en": "okinokitaiwa", "name_island": "沖の北岩", "url_island": "https://ja.wikipedia.org/wiki/%E6%B2%96%E3%81%AE%E5%8C%97%E5%B2%A9", "name_municipality": "石垣市", "url_municipality": "https://ja.wikipedia.org/wiki/%E7%9F%B3%E5%9E%A3%E5%B8%82", "lat": 25.781111, "lon": 123.544167}, {"name_en": "okinominamiiwa", "name_island": "沖の南岩", "url_island": "https://ja.wikipedia.org/wiki/%E6%B2%96%E3%81%AE%E5%8D%97%E5%B2%A9", "name_municipality": "石垣市", "url_municipality": "https://ja.wikipedia.org/wiki/%E7%9F%B3%E5%9E%A3%E5%B8%82", "lat": 25.755278, "lon": 123.566389}, {"name_en": "kitakojima", "name_island": "北小島", "url_island": "https://ja.wikipedia.org/wiki/%E5%8C%97%E5%B0%8F%E5%B3%B6", "name_municipality": "石垣市", "url_municipality": "https://ja.wikipedia.org/wiki/%E7%9F%B3%E5%9E%A3%E5%B8%82", "lat": 25.731944, "lon": 123.540556}, {"name_en": "kitakojima_kuba", "name_island": "北小島_久場", "url_island": "https://ja.wikipedia.org/wiki/%E5%8C%97%E5%B0%8F%E5%B3%B6_(%E6%B2%96%E7%B8%84%E7%9C%8C%E7%9F%B3%E5%9E%A3%E5%B8%82%E4%B9%85%E5%A0%B4%E5%B3%B6%E4%BB%98%E8%BF%91)", "name_municipality": "石垣市", "url_municipality": "https://ja.wikipedia.org/wiki/%E7%9F%B3%E5%9E%A3%E5%B8%82", "lat": 25.928944, "lon": 123.681639}, {"name_en": "kitakojima_taishou", "name_island": "北小島_大正", "url_island": "https://ja.wikipedia.org/wiki/%E5%8C%97%E5%B0%8F%E5%B3%B6_(%E6%B2%96%E7%B8%84%E7%9C%8C%E7%9F%B3%E5%9E%A3%E5%B8%82%E5%A4%A7%E6%AD%A3%E5%B3%B6%E4%BB%98%E8%BF%91)", "name_municipality": "石垣市", "url_municipality": "https://ja.wikipedia.org/wiki/%E7%9F%B3%E5%9E%A3%E5%B8%82", "lat": 25.924444, "lon": 124.559333}, {"name_en": "kubajima_ishigaki", "name_island": "久場島_石垣", "url_island": "https://ja.wikipedia.org/wiki/%E4%B9%85%E5%A0%B4%E5%B3%B6_(%E6%B2%96%E7%B8%84%E7%9C%8C%E7%9F%B3%E5%9E%A3%E5%B8%82)", "name_municipality": "石垣市", "url_municipality": "https://ja.wikipedia.org/wiki/%E7%9F%B3%E5%9E%A3%E5%B8%82", "lat": 25.923333, "lon": 123.680833}, {"name_en": "taishou_jima", "name_island": "大正島", "url_island": "https://ja.wikipedia.org/wiki/%E5%A4%A7%E6%AD%A3%E5%B3%B6", "name_municipality": "石垣市", "url_municipality": "https://ja.wikipedia.org/wiki/%E7%9F%B3%E5%9E%A3%E5%B8%82", "lat": 25.9225, "lon": 124.56}, {"name_en": "tobise", "name_island": "飛瀬", "url_island": "https://ja.wikipedia.org/wiki/%E9%A3%9B%E7%80%AC", "name_municipality": "石垣市", "url_municipality": "https://ja.wikipedia.org/wiki/%E7%9F%B3%E5%9E%A3%E5%B8%82", "lat": 25.735556, "lon": 123.506111}, {"name_en": "hokusei_kojima", "name_island": "北西小島", "url_island": "https://ja.wikipedia.org/wiki/%E5%8C%97%E8%A5%BF%E5%B0%8F%E5%B3%B6", "name_municipality": "石垣市", "url_municipality": "https://ja.wikipedia.org/wiki/%E7%9F%B3%E5%9E%A3%E5%B8%82", "lat": 25.928056, "lon": 123.679028}, {"name_en": "hokutou_kojima", "name_island": "北東小島", "url_island": "https://ja.wikipedia.org/wiki/%E5%8C%97%E6%9D%B1%E5%B0%8F%E5%B3%B6", "name_municipality": "石垣市", "url_municipality": "https://ja.wikipedia.org/wiki/%E7%9F%B3%E5%9E%A3%E5%B8%82", "lat": 25.928722, "lon": 123.684278}, {"name_en": "minamikojima", "name_island": "南小島", "url_island": "https://ja.wikipedia.org/wiki/%E5%8D%97%E5%B0%8F%E5%B3%B6", "name_municipality": "石垣市", "url_municipality": "https://ja.wikipedia.org/wiki/%E7%9F%B3%E5%9E%A3%E5%B8%82", "lat": 25.723056, "lon": 123.546389}, {"name_en": "okidaitou_jima", "name_island": "沖大東島", "url_island": "https://ja.wikipedia.org/wiki/%E6%B2%96%E5%A4%A7%E6%9D%B1%E5%B3%B6", "name_municipality": "北大東村", "url_municipality": "https://ja.wikipedia.org/wiki/%E5%8C%97%E5%A4%A7%E6%9D%B1%E6%9D%91", "lat": 24.465833, "lon": 131.189722}, {"name_en": "kitadaitou_jima", "name_island": "北大東島", "url_island": "https://ja.wikipedia.org/wiki/%E5%8C%97%E5%A4%A7%E6%9D%B1%E5%B3%B6", "name_municipality": "北大東村", "url_municipality": "https://ja.wikipedia.org/wiki/%E5%8C%97%E5%A4%A7%E6%9D%B1%E6%9D%91", "lat": 25.944722, "lon": 131.306389}, {"name_en": "minamidaitou_jima", "name_island": "南大東島", "url_island": "https://ja.wikipedia.org/wiki/%E5%8D%97%E5%A4%A7%E6%9D%B1%E5%B3%B6", "name_municipality": "南大東村", "url_municipality": "https://ja.wikipedia.org/wiki/%E5%8D%97%E5%A4%A7%E6%9D%B1%E6%9D%91", "lat": 25.845556, "lon": 131.244722}, {"name_en": "aka_jima", "name_island": "阿嘉島", "url_island": "https://ja.wikipedia.org/wiki/%E9%98%BF%E5%98%89%E5%B3%B6", "name_municipality": "座間味村", "url_municipality": "https://ja.wikipedia.org/wiki/%E5%BA%A7%E9%96%93%E5%91%B3%E6%9D%91", "lat": 26.199722, "lon": 127.280833}, {"name_en": "oujima_zamami", "name_island": "奥武島_座間味", "url_island": "https://ja.wikipedia.org/wiki/%E5%A5%A5%E6%AD%A6%E5%B3%B6_(%E6%B2%96%E7%B8%84%E7%9C%8C%E5%BA%A7%E9%96%93%E5%91%B3%E6%9D%91)", "name_municipality": "座間味村", "url_municipality": "https://ja.wikipedia.org/wiki/%E5%BA%A7%E9%96%93%E5%91%B3%E6%9D%91", "lat": 26.153333, "lon": 127.271111}, {"name_en": "kubajima_zamami", "name_island": "久場島_座間味", "url_island": "https://ja.wikipedia.org/wiki/%E4%B9%85%E5%A0%B4%E5%B3%B6_(%E6%B2%96%E7%B8%84%E7%9C%8C%E5%BA%A7%E9%96%93%E5%91%B3%E6%9D%91)", "name_municipality": "座間味村", "url_municipality": "https://ja.wikipedia.org/wiki/%E5%BA%A7%E9%96%93%E5%91%B3%E6%9D%91", "lat": 26.171944, "lon": 127.237778}, {"name_en": "keiseshima", "name_island": "慶伊瀬島", "url_island": "https://ja.wikipedia.org/wiki/%E6%85%B6%E4%BC%8A%E7%80%AC%E5%B3%B6", "name_municipality": "渡嘉敷村", "url_municipality": "https://ja.wikipedia.org/wiki/%E6%B8%A1%E5%98%89%E6%95%B7%E6%9D%91", "lat": 26.262222, "lon": 127.564444}, {"name_en": "geruma_jima", "name_island": "慶留間島", "url_island": "https://ja.wikipedia.org/wiki/%E6%85%B6%E7%95%99%E9%96%93%E5%B3%B6", "name_municipality": "座間味村", "url_municipality": "https://ja.wikipedia.org/wiki/%E5%BA%A7%E9%96%93%E5%91%B3%E6%9D%91", "lat": 26.1825, "lon": 127.288611}, {"name_en": "xamami_jima", "name_island": "座間味島", "url_island": "https://ja.wikipedia.org/wiki/%E5%BA%A7%E9%96%93%E5%91%B3%E5%B3%B6", "name_municipality": "座間味村", "url_municipality": "https://ja.wikipedia.org/wiki/%E5%BA%A7%E9%96%93%E5%91%B3%E6%9D%91", "lat": 26.229167, "lon": 127.303333}, {"name_en": "tokashiki_jima", "name_island": "渡嘉敷島", "url_island": "https://ja.wikipedia.org/wiki/%E6%B8%A1%E5%98%89%E6%95%B7%E5%B3%B6", "name_municipality": "渡嘉敷村", "url_municipality": "https://ja.wikipedia.org/wiki/%E6%B8%A1%E5%98%89%E6%95%B7%E6%9D%91", "lat": 26.197778, "lon": 127.364444}, {"name_en": "fuka_jima", "name_island": "外地島", "url_island": "https://ja.wikipedia.org/wiki/%E5%A4%96%E5%9C%B0%E5%B3%B6", "name_municipality": "座間味村", "url_municipality": "https://ja.wikipedia.org/wiki/%E5%BA%A7%E9%96%93%E5%91%B3%E6%9D%91", "lat": 26.168611, "lon": 127.292778}, {"name_en": "maejima_okinawa", "name_island": "前島_沖縄", "url_island": "https://ja.wikipedia.org/wiki/%E5%89%8D%E5%B3%B6_(%E6%B2%96%E7%B8%84%E7%9C%8C)", "name_municipality": "渡嘉敷村", "url_municipality": "https://ja.wikipedia.org/wiki/%E6%B8%A1%E5%98%89%E6%95%B7%E6%9D%91", "lat": 26.211111, "lon": 127.44638}, {"name_en": "yakabi_jima", "name_island": "屋嘉比島", "url_island": "https://ja.wikipedia.org/wiki/%E5%B1%8B%E5%98%89%E6%AF%94%E5%B3%B6", "name_municipality": "座間味村", "url_municipality": "https://ja.wikipedia.org/wiki/%E5%BA%A7%E9%96%93%E5%91%B3%E6%9D%91", "lat": 26.215833, "lon": 127.244444}, {"name_en": "aguni_jima", "name_island": "粟国島", "url_island": "https://ja.wikipedia.org/wiki/%E7%B2%9F%E5%9B%BD%E5%B3%B6", "name_municipality": "粟国村", "url_municipality": "https://ja.wikipedia.org/wiki/%E7%B2%9F%E5%9B%BD%E6%9D%91", "lat": 26.582222, "lon": 127.226667}, {"name_en": "tonaki_jima", "name_island": "渡名喜島", "url_island": "https://ja.wikipedia.org/wiki/%E6%B8%A1%E5%90%8D%E5%96%9C%E5%B3%B6", "name_municipality": "渡名喜村", "url_municipality": "https://ja.wikipedia.org/wiki/%E6%B8%A1%E5%90%8D%E5%96%9C%E6%9D%91", "lat": 26.365278, "lon": 127.144444}, {"name_en": "irisuna_jima", "name_island": "入砂島", "url_island": "https://ja.wikipedia.org/wiki/%E5%85%A5%E7%A0%82%E5%B3%B6", "name_municipality": "渡名喜村", "url_municipality": "https://ja.wikipedia.org/wiki/%E6%B8%A1%E5%90%8D%E5%96%9C%E6%9D%91", "lat": 26.385556, "lon": 127.1025}, {"name_en": "okinawa_honntou", "name_island": "沖縄本島", "url_island": "https://ja.wikipedia.org/wiki/%E6%B2%96%E7%B8%84%E6%9C%AC%E5%B3%B6", "name_municipality": "沖縄県", "url_municipality": "https://ja.wikipedia.org/wiki/%E6%B2%96%E7%B8%84%E7%9C%8C", "lat": 26.2125, "lon": 127.681111}, {"name_en": "adaka_jima", "name_island": "安田ヶ島", "url_island": "https://ja.wikipedia.org/wiki/%E5%AE%89%E7%94%B0%E3%83%B6%E5%B3%B6", "name_municipality": "国頭村", "url_municipality": "https://ja.wikipedia.org/wiki/%E5%9B%BD%E9%A0%AD%E6%9D%91", "lat": 26.746667, "lon": 128.332778}, {"name_en": "abu_ooru_shima", "name_island": "安部オール島", "url_island": "https://ja.wikipedia.org/wiki/%E5%AE%89%E9%83%A8%E3%82%AA%E3%83%BC%E3%83%AB%E5%B3%B6", "name_municipality": "名護市", "url_municipality": "https://ja.wikipedia.org/wiki/%E5%90%8D%E8%AD%B7%E5%B8%82", "lat": 26.53275, "lon": 128.098528}, {"name_en": "iejima", "name_island": "伊江島", "url_island": "https://ja.wikipedia.org/wiki/%E4%BC%8A%E6%B1%9F%E5%B3%B6", "name_municipality": "伊江村", "url_municipality": "https://ja.wikipedia.org/wiki/%E4%BC%8A%E6%B1%9F%E6%9D%91", "lat": 26.716111, "lon": 127.790278}, {"name_en": "ioutorishima", "name_island": "硫黄鳥島", "url_island": "https://ja.wikipedia.org/wiki/%E7%A1%AB%E9%BB%84%E9%B3%A5%E5%B3%B6", "name_municipality": "久米島町", "url_municipality": "https://ja.wikipedia.org/wiki/%E4%B9%85%E7%B1%B3%E5%B3%B6%E7%94%BA", "lat": 27.874167, "lon": 128.226389}, {"name_en": "ikei_jima", "name_island": "伊計島", "url_island": "https://ja.wikipedia.org/wiki/%E4%BC%8A%E8%A8%88%E5%B3%B6", "name_municipality": "うるま市", "url_municipality": "https://ja.wikipedia.org/wiki/%E3%81%86%E3%82%8B%E3%81%BE%E5%B8%82", "lat": 26.393889, "lon": 127.9975}, {"name_en": "ukibaru_jima", "name_island": "浮原島", "url_island": "https://ja.wikipedia.org/wiki/%E6%B5%AE%E5%8E%9F%E5%B3%B6", "name_municipality": "うるま市", "url_municipality": "https://ja.wikipedia.org/wiki/%E3%81%86%E3%82%8B%E3%81%BE%E5%B8%82", "lat": 26.301111, "lon": 127.991944}, {"name_en": "ejina_tou", "name_island": "エージナ島", "url_island": "https://ja.wikipedia.org/wiki/%E3%82%A8%E3%83%BC%E3%82%B8%E3%83%8A%E5%B3%B6", "name_municipality": "糸満市", "url_municipality": "https://ja.wikipedia.org/wiki/%E7%B3%B8%E6%BA%80%E5%B8%82", "lat": 26.108889, "lon": 127.658889}, {"name_en": "oujima_kume", "name_island": "奥武島_久米", "url_island": "https://ja.wikipedia.org/wiki/%E5%A5%A5%E6%AD%A6%E5%B3%B6_(%E6%B2%96%E7%B8%84%E7%9C%8C%E4%B9%85%E7%B1%B3%E5%B3%B6%E7%94%BA)", "name_municipality": "久米島町", "url_municipality": "https://ja.wikipedia.org/wiki/%E4%B9%85%E7%B1%B3%E5%B3%B6%E7%94%BA", "lat": 26.338611, "lon": 126.828056}, {"name_en": "oujima_nago", "name_island": "奥武島_名護", "url_island": "https://ja.wikipedia.org/wiki/%E5%A5%A5%E6%AD%A6%E5%B3%B6_(%E6%B2%96%E7%B8%84%E7%9C%8C%E5%90%8D%E8%AD%B7%E5%B8%82)", "name_municipality": "名護市", "url_municipality": "https://ja.wikipedia.org/wiki/%E5%90%8D%E8%AD%B7%E5%B8%82", "lat": 26.63866, "lon": 128.03274}, {"name_en": "oujima_nanjyo", "name_island": "奥武島_南城", "url_island": "https://ja.wikipedia.org/wiki/%E5%A5%A5%E6%AD%A6%E5%B3%B6_(%E6%B2%96%E7%B8%84%E7%9C%8C%E5%8D%97%E5%9F%8E%E5%B8%82)", "name_municipality": "南城市", "url_municipality": "https://ja.wikipedia.org/wiki/%E5%8D%97%E5%9F%8E%E5%B8%82", "lat": 26.129444, "lon": 127.772778}, {"name_en": "oha_jima", "name_island": "オーハ島", "url_island": "https://ja.wikipedia.org/wiki/%E3%82%AA%E3%83%BC%E3%83%8F%E5%B3%B6", "name_municipality": "久米島町", "url_municipality": "https://ja.wikipedia.org/wiki/%E4%B9%85%E7%B1%B3%E5%B3%B6%E7%94%BA", "lat": 26.34, "lon": 126.839722}, {"name_en": "kudaka_jima", "name_island": "久高島", "url_island": "https://ja.wikipedia.org/wiki/%E4%B9%85%E9%AB%98%E5%B3%B6", "name_municipality": "南城市", "url_municipality": "https://ja.wikipedia.org/wiki/%E5%8D%97%E5%9F%8E%E5%B8%82", "lat": 26.157778, "lon": 127.886667}, {"name_en": "kume_jima", "name_island": "久米島", "url_island": "https://ja.wikipedia.org/wiki/%E4%B9%85%E7%B1%B3%E5%B3%B6", "name_municipality": "久米島町", "url_municipality": "https://ja.wikipedia.org/wiki/%E4%B9%85%E7%B1%B3%E5%B3%B6%E7%94%BA", "lat": 26.354444, "lon": 126.770833}, {"name_en": "kouri_jima", "name_island": "古宇利島", "url_island": "https://ja.wikipedia.org/wiki/%E5%8F%A4%E5%AE%87%E5%88%A9%E5%B3%B6", "name_municipality": "今帰仁村", "url_municipality": "https://ja.wikipedia.org/wiki/%E4%BB%8A%E5%B8%B0%E4%BB%81%E6%9D%91", "lat": 26.706111, "lon": 128.017778}, {"name_en": "sesoko_jima", "name_island": "瀬底島", "url_island": "https://ja.wikipedia.org/wiki/%E7%80%AC%E5%BA%95%E5%B3%B6", "name_municipality": "本部町", "url_municipality": "https://ja.wikipedia.org/wiki/%E6%9C%AC%E9%83%A8%E7%94%BA", "lat": 26.646111, "lon": 127.865}, {"name_en": "senaga_jima", "name_island": "瀬長島", "url_island": "https://ja.wikipedia.org/wiki/%E7%80%AC%E9%95%B7%E5%B3%B6", "name_municipality": "豊見城市", "url_municipality": "https://ja.wikipedia.org/wiki/%E8%B1%8A%E8%A6%8B%E5%9F%8E%E5%B8%82", "lat": 26.175, "lon": 127.6425}, {"name_en": "tsuken_jima", "name_island": "津堅島", "url_island": "https://ja.wikipedia.org/wiki/%E6%B4%A5%E5%A0%85%E5%B3%B6", "name_municipality": "うるま市", "url_municipality": "https://ja.wikipedia.org/wiki/%E3%81%86%E3%82%8B%E3%81%BE%E5%B8%82", "lat": 26.250278, "lon": 127.941667}, {"name_en": "torishima_okinawa", "name_island": "鳥島_沖縄", "url_island": "https://ja.wikipedia.org/wiki/%E9%B3%A5%E5%B3%B6_(%E6%B2%96%E7%B8%84%E7%9C%8C)", "name_municipality": "久米島町", "url_municipality": "https://ja.wikipedia.org/wiki/%E4%B9%85%E7%B1%B3%E5%B3%B6%E7%94%BA", "lat": 26.595556, "lon": 126.833056}, {"name_en": "hamahiga_jima", "name_island": "浜比嘉島", "url_island": "https://ja.wikipedia.org/wiki/%E6%B5%9C%E6%AF%94%E5%98%89%E5%B3%B6", "name_municipality": "うるま市", "url_municipality": "https://ja.wikipedia.org/wiki/%E3%81%86%E3%82%8B%E3%81%BE%E5%B8%82", "lat": 26.319703, "lon": 127.958107}, {"name_en": "henza_jima", "name_island": "平安座島", "url_island": "https://ja.wikipedia.org/wiki/%E5%B9%B3%E5%AE%89%E5%BA%A7%E5%B3%B6", "name_municipality": "うるま市", "url_municipality": "https://ja.wikipedia.org/wiki/%E3%81%86%E3%82%8B%E3%81%BE%E5%B8%82", "lat": 26.348889, "lon": 127.958056}, {"name_en": "minamiukibaru_jima", "name_island": "南浮原島", "url_island": "https://ja.wikipedia.org/wiki/%E5%8D%97%E6%B5%AE%E5%8E%9F%E5%B3%B6", "name_municipality": "うるま市", "url_municipality": "https://ja.wikipedia.org/wiki/%E3%81%86%E3%82%8B%E3%81%BE%E5%B8%82", "lat": 26.289444, "lon": 127.980278}, {"name_en": "miyagijima_uruma", "name_island": "宮城島_うるま", "url_island": "https://ja.wikipedia.org/wiki/%E5%AE%AE%E5%9F%8E%E5%B3%B6_(%E6%B2%96%E7%B8%84%E7%9C%8C%E3%81%86%E3%82%8B%E3%81%BE%E5%B8%82)", "name_municipality": "うるま市", "url_municipality": "https://ja.wikipedia.org/wiki/%E3%81%86%E3%82%8B%E3%81%BE%E5%B8%82", "lat": 26.368333, "lon": 127.981389}, {"name_en": "miyagijima_oogimi", "name_island": "宮城島 _大宜味", "url_island": "https://ja.wikipedia.org/wiki/%E5%AE%AE%E5%9F%8E%E5%B3%B6_(%E6%B2%96%E7%B8%84%E7%9C%8C%E5%A4%A7%E5%AE%9C%E5%91%B3%E6%9D%91)", "name_municipality": "大宜味村", "url_municipality": "https://ja.wikipedia.org/wiki/%E5%A4%A7%E5%AE%9C%E5%91%B3%E6%9D%91", "lat": 26.6675, "lon": 128.101944}, {"name_en": "minnajima_motobu", "name_island": "水納島_本部", "url_island": "https://ja.wikipedia.org/wiki/%E6%B0%B4%E7%B4%8D%E5%B3%B6_(%E6%B2%96%E7%B8%84%E7%9C%8C%E6%9C%AC%E9%83%A8%E7%94%BA)", "name_municipality": "本部町", "url_municipality": "https://ja.wikipedia.org/wiki/%E6%9C%AC%E9%83%A8%E7%94%BA", "lat": 26.647222, "lon": 127.817778}, {"name_en": "yagajishima", "name_island": "屋我地島", "url_island": "https://ja.wikipedia.org/wiki/%E5%B1%8B%E6%88%91%E5%9C%B0%E5%B3%B6", "name_municipality": "名護市", "url_municipality": "https://ja.wikipedia.org/wiki/%E5%90%8D%E8%AD%B7%E5%B8%82", "lat": 26.665556, "lon": 128.010556}, {"name_en": "yabuchi_jima", "name_island": "藪地島", "url_island": "https://ja.wikipedia.org/wiki/%E8%97%AA%E5%9C%B0%E5%B3%B6", "name_municipality": "うるま市", "url_municipality": "https://ja.wikipedia.org/wiki/%E3%81%86%E3%82%8B%E3%81%BE%E5%B8%82", "lat": 26.319444, "lon": 127.923333}, {"name_en": "oogami_jima", "name_island": "大神島", "url_island": "https://ja.wikipedia.org/wiki/%E5%A4%A7%E7%A5%9E%E5%B3%B6", "name_municipality": "宮古島市", "url_municipality": "https://ja.wikipedia.org/wiki/%E5%AE%AE%E5%8F%A4%E5%B3%B6%E5%B8%82", "lat": 24.916944, "lon": 125.308056}, {"name_en": "kuruma_jima", "name_island": "来間島", "url_island": "https://ja.wikipedia.org/wiki/%E6%9D%A5%E9%96%93%E5%B3%B6", "name_municipality": "宮古島市", "url_municipality": "https://ja.wikipedia.org/wiki/%E5%AE%AE%E5%8F%A4%E5%B3%B6%E5%B8%82", "lat": 24.725833, "lon": 125.251667}, {"name_en": "tarama_jima", "name_island": "多良間島", "url_island": "https://ja.wikipedia.org/wiki/%E5%A4%9A%E8%89%AF%E9%96%93%E5%B3%B6", "name_municipality": "多良間村", "url_municipality": "https://ja.wikipedia.org/wiki/%E5%A4%9A%E8%89%AF%E9%96%93%E6%9D%91", "lat": 24.657778, "lon": 124.700278}, {"name_en": "miyako_jima", "name_island": "宮古島", "url_island": "https://ja.wikipedia.org/wiki/%E5%AE%AE%E5%8F%A4%E5%B3%B6", "name_municipality": "宮古島市", "url_municipality": "https://ja.wikipedia.org/wiki/%E5%AE%AE%E5%8F%A4%E5%B3%B6%E5%B8%82", "lat": 24.804722, "lon": 125.281111}, {"name_en": "irabu_jima", "name_island": "伊良部島", "url_island": "https://ja.wikipedia.org/wiki/%E4%BC%8A%E8%89%AF%E9%83%A8%E5%B3%B6", "name_municipality": "宮古島市", "url_municipality": "https://ja.wikipedia.org/wiki/%E5%AE%AE%E5%8F%A4%E5%B3%B6%E5%B8%82", "lat": 24.838889, "lon": 125.165556}, {"name_en": "minnajima_tarama", "name_island": "水納島_多良間", "url_island": "https://ja.wikipedia.org/wiki/%E6%B0%B4%E7%B4%8D%E5%B3%B6_(%E6%B2%96%E7%B8%84%E7%9C%8C%E5%A4%9A%E8%89%AF%E9%96%93%E6%9D%91)", "name_municipality": "多良間村", "url_municipality": "https://ja.wikipedia.org/wiki/%E5%A4%9A%E8%89%AF%E9%96%93%E6%9D%91", "lat": 24.754722, "lon": 124.695}, {"name_en": "yabiji", "name_island": "八重干瀬", "url_island": "https://ja.wikipedia.org/wiki/%E5%85%AB%E9%87%8D%E5%B9%B2%E7%80%AC", "name_municipality": "宮古島市", "url_municipality": "https://ja.wikipedia.org/wiki/%E5%AE%AE%E5%8F%A4%E5%B3%B6%E5%B8%82", "lat": 25.0, "lon": 125.266667}, {"name_en": "fudeiwa", "name_island": "フデ岩", "url_island": "https://ja.wikipedia.org/wiki/%E3%83%95%E3%83%87%E5%B2%A9", "name_municipality": "宮古島市", "url_municipality": "https://ja.wikipedia.org/wiki/%E5%AE%AE%E5%8F%A4%E5%B3%B6%E5%B8%82", "lat": 24.979722, "lon": 125.359361}, {"name_en": "iheya_jima", "name_island": "伊平屋島", "url_island": "https://ja.wikipedia.org/wiki/%E4%BC%8A%E5%B9%B3%E5%B1%8B%E5%B3%B6", "name_municipality": "伊平屋村", "url_municipality": "https://ja.wikipedia.org/wiki/%E4%BC%8A%E5%B9%B3%E5%B1%8B%E6%9D%91", "lat": 27.039722, "lon": 127.968611}, {"name_en": "noho_jima", "name_island": "野甫島", "url_island": "https://ja.wikipedia.org/wiki/%E9%87%8E%E7%94%AB%E5%B3%B6", "name_municipality": "伊平屋村", "url_municipality": "https://ja.wikipedia.org/wiki/%E4%BC%8A%E5%B9%B3%E5%B1%8B%E6%9D%91", "lat": 26.994722, "lon": 127.920278}, {"name_en": "izena_jima", "name_island": "伊是名島", "url_island": "https://ja.wikipedia.org/wiki/%E4%BC%8A%E6%98%AF%E5%90%8D%E5%B3%B6", "name_municipality": "伊是名村", "url_municipality": "https://ja.wikipedia.org/wiki/%E4%BC%8A%E6%98%AF%E5%90%8D%E6%9D%91", "lat": 26.927778, "lon": 127.941111}, {"name_en": "yanaha_jima", "name_island": "屋那覇島", "url_island": "https://ja.wikipedia.org/wiki/%E5%B1%8B%E9%82%A3%E8%A6%87%E5%B3%B6", "name_municipality": "伊是名村", "url_municipality": "https://ja.wikipedia.org/wiki/%E4%BC%8A%E6%98%AF%E5%90%8D%E6%9D%91", "lat": 26.897222, "lon": 127.924722}, {"name_en": "gushikawa_jima", "name_island": "具志川島", "url_island": "https://ja.wikipedia.org/wiki/%E5%85%B7%E5%BF%97%E5%B7%9D%E5%B3%B6", "name_municipality": "伊是名村", "url_municipality": "https://ja.wikipedia.org/wiki/%E4%BC%8A%E6%98%AF%E5%90%8D%E6%9D%91", "lat": 26.975278, "lon": 127.950556}, {"name_en": "urugami_jima", "name_island": "降神島", "url_island": "https://ja.wikipedia.org/wiki/%E9%99%8D%E7%A5%9E%E5%B3%B6", "name_municipality": "伊是名村", "url_municipality": "https://ja.wikipedia.org/wiki/%E4%BC%8A%E6%98%AF%E5%90%8D%E6%9D%91", "lat": 26.918889, "lon": 127.958333}, {"name_en": "yanoshita_jima", "name_island": "屋ノ下島", "url_island": "https://ja.wikipedia.org/wiki/%E5%B1%8B%E3%83%8E%E4%B8%8B%E5%B3%B6", "name_municipality": "伊是名村", "url_municipality": "https://ja.wikipedia.org/wiki/%E4%BC%8A%E6%98%AF%E5%90%8D%E6%9D%91", "lat": 26.936667, "lon": 127.915}]}