{"title": "List of Islands of Izu", "title_ja": "伊豆諸島の島の一覧", "reference": "wikipedia: 伊豆諸島", "url_reference": "https://ja.wikipedia.org/wiki/Category:%E4%BC%8A%E8%B1%86%E8%AB%B8%E5%B3%B6", "islands": [{"name_en": "izu_ooshima", "name_island": "伊豆大島", "url_island": "https://ja.wikipedia.org/wiki/%E4%BC%8A%E8%B1%86%E5%A4%A7%E5%B3%B6", "name_municipality": "大島町", "url_municipality": "https://ja.wikipedia.org/wiki/%E5%A4%A7%E5%B3%B6%E7%94%BA", "lat": 34.733333, "lon": 139.4}, {"name_en": "nii_jima", "name_island": "新島", "url_island": "https://ja.wikipedia.org/wiki/%E6%96%B0%E5%B3%B6", "name_municipality": "新島村", "url_municipality": "https://ja.wikipedia.org/wiki/%E6%96%B0%E5%B3%B6%E6%9D%91", "lat": 34.366667, "lon": 139.266667}, {"name_en": "shikine_jima", "name_island": "式根島", "url_island": "https://ja.wikipedia.org/wiki/%E5%BC%8F%E6%A0%B9%E5%B3%B6", "name_municipality": "新島村", "url_municipality": "https://ja.wikipedia.org/wiki/%E6%96%B0%E5%B3%B6%E6%9D%91", "lat": 34.326111, "lon": 139.21}, {"name_en": "toshima", "name_island": "利島", "url_island": "https://ja.wikipedia.org/wiki/%E5%88%A9%E5%B3%B6", "name_municipality": "利島村", "url_municipality": "https://ja.wikipedia.org/wiki/%E5%88%A9%E5%B3%B6%E6%9D%91", "lat": 34.520278, "lon": 139.279167}, {"name_en": "kouzushima", "name_island": "神津島", "url_island": "https://ja.wikipedia.org/wiki/%E7%A5%9E%E6%B4%A5%E5%B3%B6", "name_municipality": "神津島村", "url_municipality": "https://ja.wikipedia.org/wiki/%E7%A5%9E%E6%B4%A5%E5%B3%B6%E6%9D%91", "lat": 34.216944, "lon": 139.154167}, {"name_en": "miyake_jima", "name_island": "三宅島", "url_island": "https://ja.wikipedia.org/wiki/%E4%B8%89%E5%AE%85%E5%B3%B6", "name_municipality": "三宅村", "url_municipality": "https://ja.wikipedia.org/wiki/%E4%B8%89%E5%AE%85%E6%9D%91", "lat": 34.081944, "lon": 139.526389}, {"name_en": "mikura_jima", "name_island": "御蔵島", "url_island": "https://ja.wikipedia.org/wiki/%E5%BE%A1%E8%94%B5%E5%B3%B6", "name_municipality": "御蔵島村", "url_municipality": "https://ja.wikipedia.org/wiki/%E5%BE%A1%E8%94%B5%E5%B3%B6%E6%9D%91", "lat": 33.874167, "lon": 139.601944}, {"name_en": "hchijyo", "name_island": "八丈島", "url_island": "https://ja.wikipedia.org/wiki/%E5%85%AB%E4%B8%88%E5%B3%B6", "name_municipality": "八丈町", "url_municipality": "https://ja.wikipedia.org/wiki/%E5%85%AB%E4%B8%88%E7%94%BA", "lat": 33.109444, "lon": 139.791389}, {"name_en": "hachijyo_kojima", "name_island": "八丈小島", "url_island": "https://ja.wikipedia.org/wiki/%E5%85%AB%E4%B8%88%E5%B0%8F%E5%B3%B6", "name_municipality": "八丈町", "url_municipality": "https://ja.wikipedia.org/wiki/%E5%85%AB%E4%B8%88%E7%94%BA", "lat": 33.125278, "lon": 139.688333}, {"name_en": "aogashima", "name_island": "青ヶ島", "url_island": "https://ja.wikipedia.org/wiki/%E9%9D%92%E3%83%B6%E5%B3%B6", "name_municipality": "青ヶ島村", "url_municipality": "https://ja.wikipedia.org/wiki/%E9%9D%92%E3%83%B6%E5%B3%B6%E6%9D%91", "lat": 32.457778, "lon": 139.759167}, {"name_en": "inanba_jima", "name_island": "藺灘波島", "url_island": "https://ja.wikipedia.org/wiki/%E8%97%BA%E7%81%98%E6%B3%A2%E5%B3%B6", "name_municipality": "御蔵島村", "url_municipality": "https://ja.wikipedia.org/wiki/%E5%BE%A1%E8%94%B5%E5%B3%B6%E6%9D%91", "lat": 33.650833, "lon": 139.298889}, {"name_en": "udone_jima", "name_island": "鵜渡根島", "url_island": "https://ja.wikipedia.org/wiki/%E9%B5%9C%E6%B8%A1%E6%A0%B9%E5%B3%B6", "name_municipality": "新島村", "url_municipality": "https://ja.wikipedia.org/wiki/%E6%96%B0%E5%B3%B6%E6%9D%91", "lat": 34.4725, "lon": 139.293889}, {"name_en": "oonohara_jima", "name_island": "大野原島", "url_island": "https://ja.wikipedia.org/wiki/%E5%A4%A7%E9%87%8E%E5%8E%9F%E5%B3%B6", "name_municipality": "三宅村", "url_municipality": "https://ja.wikipedia.org/wiki/%E4%B8%89%E5%AE%85%E6%9D%91", "lat": 34.048056, "lon": 139.383889}, {"name_en": "onbase_jima", "name_island": "恩馳島", "url_island": "https://ja.wikipedia.org/wiki/%E6%81%A9%E9%A6%B3%E5%B3%B6", "name_municipality": "神津島村", "url_municipality": "https://ja.wikipedia.org/wiki/%E7%A5%9E%E6%B4%A5%E5%B3%B6%E6%9D%91", "lat": 34.186667, "lon": 139.076389}, {"name_en": "jinai_jima", "name_island": "地内島", "url_island": "https://ja.wikipedia.org/wiki/%E5%9C%B0%E5%86%85%E5%B3%B6", "name_municipality": "新島村", "url_municipality": "https://ja.wikipedia.org/wiki/%E6%96%B0%E5%B3%B6%E6%9D%91", "lat": 34.372222, "lon": 139.227778}, {"name_en": "sumisu_jima", "name_island": "須美寿島", "url_island": "https://ja.wikipedia.org/wiki/%E9%A0%88%E7%BE%8E%E5%AF%BF%E5%B3%B6", "name_municipality": "東京都", "url_municipality": "https://ja.wikipedia.org/wiki/%E6%9D%B1%E4%BA%AC%E9%83%BD", "lat": 31.438889, "lon": 140.050833}, {"name_en": "zenisu", "name_island": "銭洲", "url_island": "https://ja.wikipedia.org/wiki/%E9%8A%AD%E6%B4%B2", "name_municipality": "神津島村", "url_municipality": "https://ja.wikipedia.org/wiki/%E7%A5%9E%E6%B4%A5%E5%B3%B6%E6%9D%91", "lat": 33.943611, "lon": 138.8175}, {"name_en": "soufu_iwa", "name_island": "孀婦岩", "url_island": "https://ja.wikipedia.org/wiki/%E5%AD%80%E5%A9%A6%E5%B2%A9", "name_municipality": "東京都", "url_municipality": "https://ja.wikipedia.org/wiki/%E6%9D%B1%E4%BA%AC%E9%83%BD", "lat": 29.794167, "lon": 140.341944}, {"name_en": "tadanae_jima", "name_island": "祇苗島", "url_island": "https://ja.wikipedia.org/wiki/%E7%A5%87%E8%8B%97%E5%B3%B6", "name_municipality": "神津島村", "url_municipality": "https://ja.wikipedia.org/wiki/%E7%A5%9E%E6%B4%A5%E5%B3%B6%E6%9D%91", "lat": 34.206944, "lon": 139.191111}, {"name_en": "torishima_hachijyo", "name_island": "鳥島_八丈", "url_island": "https://ja.wikipedia.org/wiki/%E9%B3%A5%E5%B3%B6_(%E5%85%AB%E4%B8%88%E6%94%AF%E5%BA%81)", "name_municipality": "東京都", "url_municipality": "https://ja.wikipedia.org/wiki/%E6%9D%B1%E4%BA%AC%E9%83%BD", "lat": 30.483889, "lon": 140.303056}, {"name_en": "hayashima_tokyo", "name_island": "早島_東京", "url_island": "https://ja.wikipedia.org/wiki/%E6%97%A9%E5%B3%B6_(%E6%9D%B1%E4%BA%AC%E9%83%BD)", "name_municipality": "新島村", "url_municipality": "https://ja.wikipedia.org/wiki/%E6%96%B0%E5%B3%B6%E6%9D%91", "lat": 34.325833, "lon": 139.277222}, {"name_en": "fudeshima", "name_island": "筆島", "url_island": "https://ja.wikipedia.org/wiki/%E7%AD%86%E5%B3%B6", "name_municipality": "大島町", "url_municipality": "https://ja.wikipedia.org/wiki/%E5%A4%A7%E5%B3%B6%E7%94%BA", "lat": 34.706389, "lon": 139.445278}, {"name_en": "bayonnaise_rocks", "name_island": "ベヨネース列岩", "url_island": "https://ja.wikipedia.org/wiki/%E3%83%99%E3%83%A8%E3%83%8D%E3%83%BC%E3%82%B9%E5%88%97%E5%B2%A9", "name_municipality": "東京都", "url_municipality": "https://ja.wikipedia.org/wiki/%E6%9D%B1%E4%BA%AC%E9%83%BD", "lat": 31.887222, "lon": 139.9175}]}