{"title": "List of Islands in Kanagawa", "title_ja": "神奈川県の島の一覧", "reference": "wikipedia:  神奈川県の島一覧", "url_reference": "https://ja.wikipedia.org/wiki/%E7%A5%9E%E5%A5%88%E5%B7%9D%E7%9C%8C%E3%81%AE%E5%B3%B6%E4%B8%80%E8%A6%A7", "islands": [{"name_en": "ashikashima_kanagawa", "name_island": "海獺島_神奈川", "url_island": "https://ja.wikipedia.org/wiki/%E6%B5%B7%E7%8D%BA%E5%B3%B6_(%E7%A5%9E%E5%A5%88%E5%B7%9D%E7%9C%8C)", "name_municipality": "横須賀市", "url_municipality": "https://ja.wikipedia.org/wiki/%E6%A8%AA%E9%A0%88%E8%B3%80%E5%B8%82", "lat": 35.212222, "lon": 139.735556}, {"name_en": "azuma_shima", "name_island": "吾妻島", "url_island": "https://ja.wikipedia.org/wiki/%E5%90%BE%E5%A6%BB%E5%B3%B6", "name_municipality": "横須賀市", "url_municipality": "https://ja.wikipedia.org/wiki/%E6%A8%AA%E9%A0%88%E8%B3%80%E5%B8%82", "lat": 35.301047, "lon": 139.65005}, {"name_en": "ubashima", "name_island": "姥島", "url_island": "https://ja.wikipedia.org/wiki/%E5%A7%A5%E5%B3%B6", "name_municipality": "茅ヶ崎市", "url_municipality": "https://ja.wikipedia.org/wiki/%E8%8C%85%E3%83%B6%E5%B4%8E%E5%B8%82", "lat": 35.302167, "lon": 139.415111}, {"name_en": "enoshima", "name_island": "江の島", "url_island": "https://ja.wikipedia.org/wiki/%E6%B1%9F%E3%81%AE%E5%B3%B6", "name_municipality": "藤沢市", "url_municipality": "https://ja.wikipedia.org/wiki/%E8%97%A4%E6%B2%A2%E5%B8%82", "lat": 35.3, "lon": 139.480556}, {"name_en": "sarushima", "name_island": "猿島", "url_island": "https://ja.wikipedia.org/wiki/%E7%8C%BF%E5%B3%B6", "name_municipality": "横須賀市", "url_municipality": "https://ja.wikipedia.org/wiki/%E6%A8%AA%E9%A0%88%E8%B3%80%E5%B8%82", "lat": 35.286111, "lon": 139.694167}, {"name_en": "nojima_kanagawa", "name_island": "野島_神奈川", "url_island": "https://ja.wikipedia.org/wiki/%E9%87%8E%E5%B3%B6_(%E7%A5%9E%E5%A5%88%E5%B7%9D%E7%9C%8C)", "name_municipality": "横浜市", "url_municipality": "https://ja.wikipedia.org/wiki/%E6%A8%AA%E6%B5%9C%E5%B8%82", "lat": 35.327633, "lon": 139.633778}, {"name_en": "hirashima_kanagaw", "name_island": "平島_神奈川", "url_island": "https://ja.wikipedia.org/wiki/%E5%B9%B3%E5%B3%B6_(%E7%A5%9E%E5%A5%88%E5%B7%9D%E7%9C%8C)", "name_municipality": "茅ヶ崎市", "url_municipality": "https://ja.wikipedia.org/wiki/%E8%8C%85%E3%83%B6%E5%B4%8E%E5%B8%82", "lat": 35.313056, "lon": 139.399167}, {"name_en": "bentenjima_manazuru", "name_island": "弁天島_真鶴", "url_island": "https://ja.wikipedia.org/wiki/%E5%BC%81%E5%A4%A9%E5%B3%B6_(%E7%9C%9F%E9%B6%B4%E7%94%BA)", "name_municipality": "真鶴町", "url_municipality": "https://ja.wikipedia.org/wiki/%E7%9C%9F%E9%B6%B4%E7%94%BA", "lat": 35.15844, "lon": 139.13717}, {"name_en": "mitsuishi_manazuru", "name_island": "三ツ石_真鶴", "url_island": "https://ja.wikipedia.org/wiki/%E4%B8%89%E3%83%84%E7%9F%B3_(%E7%9C%9F%E9%B6%B4%E7%94%BA)", "name_municipality": "真鶴町", "url_municipality": "https://ja.wikipedia.org/wiki/%E7%9C%9F%E9%B6%B4%E7%94%BA", "lat": 35.137789, "lon": 139.162865}, {"name_en": "wakae_jima", "name_island": "和賀江島", "url_island": "https://ja.wikipedia.org/wiki/%E5%92%8C%E8%B3%80%E6%B1%9F%E5%B3%B6", "name_municipality": "鎌倉市", "url_municipality": "https://ja.wikipedia.org/wiki/%E9%8E%8C%E5%80%89%E5%B8%82", "lat": 35.300556, "lon": 139.550556}, {"name_en": "jyugashima", "name_island": "城ヶ島", "url_island": "https://ja.wikipedia.org/wiki/%E5%9F%8E%E3%83%B6%E5%B3%B6", "name_municipality": "三浦市", "url_municipality": "https://ja.wikipedia.org/wiki/%E4%B8%89%E6%B5%A6%E5%B8%82", "lat": 35.133611, "lon": 139.619444}]}