{"title": "List of Islands of Miyako", "title_ja": "宮古諸島の島の一覧", "reference": "wikipedia: 宮古諸島", "url_reference": "https://ja.wikipedia.org/wiki/Category:%E5%AE%AE%E5%8F%A4%E8%AB%B8%E5%B3%B6", "islands": [{"name_en": "oogami_jima", "name_island": "大神島", "url_island": "https://ja.wikipedia.org/wiki/%E5%A4%A7%E7%A5%9E%E5%B3%B6", "name_municipality": "宮古島市", "url_municipality": "https://ja.wikipedia.org/wiki/%E5%AE%AE%E5%8F%A4%E5%B3%B6%E5%B8%82", "lat": 24.916944, "lon": 125.308056}, {"name_en": "kuruma_jima", "name_island": "来間島", "url_island": "https://ja.wikipedia.org/wiki/%E6%9D%A5%E9%96%93%E5%B3%B6", "name_municipality": "宮古島市", "url_municipality": "https://ja.wikipedia.org/wiki/%E5%AE%AE%E5%8F%A4%E5%B3%B6%E5%B8%82", "lat": 24.725833, "lon": 125.251667}, {"name_en": "tarama_jima", "name_island": "多良間島", "url_island": "https://ja.wikipedia.org/wiki/%E5%A4%9A%E8%89%AF%E9%96%93%E5%B3%B6", "name_municipality": "多良間村", "url_municipality": "https://ja.wikipedia.org/wiki/%E5%A4%9A%E8%89%AF%E9%96%93%E6%9D%91", "lat": 24.657778, "lon": 124.700278}, {"name_en": "miyako_jima", "name_island": "宮古島", "url_island": "https://ja.wikipedia.org/wiki/%E5%AE%AE%E5%8F%A4%E5%B3%B6", "name_municipality": "宮古島市", "url_municipality": "https://ja.wikipedia.org/wiki/%E5%AE%AE%E5%8F%A4%E5%B3%B6%E5%B8%82", "lat": 24.804722, "lon": 125.281111}, {"name_en": "irabu_jima", "name_island": "伊良部島", "url_island": "https://ja.wikipedia.org/wiki/%E4%BC%8A%E8%89%AF%E9%83%A8%E5%B3%B6", "name_municipality": "宮古島市", "url_municipality": "https://ja.wikipedia.org/wiki/%E5%AE%AE%E5%8F%A4%E5%B3%B6%E5%B8%82", "lat": 24.838889, "lon": 125.165556}, {"name_en": "minnajima_tarama", "name_island": "水納島_多良間", "url_island": "https://ja.wikipedia.org/wiki/%E6%B0%B4%E7%B4%8D%E5%B3%B6_(%E6%B2%96%E7%B8%84%E7%9C%8C%E5%A4%9A%E8%89%AF%E9%96%93%E6%9D%91)", "name_municipality": "多良間村", "url_municipality": "https://ja.wikipedia.org/wiki/%E5%A4%9A%E8%89%AF%E9%96%93%E6%9D%91", "lat": 24.754722, "lon": 124.695}, {"name_en": "yabiji", "name_island": "八重干瀬", "url_island": "https://ja.wikipedia.org/wiki/%E5%85%AB%E9%87%8D%E5%B9%B2%E7%80%AC", "name_municipality": "宮古島市", "url_municipality": "https://ja.wikipedia.org/wiki/%E5%AE%AE%E5%8F%A4%E5%B3%B6%E5%B8%82", "lat": 25.0, "lon": 125.266667}, {"name_en": "fudeiwa", "name_island": "フデ岩", "url_island": "https://ja.wikipedia.org/wiki/%E3%83%95%E3%83%87%E5%B2%A9", "name_municipality": "宮古島市", "url_municipality": "https://ja.wikipedia.org/wiki/%E5%AE%AE%E5%8F%A4%E5%B3%B6%E5%B8%82", "lat": 24.979722, "lon": 125.359361}]}