{"title": "List of Islands in Kagawa", "title_ja": "香川県の島の一覧", "reference": "wikipedia: 香川県の島", "url_reference": "https://ja.wikipedia.org/wiki/Category:%E9%A6%99%E5%B7%9D%E7%9C%8C%E3%81%AE%E5%B3%B6", "islands": [{"name_en": "ibuki_jima", "name_island": "伊吹島", "url_island": "https://ja.wikipedia.org/wiki/%E4%BC%8A%E5%90%B9%E5%B3%B6", "name_municipality": "観音寺市", "url_municipality": "https://ja.wikipedia.org/wiki/%E8%A6%B3%E9%9F%B3%E5%AF%BA%E5%B8%82", "lat": 34.130694, "lon": 133.532889}, {"name_en": "ooshima_takamatsu", "name_island": "大島_高松", "url_island": "https://ja.wikipedia.org/wiki/%E5%A4%A7%E5%B3%B6_(%E9%A6%99%E5%B7%9D%E7%9C%8C%E9%AB%98%E6%9D%BE%E5%B8%82)", "name_municipality": "高松市", "url_municipality": "https://ja.wikipedia.org/wiki/%E9%AB%98%E6%9D%BE%E5%B8%82", "lat": 34.405278, "lon": 134.106944}, {"name_en": "ootsuchi_jima", "name_island": "大槌島", "url_island": "https://ja.wikipedia.org/wiki/%E5%A4%A7%E6%A7%8C%E5%B3%B6", "name_municipality": "高松市", "url_municipality": "https://ja.wikipedia.org/wiki/%E9%AB%98%E6%9D%BE%E5%B8%82", "lat": 34.417766, "lon": 133.92277}, {"name_en": "kozuchi_jima", "name_island": "小槌島", "url_island": "", "name_municipality": "高松市", "url_municipality": "https://ja.wikipedia.org/wiki/%E9%AB%98%E6%9D%BE%E5%B8%82", "lat": 34.394079, "lon": 133.923163}, {"name_en": "ogi_jima", "name_island": "男木島", "url_island": "https://ja.wikipedia.org/wiki/%E7%94%B7%E6%9C%A8%E5%B3%B6", "name_municipality": "高松市", "url_municipality": "https://ja.wikipedia.org/wiki/%E9%AB%98%E6%9D%BE%E5%B8%82", "lat": 34.428405, "lon": 134.061015}, {"name_en": "odeshima", "name_island": "小豊島", "url_island": "https://ja.wikipedia.org/wiki/%E5%B0%8F%E8%B1%8A%E5%B3%B6", "name_municipality": "土庄町", "url_municipality": "https://ja.wikipedia.org/wiki/%E5%9C%9F%E5%BA%84%E7%94%BA", "lat": 34.476667, "lon": 134.1175}, {"name_en": "kinu_jima", "name_island": "絹島", "url_island": "", "name_municipality": "東かがわ市", "url_municipality": "https://ja.wikipedia.org/wiki/%E6%9D%B1%E3%81%8B%E3%81%8C%E3%82%8F%E5%B8%82", "lat": 34.279917, "lon": 134.307694}, {"name_en": "shoudoshima", "name_island": "小豆島", "url_island": "https://ja.wikipedia.org/wiki/%E5%B0%8F%E8%B1%86%E5%B3%B6", "name_municipality": "小豆島町", "url_municipality": "https://ja.wikipedia.org/wiki/%E5%B0%8F%E8%B1%86%E5%B3%B6%E7%94%BA", "lat": 34.513611, "lon": 134.285556}, {"name_en": "teshima_2", "name_island": "豊島_香川", "url_island": "https://ja.wikipedia.org/wiki/%E8%B1%8A%E5%B3%B6_(%E9%A6%99%E5%B7%9D%E7%9C%8C)", "name_municipality": "土庄町", "url_municipality": "https://ja.wikipedia.org/wiki/%E5%9C%9F%E5%BA%84%E7%94%BA", "lat": 34.483333, "lon": 134.066667}, {"name_en": "hiroshimakagawa", "name_island": "広島_香川", "url_island": "https://ja.wikipedia.org/wiki/%E5%BA%83%E5%B3%B6_(%E9%A6%99%E5%B7%9D%E7%9C%8C)", "name_municipality": "丸亀市", "url_municipality": "https://ja.wikipedia.org/wiki/%E4%B8%B8%E4%BA%80%E5%B8%82", "lat": 34.373611, "lon": 133.709167}, {"name_en": "bentenjima_shoudoshima", "name_island": "弁天島_小豆島", "url_island": "https://ja.wikipedia.org/wiki/%E5%BC%81%E5%A4%A9%E5%B3%B6_(%E5%B0%8F%E8%B1%86%E5%B3%B6%E7%94%BA)", "name_municipality": "小豆島町", "url_municipality": "https://ja.wikipedia.org/wiki/%E5%B0%8F%E8%B1%86%E5%B3%B6%E7%94%BA", "lat": 34.470278, "lon": 134.312306}, {"name_en": "honjima_kagawa", "name_island": "本島_香川", "url_island": "https://ja.wikipedia.org/wiki/%E6%9C%AC%E5%B3%B6_(%E9%A6%99%E5%B7%9D%E7%9C%8C)", "name_municipality": "丸亀市", "url_municipality": "https://ja.wikipedia.org/wiki/%E4%B8%B8%E4%BA%80%E5%B8%82", "lat": 34.384167, "lon": 133.769167}, {"name_en": "mata_jima", "name_island": "股島", "url_island": "https://ja.wikipedia.org/wiki/%E8%82%A1%E5%B3%B6", "name_municipality": "観音寺市", "url_municipality": "https://ja.wikipedia.org/wiki/%E8%A6%B3%E9%9F%B3%E5%AF%BA%E5%B8%82", "lat": 34.108333, "lon": 133.448333}, {"name_en": "marugamishima", "name_island": "円上島", "url_island": "https://ja.wikipedia.org/wiki/%E5%86%86%E4%B8%8A%E5%B3%B6", "name_municipality": "観音寺市", "url_municipality": "https://ja.wikipedia.org/wiki/%E8%A6%B3%E9%9F%B3%E5%AF%BA%E5%B8%82", "lat": 34.154167, "lon": 133.454722}, {"name_en": "mukaejima_2", "name_island": "向島_2", "url_island": "", "name_municipality": "丸亀市", "url_municipality": "https://ja.wikipedia.org/wiki/%E4%B8%B8%E4%BA%80%E5%B8%82", "lat": 34.40428, "lon": 133.783367}, {"name_en": "megi_jima", "name_island": "女木島", "url_island": "https://ja.wikipedia.org/wiki/%E5%A5%B3%E6%9C%A8%E5%B3%B6", "name_municipality": "高松市", "url_municipality": "https://ja.wikipedia.org/wiki/%E9%AB%98%E6%9D%BE%E5%B8%82", "lat": 34.395278, "lon": 134.05}, {"name_en": "yoshima_2", "name_island": "余島", "url_island": "https://ja.wikipedia.org/wiki/%E4%BD%99%E5%B3%B6", "name_municipality": "土庄町", "url_municipality": "https://ja.wikipedia.org/wiki/%E5%9C%9F%E5%BA%84%E7%94%BA", "lat": 34.474722, "lon": 134.188611}, {"name_en": "ooyoshima", "name_island": "大余島", "url_island": "", "name_municipality": "土庄町", "url_municipality": "https://ja.wikipedia.org/wiki/%E5%9C%9F%E5%BA%84%E7%94%BA", "lat": 34.470405, "lon": 134.18736}, {"name_en": "kojima_1", "name_island": "小島_1", "url_island": "", "name_municipality": "小豆島町", "url_municipality": "https://ja.wikipedia.org/wiki/%E5%B0%8F%E8%B1%86%E5%B3%B6%E7%94%BA", "lat": 34.541324, "lon": 134.35898}, {"name_en": "kojima_2", "name_island": "小島_2", "url_island": "", "name_municipality": "多度津町", "url_municipality": "https://ja.wikipedia.org/wiki/%E5%A4%9A%E5%BA%A6%E6%B4%A5%E7%94%BA", "lat": 34.335459, "lon": 133.642403}, {"name_en": "kojima_3", "name_island": "児島", "url_island": "", "name_municipality": "小豆島町", "url_municipality": "https://ja.wikipedia.org/wiki/%E5%B0%8F%E8%B1%86%E5%B3%B6%E7%94%BA", "lat": 34.446675, "lon": 134.322898}, {"name_en": "kazenoko_jima", "name_island": "風ノ子島", "url_island": "", "name_municipality": "小豆島町", "url_municipality": "https://ja.wikipedia.org/wiki/%E5%B0%8F%E8%B1%86%E5%B3%B6%E7%94%BA", "lat": 34.43883, "lon": 134.347644}, {"name_en": "chiburi_jima", "name_island": "千振島", "url_island": "", "name_municipality": "土庄町", "url_municipality": "https://ja.wikipedia.org/wiki/%E5%9C%9F%E5%BA%84%E7%94%BA", "lat": 34.529633, "lon": 134.160116}, {"name_en": "okishima", "name_island": "沖島", "url_island": "", "name_municipality": "土庄町", "url_municipality": "https://ja.wikipedia.org/wiki/%E5%9C%9F%E5%BA%84%E7%94%BA", "lat": 34.51943, "lon": 134.16074}, {"name_en": "kazurashima_1", "name_island": "葛島_1", "url_island": "", "name_municipality": "土庄町", "url_municipality": "https://ja.wikipedia.org/wiki/%E5%9C%9F%E5%BA%84%E7%94%BA", "lat": 34.51876, "lon": 134.148712}, {"name_en": "kazurashima_2", "name_island": "葛島_2", "url_island": "", "name_municipality": "直島町", "url_municipality": "https://ja.wikipedia.org/wiki/%E7%9B%B4%E5%B3%B6%E7%94%BA", "lat": 34.472849, "lon": 133.954776}, {"name_en": "kabuto_jima", "name_island": "兜島", "url_island": "", "name_municipality": "高松市", "url_municipality": "https://ja.wikipedia.org/wiki/%E9%AB%98%E6%9D%BE%E5%B8%82", "lat": 34.418387, "lon": 134.125241}, {"name_en": "takashima", "name_island": "高島", "url_island": "", "name_municipality": "高松市", "url_municipality": "https://ja.wikipedia.org/wiki/%E9%AB%98%E6%9D%BE%E5%B8%82", "lat": 34.393725, "lon": 134.174455}, {"name_en": "kosei_jima", "name_island": "小瀬居島", "url_island": "", "name_municipality": "坂出市", "url_municipality": "https://ja.wikipedia.org/wiki/%E5%9D%82%E5%87%BA%E5%B8%82", "lat": 34.372444, "lon": 133.853216}, {"name_en": "kashiwa_jima", "name_island": "柏島", "url_island": "", "name_municipality": "直島町", "url_municipality": "https://ja.wikipedia.org/wiki/%E7%9B%B4%E5%B3%B6%E7%94%BA", "lat": 34.43931, "lon": 134.008885}, {"name_en": "koujin_jima", "name_island": "荒神島", "url_island": "", "name_municipality": "直島町", "url_municipality": "https://ja.wikipedia.org/wiki/%E7%9B%B4%E5%B3%B6%E7%94%BA", "lat": 34.457608, "lon": 133.961769}, {"name_en": "tera_jima", "name_island": "寺島", "url_island": "", "name_municipality": "直島町", "url_municipality": "https://ja.wikipedia.org/wiki/%E7%9B%B4%E5%B3%B6%E7%94%BA", "lat": 34.47667, "lon": 133.974068}, {"name_en": "ie_jima", "name_island": "家島", "url_island": "", "name_municipality": "直島町", "url_municipality": "https://ja.wikipedia.org/wiki/%E7%9B%B4%E5%B3%B6%E7%94%BA", "lat": 34.475139, "lon": 133.995764}, {"name_en": "tsubone_jima", "name_island": "局島", "url_island": "", "name_municipality": "直島町", "url_municipality": "https://ja.wikipedia.org/wiki/%E7%9B%B4%E5%B3%B6%E7%94%BA", "lat": 34.483884, "lon": 133.991922}, {"name_en": "kyounojyourou-jima", "name_island": "京ノ上臈島", "url_island": "", "name_municipality": "直島町", "url_municipality": "https://ja.wikipedia.org/wiki/%E7%9B%B4%E5%B3%B6%E7%94%BA", "lat": 34.491341, "lon": 133.980599}, {"name_en": "ushigakubi_jima", "name_island": "牛ヶ首島", "url_island": "", "name_municipality": "直島町", "url_municipality": "https://ja.wikipedia.org/wiki/%E7%9B%B4%E5%B3%B6%E7%94%BA", "lat": 34.50738, "lon": 133.97263}, {"name_en": "nagashima", "name_island": "長島", "url_island": "", "name_municipality": "丸亀市", "url_municipality": "https://ja.wikipedia.org/wiki/%E4%B8%B8%E4%BA%80%E5%B8%82", "lat": 34.413723, "lon": 133.778908}, {"name_en": "ootsuta_jima", "name_island": "大蔦島", "url_island": "", "name_municipality": "三豊市", "url_municipality": "https://ja.wikipedia.org/wiki/%E4%B8%89%E8%B1%8A%E5%B8%82", "lat": 34.19311, "lon": 133.63282}, {"name_en": "kotsuta_jima", "name_island": "小蔦島", "url_island": "", "name_municipality": "三豊市", "url_municipality": "https://ja.wikipedia.org/wiki/%E4%B8%89%E8%B1%8A%E5%B8%82", "lat": 34.200651, "lon": 133.624881}, {"name_en": "maruyama_jima", "name_island": "丸山島", "url_island": "", "name_municipality": "三豊市", "url_municipality": "https://ja.wikipedia.org/wiki/%E4%B8%89%E8%B1%8A%E5%B8%82", "lat": 34.218592, "lon": 133.608977}, {"name_en": "awashima_2", "name_island": "粟島_不天", "url_island": "", "name_municipality": "三豊市", "url_municipality": "https://ja.wikipedia.org/wiki/%E4%B8%89%E8%B1%8A%E5%B8%82", "lat": 34.27506, "lon": 133.649206}, {"name_en": "awashima_kagawa", "name_island": "粟島_香川", "url_island": "https://ja.wikipedia.org/wiki/%E7%B2%9F%E5%B3%B6_(%E9%A6%99%E5%B7%9D%E7%9C%8C)", "name_municipality": "三豊市", "url_municipality": "https://ja.wikipedia.org/wiki/%E4%B8%89%E8%B1%8A%E5%B8%82", "lat": 34.272222, "lon": 133.633333}, {"name_en": "iwakuro_jima", "name_island": "岩黒島", "url_island": "https://ja.wikipedia.org/wiki/%E5%B2%A9%E9%BB%92%E5%B3%B6", "name_municipality": "坂出市", "url_municipality": "https://ja.wikipedia.org/wiki/%E5%9D%82%E5%87%BA%E5%B8%82", "lat": 34.406389, "lon": 133.810278}, {"name_en": "ushijima_kagawa", "name_island": "牛島_香川", "url_island": "https://ja.wikipedia.org/wiki/%E7%89%9B%E5%B3%B6_(%E9%A6%99%E5%B7%9D%E7%9C%8C)", "name_municipality": "丸亀市", "url_municipality": "https://ja.wikipedia.org/wiki/%E4%B8%B8%E4%BA%80%E5%B8%82", "lat": 34.360278, "lon": 133.780556}, {"name_en": "oteshima", "name_island": "小手島", "url_island": "https://ja.wikipedia.org/wiki/%E5%B0%8F%E6%89%8B%E5%B3%B6", "name_municipality": "丸亀市", "url_municipality": "https://ja.wikipedia.org/wiki/%E4%B8%B8%E4%BA%80%E5%B8%82", "lat": 34.377744, "lon": 133.648458}, {"name_en": "koyoshima", "name_island": "小与島", "url_island": "https://ja.wikipedia.org/wiki/%E5%B0%8F%E4%B8%8E%E5%B3%B6", "name_municipality": "坂出市", "url_municipality": "https://ja.wikipedia.org/wiki/%E5%9D%82%E5%87%BA%E5%B8%82", "lat": 34.391389, "lon": 133.830278}, {"name_en": "sanagi_jima", "name_island": "佐柳島", "url_island": "https://ja.wikipedia.org/wiki/%E4%BD%90%E6%9F%B3%E5%B3%B6", "name_municipality": "多度津町", "url_municipality": "https://ja.wikipedia.org/wiki/%E5%A4%9A%E5%BA%A6%E6%B4%A5%E7%94%BA", "lat": 34.341466, "lon": 133.6237466}, {"name_en": "shishi_jima", "name_island": "志々島", "url_island": "https://ja.wikipedia.org/wiki/%E5%BF%97%E3%80%85%E5%B3%B6", "name_municipality": "三豊市", "url_municipality": "https://ja.wikipedia.org/wiki/%E4%B8%89%E8%B1%8A%E5%B8%82", "lat": 34.271389, "lon": 133.677222}, {"name_en": "takami_jima", "name_island": "高見島", "url_island": "https://ja.wikipedia.org/wiki/%E9%AB%98%E8%A6%8B%E5%B3%B6", "name_municipality": "多度津町", "url_municipality": "https://ja.wikipedia.org/wiki/%E5%A4%9A%E5%BA%A6%E6%B4%A5%E7%94%BA", "lat": 34.316667, "lon": 133.670833}, {"name_en": "teshima_kagawa", "name_island": "手島_香川", "url_island": "https://ja.wikipedia.org/wiki/%E6%89%8B%E5%B3%B6_(%E9%A6%99%E5%B7%9D%E7%9C%8C)", "name_municipality": "丸亀市", "url_municipality": "https://ja.wikipedia.org/wiki/%E4%B8%B8%E4%BA%80%E5%B8%82", "lat": 34.399444, "lon": 133.665556}, {"name_en": "hitsuishi_jima", "name_island": "櫃石島", "url_island": "https://ja.wikipedia.org/wiki/%E6%AB%83%E7%9F%B3%E5%B3%B6", "name_municipality": "坂出市", "url_municipality": "https://ja.wikipedia.org/wiki/%E5%9D%82%E5%87%BA%E5%B8%82", "lat": 34.420278, "lon": 133.804722}, {"name_en": "mitsugo_jima", "name_island": "三つ子島", "url_island": "https://ja.wikipedia.org/wiki/%E4%B8%89%E3%81%A4%E5%AD%90%E5%B3%B6", "name_municipality": "坂出市", "url_municipality": "https://ja.wikipedia.org/wiki/%E5%9D%82%E5%87%BA%E5%B8%82", "lat": 34.373611, "lon": 133.8225}, {"name_en": "yoshima", "name_island": "与島", "url_island": "https://ja.wikipedia.org/wiki/%E4%B8%8E%E5%B3%B6", "name_municipality": "坂出市", "url_municipality": "https://ja.wikipedia.org/wiki/%E5%9D%82%E5%87%BA%E5%B8%82", "lat": 34.389167, "lon": 133.819444}, {"name_en": "wasashima", "name_island": "羽佐島", "url_island": "https://ja.wikipedia.org/wiki/%E7%BE%BD%E4%BD%90%E5%B3%B6", "name_municipality": "坂出市", "url_municipality": "https://ja.wikipedia.org/wiki/%E5%9D%82%E5%87%BA%E5%B8%82", "lat": 34.396808, "lon": 133.811486}, {"name_en": "naoshima", "name_island": "直島", "url_island": "https://ja.wikipedia.org/wiki/%E7%9B%B4%E5%B3%B6", "name_municipality": "直島町", "url_municipality": "https://ja.wikipedia.org/wiki/%E7%9B%B4%E5%B3%B6%E7%94%BA", "lat": 34.46, "lon": 133.982778}, {"name_en": "ishima", "name_island": "井島", "url_island": "https://ja.wikipedia.org/wiki/%E4%BA%95%E5%B3%B6", "name_municipality": "直島町", "url_municipality": "https://ja.wikipedia.org/wiki/%E7%9B%B4%E5%B3%B6%E7%94%BA", "lat": 34.494444, "lon": 134.016111}, {"name_en": "kihei_jima", "name_island": "喜兵衛島", "url_island": "https://ja.wikipedia.org/wiki/%E5%96%9C%E5%85%B5%E8%A1%9B%E5%B3%B6", "name_municipality": "直島町", "url_municipality": "https://ja.wikipedia.org/wiki/%E7%9B%B4%E5%B3%B6%E7%94%BA", "lat": 34.500833, "lon": 133.976667}, {"name_en": "byobu_jima", "name_island": "屏風島", "url_island": "https://ja.wikipedia.org/wiki/%E5%B1%8F%E9%A2%A8%E5%B3%B6", "name_municipality": "直島町", "url_municipality": "https://ja.wikipedia.org/wiki/%E7%9B%B4%E5%B3%B6%E7%94%BA", "lat": 34.498611, "lon": 133.971111}, {"name_en": "mukaejima_kagawa", "name_island": "向島_香川", "url_island": "https://ja.wikipedia.org/wiki/%E5%90%91%E5%B3%B6_(%E9%A6%99%E5%B7%9D%E7%9C%8C)", "name_municipality": "直島町", "url_municipality": "https://ja.wikipedia.org/wiki/%E7%9B%B4%E5%B3%B6%E7%94%BA", "lat": 34.466667, "lon": 134.002778}]}