{"title": "List of Islands in Kyoto", "title_ja": "京都府の島の一覧", "reference": "wikipedia: 京都府の島", "url_reference": "https://ja.wikipedia.org/wiki/Category:%E4%BA%AC%E9%83%BD%E5%BA%9C%E3%81%AE%E5%B3%B6", "islands": [{"name_en": "isokazura_tou", "name_island": "磯葛島", "url_island": "https://ja.wikipedia.org/wiki/%E7%A3%AF%E8%91%9B%E5%B3%B6", "name_municipality": "舞鶴市", "url_municipality": "https://ja.wikipedia.org/wiki/%E8%88%9E%E9%B6%B4%E5%B8%82", "lat": 35.575972, "lon": 135.394528}, {"name_en": "okikszura_tou", "name_island": "沖葛島", "url_island": "https://ja.wikipedia.org/wiki/%E6%B2%96%E8%91%9B%E5%B3%B6", "name_municipality": "舞鶴市", "url_municipality": "https://ja.wikipedia.org/wiki/%E8%88%9E%E9%B6%B4%E5%B8%82", "lat": 35.579583, "lon": 135.389806}, {"name_en": "umatate_jima", "name_island": "馬立島", "url_island": "https://ja.wikipedia.org/wiki/%E9%A6%AC%E7%AB%8B%E5%B3%B6", "name_municipality": "舞鶴市", "url_municipality": "https://ja.wikipedia.org/wiki/%E8%88%9E%E9%B6%B4%E5%B8%82", "lat": 35.567222, "lon": 135.479028}, {"name_en": "karasu_jima", "name_island": "烏島", "url_island": "https://ja.wikipedia.org/wiki/%E7%83%8F%E5%B3%B6", "name_municipality": "舞鶴市", "url_municipality": "https://ja.wikipedia.org/wiki/%E8%88%9E%E9%B6%B4%E5%B8%82", "lat": 35.498761, "lon": 135.373492}, {"name_en": "kanmuri_jima", "name_island": "冠島", "url_island": "https://ja.wikipedia.org/wiki/%E5%86%A0%E5%B3%B6", "name_municipality": "舞鶴市", "url_municipality": "https://ja.wikipedia.org/wiki/%E8%88%9E%E9%B6%B4%E5%B8%82", "lat": 35.681111, "lon": 135.424444}, {"name_en": "keshima", "name_island": "毛島", "url_island": "https://ja.wikipedia.org/wiki/%E6%AF%9B%E5%B3%B6", "name_municipality": "舞鶴市", "url_municipality": "https://ja.wikipedia.org/wiki/%E8%88%9E%E9%B6%B4%E5%B8%82", "lat": 35.595833, "lon": 135.478667}, {"name_en": "jyajima_kyoto", "name_island": "蛇島_京都", "url_island": "https://ja.wikipedia.org/wiki/%E8%9B%87%E5%B3%B6_(%E4%BA%AC%E9%83%BD%E5%BA%9C)", "name_municipality": "舞鶴市", "url_municipality": "https://ja.wikipedia.org/wiki/%E8%88%9E%E9%B6%B4%E5%B8%82", "lat": 35.497222, "lon": 135.368056}, {"name_en": "toshitori_jima", "name_island": "年取島", "url_island": "https://ja.wikipedia.org/wiki/%E5%B9%B4%E5%8F%96%E5%B3%B6", "name_municipality": "舞鶴市", "url_municipality": "https://ja.wikipedia.org/wiki/%E8%88%9E%E9%B6%B4%E5%B8%82", "lat": 35.478333, "lon": 135.321667}, {"name_en": "toshima_kypto", "name_island": "戸島_京都", "url_island": "https://ja.wikipedia.org/wiki/%E6%88%B8%E5%B3%B6_(%E4%BA%AC%E9%83%BD%E5%BA%9C)", "name_municipality": "舞鶴市", "url_municipality": "https://ja.wikipedia.org/wiki/%E8%88%9E%E9%B6%B4%E5%B8%82", "lat": 35.495833, "lon": 135.343056}]}