{"title": "List of Islands of Senkaku", "title_ja": "尖閣諸島の島の一覧", "reference": "wikipedia: 尖閣諸島", "url_reference": "https://ja.wikipedia.org/wiki/Category:%E5%B0%96%E9%96%A3%E8%AB%B8%E5%B3%B6", "islands": [{"name_en": "uotauri_jima", "name_island": "魚釣島", "url_island": "https://ja.wikipedia.org/wiki/%E9%AD%9A%E9%87%A3%E5%B3%B6", "name_municipality": "石垣市", "url_municipality": "https://ja.wikipedia.org/wiki/%E7%9F%B3%E5%9E%A3%E5%B8%82", "lat": 25.7425, "lon": 123.47138}, {"name_en": "okinokitaiwa", "name_island": "沖の北岩", "url_island": "https://ja.wikipedia.org/wiki/%E6%B2%96%E3%81%AE%E5%8C%97%E5%B2%A9", "name_municipality": "石垣市", "url_municipality": "https://ja.wikipedia.org/wiki/%E7%9F%B3%E5%9E%A3%E5%B8%82", "lat": 25.781111, "lon": 123.544167}, {"name_en": "okinominamiiwa", "name_island": "沖の南岩", "url_island": "https://ja.wikipedia.org/wiki/%E6%B2%96%E3%81%AE%E5%8D%97%E5%B2%A9", "name_municipality": "石垣市", "url_municipality": "https://ja.wikipedia.org/wiki/%E7%9F%B3%E5%9E%A3%E5%B8%82", "lat": 25.755278, "lon": 123.566389}, {"name_en": "kitakojima", "name_island": "北小島", "url_island": "https://ja.wikipedia.org/wiki/%E5%8C%97%E5%B0%8F%E5%B3%B6", "name_municipality": "石垣市", "url_municipality": "https://ja.wikipedia.org/wiki/%E7%9F%B3%E5%9E%A3%E5%B8%82", "lat": 25.731944, "lon": 123.540556}, {"name_en": "kitakojima_kuba", "name_island": "北小島_久場", "url_island": "https://ja.wikipedia.org/wiki/%E5%8C%97%E5%B0%8F%E5%B3%B6_(%E6%B2%96%E7%B8%84%E7%9C%8C%E7%9F%B3%E5%9E%A3%E5%B8%82%E4%B9%85%E5%A0%B4%E5%B3%B6%E4%BB%98%E8%BF%91)", "name_municipality": "石垣市", "url_municipality": "https://ja.wikipedia.org/wiki/%E7%9F%B3%E5%9E%A3%E5%B8%82", "lat": 25.928944, "lon": 123.681639}, {"name_en": "kitakojima_taishou", "name_island": "北小島_大正", "url_island": "https://ja.wikipedia.org/wiki/%E5%8C%97%E5%B0%8F%E5%B3%B6_(%E6%B2%96%E7%B8%84%E7%9C%8C%E7%9F%B3%E5%9E%A3%E5%B8%82%E5%A4%A7%E6%AD%A3%E5%B3%B6%E4%BB%98%E8%BF%91)", "name_municipality": "石垣市", "url_municipality": "https://ja.wikipedia.org/wiki/%E7%9F%B3%E5%9E%A3%E5%B8%82", "lat": 25.924444, "lon": 124.559333}, {"name_en": "kubajima_ishigaki", "name_island": "久場島_石垣", "url_island": "https://ja.wikipedia.org/wiki/%E4%B9%85%E5%A0%B4%E5%B3%B6_(%E6%B2%96%E7%B8%84%E7%9C%8C%E7%9F%B3%E5%9E%A3%E5%B8%82)", "name_municipality": "石垣市", "url_municipality": "https://ja.wikipedia.org/wiki/%E7%9F%B3%E5%9E%A3%E5%B8%82", "lat": 25.923333, "lon": 123.680833}, {"name_en": "taishou_jima", "name_island": "大正島", "url_island": "https://ja.wikipedia.org/wiki/%E5%A4%A7%E6%AD%A3%E5%B3%B6", "name_municipality": "石垣市", "url_municipality": "https://ja.wikipedia.org/wiki/%E7%9F%B3%E5%9E%A3%E5%B8%82", "lat": 25.9225, "lon": 124.56}, {"name_en": "tobise", "name_island": "飛瀬", "url_island": "https://ja.wikipedia.org/wiki/%E9%A3%9B%E7%80%AC", "name_municipality": "石垣市", "url_municipality": "https://ja.wikipedia.org/wiki/%E7%9F%B3%E5%9E%A3%E5%B8%82", "lat": 25.735556, "lon": 123.506111}, {"name_en": "hokusei_kojima", "name_island": "北西小島", "url_island": "https://ja.wikipedia.org/wiki/%E5%8C%97%E8%A5%BF%E5%B0%8F%E5%B3%B6", "name_municipality": "石垣市", "url_municipality": "https://ja.wikipedia.org/wiki/%E7%9F%B3%E5%9E%A3%E5%B8%82", "lat": 25.928056, "lon": 123.679028}, {"name_en": "hokutou_kojima", "name_island": "北東小島", "url_island": "https://ja.wikipedia.org/wiki/%E5%8C%97%E6%9D%B1%E5%B0%8F%E5%B3%B6", "name_municipality": "石垣市", "url_municipality": "https://ja.wikipedia.org/wiki/%E7%9F%B3%E5%9E%A3%E5%B8%82", "lat": 25.928722, "lon": 123.684278}, {"name_en": "minamikojima", "name_island": "南小島", "url_island": "https://ja.wikipedia.org/wiki/%E5%8D%97%E5%B0%8F%E5%B3%B6", "name_municipality": "石垣市", "url_municipality": "https://ja.wikipedia.org/wiki/%E7%9F%B3%E5%9E%A3%E5%B8%82", "lat": 25.723056, "lon": 123.546389}]}