{"title": "List of Islands in Tpyama", "title_ja": "富山県の島の一覧", "reference": "wikipedia: 富山県の島", "url_reference": "https://ja.wikipedia.org/wiki/Category:%E5%AF%8C%E5%B1%B1%E7%9C%8C%E3%81%AE%E5%B3%B6", "islands": [{"name_en": "abuga_shima", "name_island": "虻ガ島", "url_island": "https://ja.wikipedia.org/wiki/%E8%99%BB%E3%82%AC%E5%B3%B6", "name_municipality": "氷見市", "url_municipality": "https://ja.wikipedia.org/wiki/%E6%B0%B7%E8%A6%8B%E5%B8%82", "lat": 36.931889, "lon": 137.040722}, {"name_en": "otokoiwa", "name_island": "男岩", "url_island": "https://ja.wikipedia.org/wiki/%E7%94%B7%E5%B2%A9", "name_municipality": "高岡市", "url_municipality": "https://ja.wikipedia.org/wiki/%E9%AB%98%E5%B2%A1%E5%B8%82", "lat": 36.810349, "lon": 137.05306}, {"name_en": "onnaiwa", "name_island": "女岩", "url_island": "https://ja.wikipedia.org/wiki/%E5%A5%B3%E5%B2%A9", "name_municipality": "高岡市", "url_municipality": "https://ja.wikipedia.org/wiki/%E9%AB%98%E5%B2%A1%E5%B8%82", "lat": 36.814506, "lon": 137.045203}, {"name_en": "kara_shima", "name_island": "唐島", "url_island": "https://ja.wikipedia.org/wiki/%E5%94%90%E5%B3%B6", "name_municipality": "氷見市", "url_municipality": "https://ja.wikipedia.org/wiki/%E6%B0%B7%E8%A6%8B%E5%B8%82", "lat": 36.864187, "lon": 136.995726}, {"name_en": "he_no_shima", "name_island": "辺ノ島", "url_island": "https://ja.wikipedia.org/wiki/%E8%BE%BA%E3%83%8E%E5%B3%B6%E3%83%BB%E4%B8%AD%E3%83%8E%E5%B3%B6%E3%83%BB%E6%B2%96%E3%83%8E%E5%B3%B6", "name_municipality": "朝日町_富山", "url_municipality": "https://ja.wikipedia.org/wiki/%E6%9C%9D%E6%97%A5%E7%94%BA_(%E5%AF%8C%E5%B1%B1%E7%9C%8C)", "lat": 36.97501, "lon": 137.586572}, {"name_en": "naka_no_shima", "name_island": "中ノ島", "url_island": "https://ja.wikipedia.org/wiki/%E8%BE%BA%E3%83%8E%E5%B3%B6%E3%83%BB%E4%B8%AD%E3%83%8E%E5%B3%B6%E3%83%BB%E6%B2%96%E3%83%8E%E5%B3%B6", "name_municipality": "朝日町_富山", "url_municipality": "https://ja.wikipedia.org/wiki/%E6%9C%9D%E6%97%A5%E7%94%BA_(%E5%AF%8C%E5%B1%B1%E7%9C%8C)", "lat": 36.977907, "lon": 137.588418}, {"name_en": "oki_no_shima", "name_island": "沖ノ島", "url_island": "https://ja.wikipedia.org/wiki/%E8%BE%BA%E3%83%8E%E5%B3%B6%E3%83%BB%E4%B8%AD%E3%83%8E%E5%B3%B6%E3%83%BB%E6%B2%96%E3%83%8E%E5%B3%B6", "name_municipality": "朝日町_富山", "url_municipality": "https://ja.wikipedia.org/wiki/%E6%9C%9D%E6%97%A5%E7%94%BA_(%E5%AF%8C%E5%B1%B1%E7%9C%8C)", "lat": 36.982584, "lon": 137.590135}, {"name_en": "hotoke_jima", "name_island": "仏島", "url_island": "https://ja.wikipedia.org/wiki/%E4%BB%8F%E5%B3%B6", "name_municipality": "氷見市", "url_municipality": "https://ja.wikipedia.org/wiki/%E6%B0%B7%E8%A6%8B%E5%B8%82", "lat": 36.959553, "lon": 137.053625}]}