{"title": "List of Islands in Saga", "title_ja": "佐賀県の島の一覧", "reference": "wikipedia: 佐賀県の島", "url_reference": "https://ja.wikipedia.org/wiki/Category:%E4%BD%90%E8%B3%80%E7%9C%8C%E3%81%AE%E5%B3%B6", "islands": [{"name_en": "iroha_jima", "name_island": "いろは島", "url_island": "https://ja.wikipedia.org/wiki/%E3%81%84%E3%82%8D%E3%81%AF%E5%B3%B6", "name_municipality": "唐津市", "url_municipality": "https://ja.wikipedia.org/wiki/%E5%94%90%E6%B4%A5%E5%B8%82", "lat": 33.392222, "lon": 129.852222}, {"name_en": "okinoshima_saga", "name_island": "沖ノ島_佐賀", "url_island": "https://ja.wikipedia.org/wiki/%E6%B2%96%E3%83%8E%E5%B3%B6_(%E4%BD%90%E8%B3%80%E7%9C%8C)", "name_municipality": "太良町", "url_municipality": "https://ja.wikipedia.org/wiki/%E5%A4%AA%E8%89%AF%E7%94%BA", "lat": 33.065278, "lon": 130.226111}, {"name_en": "torishima_saga", "name_island": "鳥島_佐賀", "url_island": "https://ja.wikipedia.org/wiki/%E9%B3%A5%E5%B3%B6_(%E4%BD%90%E8%B3%80%E7%9C%8C)", "name_municipality": "唐津市", "url_municipality": "https://ja.wikipedia.org/wiki/%E5%94%90%E6%B4%A5%E5%B8%82", "lat": 33.465833, "lon": 129.976389}, {"name_en": "takashima_saga", "name_island": "高島_佐賀", "url_island": "https://ja.wikipedia.org/wiki/%E9%AB%98%E5%B3%B6_(%E4%BD%90%E8%B3%80%E7%9C%8C)", "name_municipality": "唐津市", "url_municipality": "https://ja.wikipedia.org/wiki/%E5%94%90%E6%B4%A5%E5%B8%82", "lat": 33.473889, "lon": 129.991111}, {"name_en": "kashiwa_jima", "name_island": "神集島", "url_island": "https://ja.wikipedia.org/wiki/%E7%A5%9E%E9%9B%86%E5%B3%B6", "name_municipality": "唐津市", "url_municipality": "https://ja.wikipedia.org/wiki/%E5%94%90%E6%B4%A5%E5%B8%82", "lat": 33.533333, "lon": 129.972222}, {"name_en": "ogawashima", "name_island": "小川島", "url_island": "https://ja.wikipedia.org/wiki/%E5%B0%8F%E5%B7%9D%E5%B3%B6", "name_municipality": "唐津市", "url_municipality": "https://ja.wikipedia.org/wiki/%E5%94%90%E6%B4%A5%E5%B8%82", "lat": 33.6, "lon": 129.9}, {"name_en": "kabeshima", "name_island": "加部島", "url_island": "https://ja.wikipedia.org/wiki/%E5%8A%A0%E9%83%A8%E5%B3%B6", "name_municipality": "唐津市", "url_municipality": "https://ja.wikipedia.org/wiki/%E5%94%90%E6%B4%A5%E5%B8%82", "lat": 33.555556, "lon": 129.883333}, {"name_en": "kakarashima", "name_island": "加唐島", "url_island": "https://ja.wikipedia.org/wiki/%E5%8A%A0%E5%94%90%E5%B3%B6", "name_municipality": "唐津市", "url_municipality": "https://ja.wikipedia.org/wiki/%E5%94%90%E6%B4%A5%E5%B8%82", "lat": 33.600833, "lon": 129.856111}, {"name_en": "matshushima_saga", "name_island": "松島_佐賀", "url_island": "https://ja.wikipedia.org/wiki/%E6%9D%BE%E5%B3%B6_(%E4%BD%90%E8%B3%80%E7%9C%8C)", "name_municipality": "唐津市", "url_municipality": "https://ja.wikipedia.org/wiki/%E5%94%90%E6%B4%A5%E5%B8%82", "lat": 33.5875, "lon": 129.841389}, {"name_en": "madarashima", "name_island": "馬渡島", "url_island": "https://ja.wikipedia.org/wiki/%E9%A6%AC%E6%B8%A1%E5%B3%B6", "name_municipality": "唐津市", "url_municipality": "https://ja.wikipedia.org/wiki/%E5%94%90%E6%B4%A5%E5%B8%82", "lat": 33.573056, "lon": 129.759444}, {"name_en": "mukushima_saga", "name_island": "向島_佐賀", "url_island": "https://ja.wikipedia.org/wiki/%E5%90%91%E5%B3%B6_(%E4%BD%90%E8%B3%80%E7%9C%8C)", "name_municipality": "唐津市", "url_municipality": "https://ja.wikipedia.org/wiki/%E5%94%90%E6%B4%A5%E5%B8%82", "lat": 33.491667, "lon": 129.776389}]}