{"title": "List of Islands of Geiyo", "title_ja": "芸予諸島の島の一覧", "reference": "wikipedia: 芸予諸島", "url_reference": "https://ja.wikipedia.org/wiki/Category:%E8%8A%B8%E4%BA%88%E8%AB%B8%E5%B3%B6", "islands": [{"name_en": "akahone_jima", "name_island": "赤穂根島", "url_island": "https://ja.wikipedia.org/wiki/%E8%B5%A4%E7%A9%82%E6%A0%B9%E5%B3%B6", "name_municipality": "上島町", "url_municipality": "https://ja.wikipedia.org/wiki/%E4%B8%8A%E5%B3%B6%E7%94%BA", "lat": 34.239167, "lon": 133.161111}, {"name_en": "abashima", "name_island": "阿波島", "url_island": "https://ja.wikipedia.org/wiki/%E9%98%BF%E6%B3%A2%E5%B3%B6", "name_municipality": "竹原市", "url_municipality": "https://ja.wikipedia.org/wiki/%E7%AB%B9%E5%8E%9F%E5%B8%82", "lat": 34.311583, "lon": 132.947167}, {"name_en": "ikuchi_jima", "name_island": "生口島", "url_island": "https://ja.wikipedia.org/wiki/%E7%94%9F%E5%8F%A3%E5%B3%B6", "name_municipality": "尾道市", "url_municipality": "https://ja.wikipedia.org/wiki/%E5%B0%BE%E9%81%93%E5%B8%82", "lat": 34.287556, "lon": 133.107944}, {"name_en": "ikujnoshima", "name_island": "生野島", "url_island": "https://ja.wikipedia.org/wiki/%E7%94%9F%E9%87%8E%E5%B3%B6", "name_municipality": "大崎上島町", "url_municipality": "https://ja.wikipedia.org/wiki/%E5%A4%A7%E5%B4%8E%E4%B8%8A%E5%B3%B6%E7%94%BA", "lat": 34.288278, "lon": 132.9155}, {"name_en": "ituskishima", "name_island": "斎島", "url_island": "https://ja.wikipedia.org/wiki/%E6%96%8E%E5%B3%B6", "name_municipality": "呉市", "url_municipality": "https://ja.wikipedia.org/wiki/%E5%91%89%E5%B8%82", "lat": 34.117444, "lon": 132.792722}, {"name_en": "iwashi_jima", "name_island": "岩子島", "url_island": "https://ja.wikipedia.org/wiki/%E5%B2%A9%E5%AD%90%E5%B3%B6", "name_municipality": "尾道市", "url_municipality": "https://ja.wikipedia.org/wiki/%E5%B0%BE%E9%81%93%E5%B8%82", "lat": 34.379917, "lon": 133.164361}, {"name_en": "innoshima", "name_island": "因島", "url_island": "https://ja.wikipedia.org/wiki/%E5%9B%A0%E5%B3%B6", "name_municipality": "尾道市", "url_municipality": "https://ja.wikipedia.org/wiki/%E5%B0%BE%E9%81%93%E5%B8%82", "lat": 34.316667, "lon": 133.166667}, {"name_en": "ushima_imabari", "name_island": "鵜島_今治", "url_island": "https://ja.wikipedia.org/wiki/%E9%B5%9C%E5%B3%B6_(%E4%BB%8A%E6%B2%BB%E5%B8%82)", "name_municipality": "今治市", "url_municipality": "https://ja.wikipedia.org/wiki/%E4%BB%8A%E6%B2%BB%E5%B8%82", "lat": 34.188056, "lon": 133.088056}, {"name_en": "umashima_ehime", "name_island": "馬島_愛媛", "url_island": "https://ja.wikipedia.org/wiki/%E9%A6%AC%E5%B3%B6_(%E6%84%9B%E5%AA%9B%E7%9C%8C)", "name_municipality": "今治市", "url_municipality": "https://ja.wikipedia.org/wiki/%E4%BB%8A%E6%B2%BB%E5%B8%82", "lat": 34.117167, "lon": 132.993167}, {"name_en": "etajima", "name_island": "江田島", "url_island": "https://ja.wikipedia.org/wiki/%E6%B1%9F%E7%94%B0%E5%B3%B6", "name_municipality": "江田島市", "url_municipality": "https://ja.wikipedia.org/wiki/%E6%B1%9F%E7%94%B0%E5%B3%B6%E5%B8%82", "lat": 34.246389, "lon": 132.477778}, {"name_en": "ookuno_jima", "name_island": "大久野島", "url_island": "https://ja.wikipedia.org/wiki/%E5%A4%A7%E4%B9%85%E9%87%8E%E5%B3%B6", "name_municipality": "竹原市", "url_municipality": "https://ja.wikipedia.org/wiki/%E7%AB%B9%E5%8E%9F%E5%B8%82", "lat": 34.309167, "lon": 132.993056}, {"name_en": "ookurokamishima", "name_island": "大黒神島", "url_island": "https://ja.wikipedia.org/wiki/%E5%A4%A7%E9%BB%92%E7%A5%9E%E5%B3%B6", "name_municipality": "江田島市", "url_municipality": "https://ja.wikipedia.org/wiki/%E6%B1%9F%E7%94%B0%E5%B3%B6%E5%B8%82", "lat": 34.160278, "lon": 132.398889}, {"name_en": "oosaki_kamijima", "name_island": "大崎上島", "url_island": "https://ja.wikipedia.org/wiki/%E5%A4%A7%E5%B4%8E%E4%B8%8A%E5%B3%B6", "name_municipality": "大崎上島町", "url_municipality": "https://ja.wikipedia.org/wiki/%E5%A4%A7%E5%B4%8E%E4%B8%8A%E5%B3%B6%E7%94%BA", "lat": 34.245278, "lon": 132.894722}, {"name_en": "oosaku_shimojima", "name_island": "大崎下島", "url_island": "https://ja.wikipedia.org/wiki/%E5%A4%A7%E5%B4%8E%E4%B8%8B%E5%B3%B6", "name_municipality": "大崎上島町", "url_municipality": "https://ja.wikipedia.org/wiki/%E5%A4%A7%E5%B4%8E%E4%B8%8A%E5%B3%B6%E7%94%BA", "lat": 34.173167, "lon": 132.829833}, {"name_en": "ooshiba_jima", "name_island": "大芝島", "url_island": "https://ja.wikipedia.org/wiki/%E5%A4%A7%E8%8A%9D%E5%B3%B6", "name_municipality": "東広島市", "url_municipality": "https://ja.wikipedia.org/wiki/%E6%9D%B1%E5%BA%83%E5%B3%B6%E5%B8%82", "lat": 34.275278, "lon": 132.801389}, {"name_en": "ooshima_imabari", "name_island": "大島_今治", "url_island": "https://ja.wikipedia.org/wiki/%E5%A4%A7%E5%B3%B6_(%E6%84%9B%E5%AA%9B%E7%9C%8C%E4%BB%8A%E6%B2%BB%E5%B8%82)", "name_municipality": "今治市", "url_municipality": "https://ja.wikipedia.org/wiki/%E4%BB%8A%E6%B2%BB%E5%B8%82", "lat": 34.152778, "lon": 133.058333}, {"name_en": "oomishima", "name_island": "大三島", "url_island": "https://ja.wikipedia.org/wiki/%E5%A4%A7%E4%B8%89%E5%B3%B6", "name_municipality": "今治市", "url_municipality": "https://ja.wikipedia.org/wiki/%E4%BB%8A%E6%B2%BB%E5%B8%82", "lat": 34.245278, "lon": 133.010778}, {"name_en": "okinoshima", "name_island": "沖野島", "url_island": "https://ja.wikipedia.org/wiki/%E6%B2%96%E9%87%8E%E5%B3%B6", "name_municipality": "江田島市", "url_municipality": "https://ja.wikipedia.org/wiki/%E6%B1%9F%E7%94%B0%E5%B3%B6%E5%B8%82", "lat": 34.1525, "lon": 132.435278}, {"name_en": "okubi_jima", "name_island": "屋久比島", "url_island": "https://ja.wikipedia.org/wiki/%E5%B1%8B%E4%B9%85%E6%AF%94%E5%B3%B6", "name_municipality": "呉市", "url_municipality": "https://ja.wikipedia.org/wiki/%E5%91%89%E5%B8%82", "lat": 34.153056, "lon": 132.766944}, {"name_en": "oshima_ehime", "name_island": "小島_愛媛", "url_island": "https://ja.wikipedia.org/wiki/%E5%B0%8F%E5%B3%B6_(%E6%84%9B%E5%AA%9B%E7%9C%8C)", "name_municipality": "今治市", "url_municipality": "https://ja.wikipedia.org/wiki/%E4%BB%8A%E6%B2%BB%E5%B8%82", "lat": 34.126111, "lon": 132.979722}, {"name_en": "kashima_1_hiroshima", "name_island": "加島_広島", "url_island": "https://ja.wikipedia.org/wiki/%E5%8A%A0%E5%B3%B6_(%E5%BA%83%E5%B3%B6%E7%9C%8C)", "name_municipality": "尾道市", "url_municipality": "https://ja.wikipedia.org/wiki/%E5%B0%BE%E9%81%93%E5%B8%82", "lat": 34.374806, "lon": 133.241694}, {"name_en": "kashima_2_hiroshima", "name_island": "鹿島_広島", "url_island": "https://ja.wikipedia.org/wiki/%E9%B9%BF%E5%B3%B6_(%E5%BA%83%E5%B3%B6%E7%9C%8C)", "name_municipality": "呉市", "url_municipality": "https://ja.wikipedia.org/wiki/%E5%91%89%E5%B8%82", "lat": 34.058611, "lon": 132.531111}, {"name_en": "kurahashi_jima", "name_island": "倉橋島", "url_island": "https://ja.wikipedia.org/wiki/%E5%80%89%E6%A9%8B%E5%B3%B6", "name_municipality": "呉市", "url_municipality": "https://ja.wikipedia.org/wiki/%E5%91%89%E5%B8%82", "lat": 34.133333, "lon": 132.525}, {"name_en": "kurushima", "name_island": "来島", "url_island": "https://ja.wikipedia.org/wiki/%E6%9D%A5%E5%B3%B6", "name_municipality": "今治市", "url_municipality": "https://ja.wikipedia.org/wiki/%E4%BB%8A%E6%B2%BB%E5%B8%82", "lat": 34.117944, "lon": 132.969389}, {"name_en": "kouneshima", "name_island": "高根島", "url_island": "https://ja.wikipedia.org/wiki/%E9%AB%98%E6%A0%B9%E5%B3%B6", "name_municipality": "尾道市", "url_municipality": "https://ja.wikipedia.org/wiki/%E5%B0%BE%E9%81%93%E5%B8%82", "lat": 34.316667, "lon": 133.072222}, {"name_en": "sagishima", "name_island": "佐木島", "url_island": "https://ja.wikipedia.org/wiki/%E4%BD%90%E6%9C%A8%E5%B3%B6", "name_municipality": "三原市", "url_municipality": "https://ja.wikipedia.org/wiki/%E4%B8%89%E5%8E%9F%E5%B8%82", "lat": 34.339444, "lon": 133.1105}, {"name_en": "kosagi_jima", "name_island": "小佐木島", "url_island": "https://ja.wikipedia.org/wiki/%E5%B0%8F%E4%BD%90%E6%9C%A8%E5%B3%B6", "name_municipality": "三原市", "url_municipality": "https://ja.wikipedia.org/wiki/%E4%B8%89%E5%8E%9F%E5%B8%82", "lat": 34.362694, "lon": 133.102972}, {"name_en": "sukune_jima", "name_island": "宿禰島", "url_island": "https://ja.wikipedia.org/wiki/%E5%AE%BF%E7%A6%B0%E5%B3%B6", "name_municipality": "三原市", "url_municipality": "https://ja.wikipedia.org/wiki/%E4%B8%89%E5%8E%9F%E5%B8%82", "lat": 34.367444, "lon": 133.11875}, {"name_en": "tashima_hiroshima", "name_island": "田島_広島", "url_island": "https://ja.wikipedia.org/wiki/%E7%94%B0%E5%B3%B6_(%E5%BA%83%E5%B3%B6%E7%9C%8C)", "name_municipality": "福山市", "url_municipality": "https://ja.wikipedia.org/wiki/%E7%A6%8F%E5%B1%B1%E5%B8%82", "lat": 34.360111, "lon": 133.314778}, {"name_en": "tsushima_imabari", "name_island": "津島_今治", "url_island": "https://ja.wikipedia.org/wiki/%E6%B4%A5%E5%B3%B6_(%E4%BB%8A%E6%B2%BB%E5%B8%82)", "name_municipality": "今治市", "url_municipality": "https://ja.wikipedia.org/wiki/%E4%BB%8A%E6%B2%BB%E5%B8%82", "lat": 34.15, "lon": 133.0}, {"name_en": "toyosima_hiroshima", "name_island": "豊島_広島", "url_island": "https://ja.wikipedia.org/wiki/%E8%B1%8A%E5%B3%B6_(%E5%BA%83%E5%B3%B6%E7%9C%8C)", "name_municipality": "呉市", "url_municipality": "https://ja.wikipedia.org/wiki/%E5%91%89%E5%B8%82", "lat": 34.176472, "lon": 132.783944}, {"name_en": "toyoshima_ehime", "name_island": "豊島_愛媛", "url_island": "https://ja.wikipedia.org/wiki/%E8%B1%8A%E5%B3%B6_(%E6%84%9B%E5%AA%9B%E7%9C%8C)", "name_municipality": "上島町", "url_municipality": "https://ja.wikipedia.org/wiki/%E4%B8%8A%E5%B3%B6%E7%94%BA", "lat": 34.231194, "lon": 133.259}, {"name_en": "nagashima_hiroshima", "name_island": "長島_広島", "url_island": "https://ja.wikipedia.org/wiki/%E9%95%B7%E5%B3%B6_(%E5%BA%83%E5%B3%B6%E7%9C%8C)", "name_municipality": "大崎上島町", "url_municipality": "https://ja.wikipedia.org/wiki/%E5%A4%A7%E5%B4%8E%E4%B8%8A%E5%B3%B6%E7%94%BA", "lat": 34.263722, "lon": 132.871556}, {"name_en": "nasakejima_hiroshima", "name_island": "情島_広島", "url_island": "https://ja.wikipedia.org/wiki/%E6%83%85%E5%B3%B6_(%E5%BA%83%E5%B3%B6%E7%9C%8C)", "name_municipality": "呉市", "url_municipality": "https://ja.wikipedia.org/wiki/%E5%91%89%E5%B8%82", "lat": 34.162, "lon": 132.575}, {"name_en": "nii_ooshima", "name_island": "新居大島", "url_island": "https://ja.wikipedia.org/wiki/%E6%96%B0%E5%B1%85%E5%A4%A7%E5%B3%B6", "name_municipality": "新居浜市", "url_municipality": "https://ja.wikipedia.org/wiki/%E6%96%B0%E5%B1%85%E6%B5%9C%E5%B8%82", "lat": 33.999391, "lon": 133.358136}, {"name_en": "noumishima", "name_island": "能美島", "url_island": "https://ja.wikipedia.org/wiki/%E8%83%BD%E7%BE%8E%E5%B3%B6", "name_municipality": "江田島市", "url_municipality": "https://ja.wikipedia.org/wiki/%E6%B1%9F%E7%94%B0%E5%B3%B6%E5%B8%82", "lat": 34.201389, "lon": 132.439167}, {"name_en": "hakata_jima", "name_island": "伯方島", "url_island": "https://ja.wikipedia.org/wiki/%E4%BC%AF%E6%96%B9%E5%B3%B6", "name_municipality": "今治市", "url_municipality": "https://ja.wikipedia.org/wiki/%E4%BB%8A%E6%B2%BB%E5%B8%82", "lat": 34.216667, "lon": 133.089167}, {"name_en": "hashiri_jima", "name_island": "走島", "url_island": "https://ja.wikipedia.org/wiki/%E8%B5%B0%E5%B3%B6", "name_municipality": "福山市", "url_municipality": "https://ja.wikipedia.org/wiki/%E7%A6%8F%E5%B1%B1%E5%B8%82", "lat": 34.343361, "lon": 133.439667}, {"name_en": "hiki_jima", "name_island": "比岐島", "url_island": "https://ja.wikipedia.org/wiki/%E6%AF%94%E5%B2%90%E5%B3%B6", "name_municipality": "今治市", "url_municipality": "https://ja.wikipedia.org/wiki/%E4%BB%8A%E6%B2%BB%E5%B8%82", "lat": 34.058611, "lon": 133.099444}, {"name_en": "hyoutan_jima", "name_island": "瓢箪島", "url_island": "https://ja.wikipedia.org/wiki/%E7%93%A2%E7%AE%AA%E5%B3%B6", "name_municipality": "今治市", "url_municipality": "https://ja.wikipedia.org/wiki/%E4%BB%8A%E6%B2%BB%E5%B8%82", "lat": 34.284722, "lon": 133.050278}, {"name_en": "houjyo_kashima", "name_island": "北条鹿島", "url_island": "https://ja.wikipedia.org/wiki/%E5%8C%97%E6%9D%A1%E9%B9%BF%E5%B3%B6", "name_municipality": "松山市", "url_municipality": "https://ja.wikipedia.org/wiki/%E6%9D%BE%E5%B1%B1%E5%B8%82", "lat": 33.973889, "lon": 132.763889}, {"name_en": "hosojima_hiroshima", "name_island": "細島_広島", "url_island": "https://ja.wikipedia.org/wiki/%E7%B4%B0%E5%B3%B6_(%E5%BA%83%E5%B3%B6%E7%9C%8C)", "name_municipality": "尾道市", "url_municipality": "https://ja.wikipedia.org/wiki/%E5%B0%BE%E9%81%93%E5%B8%82", "lat": 34.36475, "lon": 133.140167}, {"name_en": "kohoso_jima", "name_island": "小細島", "url_island": "https://ja.wikipedia.org/wiki/%E5%B0%8F%E7%B4%B0%E5%B3%B6", "name_municipality": "尾道市", "url_municipality": "https://ja.wikipedia.org/wiki/%E5%B0%BE%E9%81%93%E5%B8%82", "lat": 34.355, "lon": 133.140278}, {"name_en": "kago_jima", "name_island": "御籠島", "url_island": "https://ja.wikipedia.org/wiki/%E5%BE%A1%E7%B1%A0%E5%B3%B6", "name_municipality": "伊方町", "url_municipality": "https://ja.wikipedia.org/wiki/%E4%BC%8A%E6%96%B9%E7%94%BA", "lat": 33.34425, "lon": 132.013361}, {"name_en": "mikadoshima_hiroshima", "name_island": "三角島_広島", "url_island": "https://ja.wikipedia.org/wiki/%E4%B8%89%E8%A7%92%E5%B3%B6_(%E5%BA%83%E5%B3%B6%E7%9C%8C)", "name_municipality": "呉市", "url_municipality": "https://ja.wikipedia.org/wiki/%E5%91%89%E5%B8%82", "lat": 34.191806, "lon": 132.813111}, {"name_en": "michika_jima", "name_island": "見近島", "url_island": "https://ja.wikipedia.org/wiki/%E8%A6%8B%E8%BF%91%E5%B3%B6", "name_municipality": "今治市", "url_municipality": "https://ja.wikipedia.org/wiki/%E4%BB%8A%E6%B2%BB%E5%B8%82", "lat": 34.195278, "lon": 133.075}, {"name_en": "mitsugojima_hiroshima", "name_island": "三ツ子島_広島", "url_island": "https://ja.wikipedia.org/wiki/%E4%B8%89%E3%83%84%E5%AD%90%E5%B3%B6_(%E5%BA%83%E5%B3%B6%E7%9C%8C)", "name_municipality": "呉市", "url_municipality": "https://ja.wikipedia.org/wiki/%E5%91%89%E5%B8%82", "lat": 34.195444, "lon": 132.513056}, {"name_en": "mukaishima_hiroshima", "name_island": "向島_広島", "url_island": "https://ja.wikipedia.org/wiki/%E5%90%91%E5%B3%B6_(%E5%BA%83%E5%B3%B6%E7%9C%8C)", "name_municipality": "尾道市", "url_municipality": "https://ja.wikipedia.org/wiki/%E5%B0%BE%E9%81%93%E5%B8%82", "lat": 34.383333, "lon": 133.2}, {"name_en": "momoshima_hiroshima", "name_island": "百島_広島", "url_island": "https://ja.wikipedia.org/wiki/%E7%99%BE%E5%B3%B6_(%E5%BA%83%E5%B3%B6%E7%9C%8C)", "name_municipality": "尾道市", "url_municipality": "https://ja.wikipedia.org/wiki/%E5%B0%BE%E9%81%93%E5%B8%82", "lat": 34.369444, "lon": 133.265556}, {"name_en": "yokoshima_fukuyama", "name_island": "横島_福山", "url_island": "https://ja.wikipedia.org/wiki/%E6%A8%AA%E5%B3%B6_(%E5%BA%83%E5%B3%B6%E7%9C%8C%E7%A6%8F%E5%B1%B1%E5%B8%82)", "name_municipality": "福山市", "url_municipality": "https://ja.wikipedia.org/wiki/%E7%A6%8F%E5%B1%B1%E5%B8%82", "lat": 34.344111, "lon": 133.274111}]}