{"title": "List of Islands in Miyagi", "title_ja": "宮城県の島の一覧", "reference": "wikipedia: 宮城県の島", "url_reference": "https://ja.wikipedia.org/wiki/Category:%E5%AE%AE%E5%9F%8E%E7%9C%8C%E3%81%AE%E5%B3%B6", "islands": [{"name_en": "ooshima_kesennuma", "name_island": "大島_気仙沼", "url_island": "https://ja.wikipedia.org/wiki/%E5%A4%A7%E5%B3%B6_(%E5%AE%AE%E5%9F%8E%E7%9C%8C%E6%B0%97%E4%BB%99%E6%B2%BC%E5%B8%82)", "name_municipality": "気仙沼市", "url_municipality": "https://ja.wikipedia.org/wiki/%E6%B0%97%E4%BB%99%E6%B2%BC%E5%B8%82", "lat": 38.86127056469637, "lon": 141.61994509801693}, {"name_en": "tsubakishima_minamisanriku", "name_island": "椿島_南三陸", "url_island": "https://ja.wikipedia.org/wiki/%E6%A4%BF%E5%B3%B6_(%E5%8D%97%E4%B8%89%E9%99%B8%E7%94%BA)", "name_municipality": "南三陸町", "url_municipality": "https://ja.wikipedia.org/wiki/%E5%8D%97%E4%B8%89%E9%99%B8%E7%94%BA", "lat": 38.651667, "lon": 141.488889}, {"name_en": "fukura_jima", "name_island": "福浦島", "url_island": "https://ja.wikipedia.org/wiki/%E7%A6%8F%E6%B5%A6%E5%B3%B6", "name_municipality": "東松島市", "url_municipality": "https://ja.wikipedia.org/wiki/%E6%9D%B1%E6%9D%BE%E5%B3%B6%E5%B8%82", "lat": 38.366667, "lon": 141.071111}, {"name_en": "miysto_jima", "name_island": "宮戸島", "url_island": "https://ja.wikipedia.org/wiki/%E5%AE%AE%E6%88%B8%E5%B3%B6", "name_municipality": "東松島市", "url_municipality": "https://ja.wikipedia.org/wiki/%E6%9D%B1%E6%9D%BE%E5%B3%B6%E5%B8%82", "lat": 38.335306, "lon": 141.153889}, {"name_en": "oomaemi_jima", "name_island": "大前見島", "url_island": "", "name_municipality": "気仙沼市", "url_municipality": "https://ja.wikipedia.org/wiki/%E6%B0%97%E4%BB%99%E6%B2%BC%E5%B8%82", "lat": 38.8431887164374, "lon": 141.64213991549477}, {"name_en": "ykeijima", "name_island": "八景島_石巻", "url_island": "", "name_municipality": "石巻市", "url_municipality": "https://ja.wikipedia.org/wiki/%E7%9F%B3%E5%B7%BB%E5%B8%82", "lat": 38.55302428608261, "lon": 141.51332119732578}, {"name_en": "ode_jima", "name_island": "小出島", "url_island": "", "name_municipality": "石巻市", "url_municipality": "https://ja.wikipedia.org/wiki/%E7%9F%B3%E5%B7%BB%E5%B8%82", "lat": 38.378461004103784, "lon": 141.4220221091426}, {"name_en": "karato_jima", "name_island": "唐戸島", "url_island": "", "name_municipality": "東松島市", "url_municipality": "https://ja.wikipedia.org/wiki/%E6%9D%B1%E6%9D%BE%E5%B3%B6%E5%B8%82", "lat": 38.318883135651845, "lon": 141.1580408278329}, {"name_en": "dairi_jima", "name_island": "内裡島", "url_island": "", "name_municipality": "塩竈市", "url_municipality": "https://ja.wikipedia.org/wiki/%E5%A1%A9%E7%AB%88%E5%B8%82", "lat": 38.33642949694546, "lon": 141.053787761279}, {"name_en": "oomori_jima", "name_island": "大森島", "url_island": "", "name_municipality": "塩竈市", "url_municipality": "https://ja.wikipedia.org/wiki/%E5%A1%A9%E7%AB%88%E5%B8%82", "lat": 38.34893360707208, "lon": 141.11460213901643}, {"name_en": "urushi_jima", "name_island": "漆島", "url_island": "", "name_municipality": "東松島市", "url_municipality": "https://ja.wikipedia.org/wiki/%E6%9D%B1%E6%9D%BE%E5%B3%B6%E5%B8%82", "lat": 38.34198729756166, "lon": 141.1140528659214}, {"name_en": "sagi_shima", "name_island": "鷺島", "url_island": "", "name_municipality": "東松島市", "url_municipality": "https://ja.wikipedia.org/wiki/%E6%9D%B1%E6%9D%BE%E5%B3%B6%E5%B8%82", "lat": 38.349944829096046, "lon": 141.12016115129282}, {"name_en": "taira_jima", "name_island": "平島", "url_island": "", "name_municipality": "女川町", "url_municipality": "https://ja.wikipedia.org/wiki/%E5%A5%B3%E5%B7%9D%E7%94%BA", "lat": 38.40237550936669, "lon": 141.58173278638182}, {"name_en": "mahanashi_jima", "name_island": "馬放島", "url_island": "", "name_municipality": "松島町", "url_municipality": "https://ja.wikipedia.org/wiki/%E6%9D%BE%E5%B3%B6%E7%94%BA", "lat": 38.32583133094022, "lon": 141.07124485772104}, {"name_en": "yake_shime", "name_island": "焼島", "url_island": "", "name_municipality": "松島町", "url_municipality": "https://ja.wikipedia.org/wiki/%E6%9D%BE%E5%B3%B6%E7%94%BA", "lat": 38.363786988842314, "lon": 141.07657288157668}, {"name_en": "kuno_shima", "name_island": "九ノ島", "url_island": "", "name_municipality": "松島町", "url_municipality": "https://ja.wikipedia.org/wiki/%E6%9D%BE%E5%B3%B6%E7%94%BA", "lat": 38.364303, "lon": 141.08541}, {"name_en": "iwai_shima", "name_island": "岩井島", "url_island": "", "name_municipality": "塩竈市", "url_municipality": "https://ja.wikipedia.org/wiki/%E5%A1%A9%E7%AB%88%E5%B8%82", "lat": 38.34166490987436, "lon": 141.0429256416475}, {"name_en": "sabusawa_jima_terasaki", "name_island": "寒風沢島_寺崎", "url_island": "", "name_municipality": "塩竈市", "url_municipality": "https://ja.wikipedia.org/wiki/%E5%A1%A9%E7%AB%88%E5%B8%82", "lat": 38.3457872445749, "lon": 141.129584569329}, {"name_en": "izushima_miyagi", "name_island": "出島_宮城", "url_island": "https://ja.wikipedia.org/wiki/%E5%87%BA%E5%B3%B6_(%E5%AE%AE%E5%9F%8E%E7%9C%8C)", "name_municipality": "女川町", "url_municipality": "https://ja.wikipedia.org/wiki/%E5%A5%B3%E5%B7%9D%E7%94%BA", "lat": 38.45, "lon": 141.525}, {"name_en": "enoshima_miyagi", "name_island": "江島_宮城", "url_island": "https://ja.wikipedia.org/wiki/%E6%B1%9F%E5%B3%B6_(%E5%AE%AE%E5%9F%8E%E7%9C%8C)", "name_municipality": "女川町", "url_municipality": "https://ja.wikipedia.org/wiki/%E5%A5%B3%E5%B7%9D%E7%94%BA", "lat": 38.398611, "lon": 141.593889}, {"name_en": "ashi_jima", "name_island": "足島", "url_island": "https://ja.wikipedia.org/wiki/%E8%B6%B3%E5%B3%B6", "name_municipality": "女川町", "url_municipality": "https://ja.wikipedia.org/wiki/%E5%A5%B3%E5%B7%9D%E7%94%BA", "lat": 38.388333, "lon": 141.603611}, {"name_en": "kinkasan_miyagi", "name_island": "金華山_宮城", "url_island": "https://ja.wikipedia.org/wiki/%E9%87%91%E8%8F%AF%E5%B1%B1_(%E5%AE%AE%E5%9F%8E%E7%9C%8C)", "name_municipality": "石巻市", "url_municipality": "https://ja.wikipedia.org/wiki/%E7%9F%B3%E5%B7%BB%E5%B8%82", "lat": 38.288889, "lon": 141.570056}, {"name_en": "ajishima", "name_island": "網地島", "url_island": "https://ja.wikipedia.org/wiki/%E7%B6%B2%E5%9C%B0%E5%B3%B6", "name_municipality": "石巻市", "url_municipality": "https://ja.wikipedia.org/wiki/%E7%9F%B3%E5%B7%BB%E5%B8%82", "lat": 38.266056, "lon": 141.478889}, {"name_en": "tashiro_jima", "name_island": "田代島", "url_island": "https://ja.wikipedia.org/wiki/%E7%94%B0%E4%BB%A3%E5%B3%B6", "name_municipality": "石巻市", "url_municipality": "https://ja.wikipedia.org/wiki/%E7%9F%B3%E5%B7%BB%E5%B8%82", "lat": 38.297917, "lon": 141.417028}, {"name_en": "katsurashima_miyagi", "name_island": "桂島_宮城", "url_island": "https://ja.wikipedia.org/wiki/%E6%A1%82%E5%B3%B6_(%E5%AE%AE%E5%9F%8E%E7%9C%8C)", "name_municipality": "塩竈市", "url_municipality": "https://ja.wikipedia.org/wiki/%E5%A1%A9%E7%AB%88%E5%B8%82", "lat": 38.333611, "lon": 141.096667}, {"name_en": "nonoshima_miyagi", "name_island": "野々島_宮城", "url_island": "https://ja.wikipedia.org/wiki/%E9%87%8E%E3%80%85%E5%B3%B6_(%E5%AE%AE%E5%9F%8E%E7%9C%8C)", "name_municipality": "塩竈市", "url_municipality": "https://ja.wikipedia.org/wiki/%E5%A1%A9%E7%AB%88%E5%B8%82", "lat": 38.337222, "lon": 141.11}, {"name_en": "sabusawa_jima", "name_island": "寒風沢島", "url_island": "https://ja.wikipedia.org/wiki/%E5%AF%92%E9%A2%A8%E6%B2%A2%E5%B3%B6", "name_municipality": "塩竈市", "url_municipality": "https://ja.wikipedia.org/wiki/%E5%A1%A9%E7%AB%88%E5%B8%82", "lat": 38.334315, "lon": 141.122651}, {"name_en": "hoo_jima", "name_island": "朴島", "url_island": "https://ja.wikipedia.org/wiki/%E6%9C%B4%E5%B3%B6", "name_municipality": "塩竈市", "url_municipality": "https://ja.wikipedia.org/wiki/%E5%A1%A9%E7%AB%88%E5%B8%82", "lat": 38.351111, "lon": 141.123889}]}