{"title": "List of Islands in Ehime", "title_ja": "愛媛県の島の一覧", "reference": "wikipedia: 愛媛県の島", "url_reference": "https://ja.wikipedia.org/wiki/Category:%E6%84%9B%E5%AA%9B%E7%9C%8C%E3%81%AE%E5%B3%B6", "islands": [{"name_en": "ai_jima", "name_island": "安居島", "url_island": "https://ja.wikipedia.org/wiki/%E5%AE%89%E5%B1%85%E5%B3%B6", "name_municipality": "松山市", "url_municipality": "https://ja.wikipedia.org/wiki/%E6%9D%BE%E5%B1%B1%E5%B8%82", "lat": 34.070944, "lon": 132.707417}, {"name_en": "aoshima_ehime", "name_island": "青島_愛媛", "url_island": "https://ja.wikipedia.org/wiki/%E9%9D%92%E5%B3%B6_(%E6%84%9B%E5%AA%9B%E7%9C%8C)", "name_municipality": "大洲市", "url_municipality": "https://ja.wikipedia.org/wiki/%E5%A4%A7%E6%B4%B2%E5%B8%82", "lat": 33.736111, "lon": 132.487222}, {"name_en": "ushima", "name_island": "鵜島", "url_island": "", "name_municipality": "今治市", "url_municipality": "https://ja.wikipedia.org/wiki/%E4%BB%8A%E6%B2%BB%E5%B8%82", "lat": 34.187885, "lon": 133.088103}, {"name_en": "oitsukami_jima", "name_island": "御五神島", "url_island": "https://ja.wikipedia.org/wiki/%E5%BE%A1%E4%BA%94%E7%A5%9E%E5%B3%B6", "name_municipality": "宇和島市", "url_municipality": "https://ja.wikipedia.org/wiki/%E5%AE%87%E5%92%8C%E5%B3%B6%E5%B8%82", "lat": 33.105556, "lon": 132.326667}, {"name_en": "ooshima_yawata", "name_island": "大島_八幡浜", "url_island": "https://ja.wikipedia.org/wiki/%E5%A4%A7%E5%B3%B6_(%E6%84%9B%E5%AA%9B%E7%9C%8C%E5%85%AB%E5%B9%A1%E6%B5%9C%E5%B8%82)", "name_municipality": "八幡浜市", "url_municipality": "https://ja.wikipedia.org/wiki/%E5%85%AB%E5%B9%A1%E6%B5%9C%E5%B8%82", "lat": 33.391967, "lon": 132.340507}, {"name_en": "oozukuma_jima", "name_island": "大突間島", "url_island": "https://ja.wikipedia.org/wiki/%E5%A4%A7%E7%AA%81%E9%96%93%E5%B3%B6", "name_municipality": "今治市", "url_municipality": "https://ja.wikipedia.org/wiki/%E4%BB%8A%E6%B2%BB%E5%B8%82", "lat": 34.144167, "lon": 133.009722}, {"name_en": "okinoshima_ehime", "name_island": "沖の島_愛媛", "url_island": "https://ja.wikipedia.org/wiki/%E6%B2%96%E3%81%AE%E5%B3%B6_(%E6%84%9B%E5%AA%9B%E7%9C%8C)", "name_municipality": "宇和島市", "url_municipality": "http://ja.wikipedia.org/wiki/%E5%AE%87%E5%92%8C%E5%B3%B6%E5%B8%82", "lat": 33.188611, "lon": 132.268333}, {"name_en": "kashima_uwajima", "name_island": "嘉島_宇和島", "url_island": "https://ja.wikipedia.org/wiki/%E5%98%89%E5%B3%B6_(%E5%AE%87%E5%92%8C%E5%B3%B6%E5%B8%82)", "name_municipality": "宇和島市", "url_municipality": "https://ja.wikipedia.org/wiki/%E5%AE%87%E5%92%8C%E5%B3%B6%E5%B8%82", "lat": 33.226944, "lon": 132.362778}, {"name_en": "kuroshima_ikata", "name_island": "黒島_伊方", "url_island": "https://ja.wikipedia.org/wiki/%E9%BB%92%E5%B3%B6_(%E6%84%9B%E5%AA%9B%E7%9C%8C%E4%BC%8A%E6%96%B9%E7%94%BA)", "name_municipality": "伊方町", "url_municipality": "https://ja.wikipedia.org/wiki/%E4%BC%8A%E6%96%B9%E7%94%BA", "lat": 33.456111, "lon": 132.348611}, {"name_en": "kuroshima_uwajima", "name_island": "黒島_宇和島", "url_island": "https://ja.wikipedia.org/wiki/%E9%BB%92%E5%B3%B6_(%E6%84%9B%E5%AA%9B%E7%9C%8C%E5%AE%87%E5%92%8C%E5%B3%B6%E5%B8%82)", "name_municipality": "宇和島市", "url_municipality": "https://ja.wikipedia.org/wiki/%E5%AE%87%E5%92%8C%E5%B3%B6%E5%B8%82", "lat": 33.1647, "lon": 132.39561}, {"name_en": "keshima", "name_island": "怪島", "url_island": "https://ja.wikipedia.org/wiki/%E6%80%AA%E5%B3%B6", "name_municipality": "今治市", "url_municipality": "https://ja.wikipedia.org/wiki/%E4%BB%8A%E6%B2%BB%E5%B8%82", "lat": 34.072222, "lon": 132.881667}, {"name_en": "gogoshima", "name_island": "興居島", "url_island": "https://ja.wikipedia.org/wiki/%E8%88%88%E5%B1%85%E5%B3%B6", "name_municipality": "松山市", "url_municipality": "https://ja.wikipedia.org/wiki/%E6%9D%BE%E5%B1%B1%E5%B8%82", "lat": 33.9, "lon": 132.669444}, {"name_en": "shisaka_jima", "name_island": "四阪島", "url_island": "https://ja.wikipedia.org/wiki/%E5%9B%9B%E9%98%AA%E5%B3%B6", "name_municipality": "今治市", "url_municipality": "https://ja.wikipedia.org/wiki/%E4%BB%8A%E6%B2%BB%E5%B8%82", "lat": 34.109222, "lon": 133.181917}, {"name_en": "shijyushima", "name_island": "四十島", "url_island": "https://ja.wikipedia.org/wiki/%E5%9B%9B%E5%8D%81%E5%B3%B6", "name_municipality": "松山市", "url_municipality": "https://ja.wikipedia.org/wiki/%E6%9D%BE%E5%B1%B1%E5%B8%82", "lat": 33.878778, "lon": 132.696778}, {"name_en": "takashima_1", "name_island": "高島_宇和島", "url_island": "https://ja.wikipedia.org/wiki/%E9%AB%98%E5%B3%B6_(%E6%84%9B%E5%AA%9B%E7%9C%8C%E5%AE%87%E5%92%8C%E5%B3%B6%E5%B8%82)", "name_municipality": "宇和島市", "url_municipality": "https://ja.wikipedia.org/wiki/%E5%AE%87%E5%92%8C%E5%B3%B6%E5%B8%82", "lat": 33.216667, "lon": 132.484444}, {"name_en": "takashima_2", "name_island": "高島_2", "url_island": "", "name_municipality": "宇和島市", "url_municipality": "https://ja.wikipedia.org/wiki/%E5%AE%87%E5%92%8C%E5%B3%B6%E5%B8%82", "lat": 33.11254, "lon": 132.42272}, {"name_en": "takegashima_uwajima", "name_island": "竹ヶ島_宇和島", "url_island": "https://ja.wikipedia.org/wiki/%E7%AB%B9%E3%83%B6%E5%B3%B6_(%E5%AE%87%E5%92%8C%E5%B3%B6%E5%B8%82%E6%B4%A5%E5%B3%B6%E7%94%BA)", "name_municipality": "宇和島市", "url_municipality": "https://ja.wikipedia.org/wiki/%E5%AE%87%E5%92%8C%E5%B3%B6%E5%B8%82", "lat": 33.106389, "lon": 132.413333}, {"name_en": "tsukumojima_imabari", "name_island": "九十九島_今治", "url_island": "https://ja.wikipedia.org/wiki/%E4%B9%9D%E5%8D%81%E4%B9%9D%E5%B3%B6_(%E4%BB%8A%E6%B2%BB%E5%B8%82)", "name_municipality": "今治市", "url_municipality": "https://ja.wikipedia.org/wiki/%E4%BB%8A%E6%B2%BB%E5%B8%82", "lat": 34.147111, "lon": 133.085278}, {"name_en": "tsuba_jima", "name_island": "津波島", "url_island": "https://ja.wikipedia.org/wiki/%E6%B4%A5%E6%B3%A2%E5%B3%B6", "name_municipality": "上島町", "url_municipality": "https://ja.wikipedia.org/wiki/%E4%B8%8A%E5%B3%B6%E7%94%BA", "lat": 34.223333, "lon": 133.152222}, {"name_en": "tsurushima", "name_island": "釣島", "url_island": "https://ja.wikipedia.org/wiki/%E9%87%A3%E5%B3%B6", "name_municipality": "松山市", "url_municipality": "https://ja.wikipedia.org/wiki/%E6%9D%BE%E5%B1%B1%E5%B8%82", "lat": 33.890278, "lon": 132.6425}, {"name_en": "toudoshima", "name_island": "遠戸島", "url_island": "https://ja.wikipedia.org/wiki/%E9%81%A0%E6%88%B8%E5%B3%B6", "name_municipality": "宇和島市", "url_municipality": "https://ja.wikipedia.org/wiki/%E5%AE%87%E5%92%8C%E5%B3%B6%E5%B8%82", "lat": 33.184444, "lon": 132.371111}, {"name_en": "tojima_ehime", "name_island": "戸島_愛媛", "url_island": "https://ja.wikipedia.org/wiki/%E6%88%B8%E5%B3%B6_(%E6%84%9B%E5%AA%9B%E7%9C%8C)", "name_municipality": "宇和島市", "url_municipality": "https://ja.wikipedia.org/wiki/%E5%AE%87%E5%92%8C%E5%B3%B6%E5%B8%82", "lat": 33.198056, "lon": 132.358889}, {"name_en": "niwatori_kojima", "name_island": "鶏小島", "url_island": "https://ja.wikipedia.org/wiki/%E9%B6%8F%E5%B0%8F%E5%B3%B6", "name_municipality": "今治市", "url_municipality": "https://ja.wikipedia.org/wiki/%E4%BB%8A%E6%B2%BB%E5%B8%82", "lat": 34.192139, "lon": 133.080889}, {"name_en": "nezumishima", "name_island": "ねずみ島", "url_island": "https://ja.wikipedia.org/wiki/%E3%81%AD%E3%81%9A%E3%81%BF%E5%B3%B6", "name_municipality": "八幡浜市", "url_municipality": "https://ja.wikipedia.org/wiki/%E5%85%AB%E5%B9%A1%E6%B5%9C%E5%B8%82", "lat": 33.423056, "lon": 132.386917}, {"name_en": "noshima", "name_island": "能島", "url_island": "https://ja.wikipedia.org/wiki/%E8%83%BD%E5%B3%B6", "name_municipality": "今治市", "url_municipality": "https://ja.wikipedia.org/wiki/%E4%BB%8A%E6%B2%BB%E5%B8%82", "lat": 34.182778, "lon": 133.080833}, {"name_en": "kohiki_jima", "name_island": "小比岐島", "url_island": "", "name_municipality": "今治市", "url_municipality": "https://ja.wikipedia.org/wiki/%E4%BB%8A%E6%B2%BB%E5%B8%82", "lat": 34.060996, "lon": 133.1101882}, {"name_en": "hiburishima_1", "name_island": "日振島_1", "url_island": "https://ja.wikipedia.org/wiki/%E6%97%A5%E6%8C%AF%E5%B3%B6", "name_municipality": "宇和島市", "url_municipality": "https://ja.wikipedia.org/wiki/%E5%AE%87%E5%92%8C%E5%B3%B6%E5%B8%82", "lat": 33.171389, "lon": 132.2925}, {"name_en": "hiburishima_2", "name_island": "日振島_2", "url_island": "", "name_municipality": "宇和島市", "url_municipality": "https://ja.wikipedia.org/wiki/%E5%AE%87%E5%92%8C%E5%B3%B6%E5%B8%82", "lat": 33.1556259, "lon": 132.301409}, {"name_en": "kashima_2", "name_island": "鹿島_2", "url_island": "", "name_municipality": "愛南町", "url_municipality": "https://ja.wikipedia.org/wiki/%E6%84%9B%E5%8D%97%E7%94%BA", "lat": 32.94516, "lon": 132.44906}, {"name_en": "mushi_jima", "name_island": "武志島", "url_island": "https://ja.wikipedia.org/wiki/%E6%AD%A6%E5%BF%97%E5%B3%B6", "name_municipality": "今治市", "url_municipality": "https://ja.wikipedia.org/wiki/%E4%BB%8A%E6%B2%BB%E5%B8%82", "lat": 34.121667, "lon": 133.009722}, {"name_en": "yokoshima_1", "name_island": "横島_宇和島", "url_island": "https://ja.wikipedia.org/wiki/%E6%A8%AA%E5%B3%B6_(%E6%84%9B%E5%AA%9B%E7%9C%8C%E5%AE%87%E5%92%8C%E5%B3%B6%E5%B8%82)", "name_municipality": "宇和島市", "url_municipality": "https://ja.wikipedia.org/wiki/%E5%AE%87%E5%92%8C%E5%B3%B6%E5%B8%82", "lat": 33.1564, "lon": 132.3311}, {"name_en": "yokoshima_2", "name_island": "横島_2", "url_island": "", "name_municipality": "松山市", "url_municipality": "https://ja.wikipedia.org/wiki/%E6%9D%BE%E5%B1%B1%E5%B8%82", "lat": 33.927085, "lon": 132.55933}, {"name_en": "yokoshima_3", "name_island": "横島_3", "url_island": "", "name_municipality": "愛南町", "url_municipality": "https://ja.wikipedia.org/wiki/%E6%84%9B%E5%8D%97%E7%94%BA", "lat": 32.938424, "lon": 132.40461}, {"name_en": "ooyokoshima", "name_island": "大横島", "url_island": "", "name_municipality": "今治市", "url_municipality": "https://ja.wikipedia.org/wiki/%E4%BB%8A%E6%B2%BB%E5%B8%82", "lat": 34.244339, "lon": 132.951477}, {"name_en": "hena_jima", "name_island": "平内島", "url_island": "", "name_municipality": "上島町", "url_municipality": "https://ja.wikipedia.org/wiki/%E4%B8%8A%E5%B3%B6%E7%94%BA", "lat": 34.28746, "lon": 133.163347}, {"name_en": "tsurushima", "name_island": "鶴島", "url_island": "", "name_municipality": "上島町", "url_municipality": "https://ja.wikipedia.org/wiki/%E4%B8%8A%E5%B3%B6%E7%94%BA", "lat": 34.288819, "lon": 133.172101}, {"name_en": "heichi_jima", "name_island": "平市島", "url_island": "", "name_municipality": "今治市", "url_municipality": "https://ja.wikipedia.org/wiki/%E4%BB%8A%E6%B2%BB%E5%B8%82", "lat": 34.02243, "lon": 133.0954431}, {"name_en": "myoujinn_jima", "name_island": "明神島", "url_island": "", "name_municipality": "今治市", "url_municipality": "https://ja.wikipedia.org/wiki/%E4%BB%8A%E6%B2%BB%E5%B8%82", "lat": 34.119625, "lon": 133.1853921}, {"name_en": "kaji_jima", "name_island": "梶島", "url_island": "", "name_municipality": "今治市", "url_municipality": "https://ja.wikipedia.org/wiki/%E4%BB%8A%E6%B2%BB%E5%B8%82", "lat": 34.121679, "lon": 133.157987}, {"name_en": "ooyuri_jima", "name_island": "大由利島", "url_island": "https://ja.wikipedia.org/wiki/%E7%94%B1%E5%88%A9%E5%B3%B6", "name_municipality": "松山市", "url_municipality": "https://ja.wikipedia.org/wiki/%E6%9D%BE%E5%B1%B1%E5%B8%82", "lat": 33.850684, "lon": 132.5305}, {"name_en": "koyuri_jima", "name_island": "小由利島", "url_island": "https://ja.wikipedia.org/wiki/%E7%94%B1%E5%88%A9%E5%B3%B6", "name_municipality": "松山市", "url_municipality": "https://ja.wikipedia.org/wiki/%E6%9D%BE%E5%B1%B1%E5%B8%82", "lat": 33.852527, "lon": 132.519085}, {"name_en": "nagare_kojima", "name_island": "流児島", "url_island": "", "name_municipality": "松山市", "url_municipality": "https://ja.wikipedia.org/wiki/%E6%9D%BE%E5%B1%B1%E5%B8%82", "lat": 33.99335, "lon": 132.519057}, {"name_en": "hishima", "name_island": "肥島", "url_island": "", "name_municipality": "今治市", "url_municipality": "https://ja.wikipedia.org/wiki/%E4%BB%8A%E6%B2%BB%E5%B8%82", "lat": 34.18946, "lon": 132.93984}, {"name_en": "kashiwa_jima", "name_island": "柏島", "url_island": "", "name_municipality": "今治市", "url_municipality": "https://ja.wikipedia.org/wiki/%E4%BB%8A%E6%B2%BB%E5%B8%82", "lat": 34.20174, "lon": 132.935056}, {"name_en": "kashiwazaki", "name_island": "柏崎", "url_island": "", "name_municipality": "宇和島市", "url_municipality": "https://ja.wikipedia.org/wiki/%E5%AE%87%E5%92%8C%E5%B3%B6%E5%B8%82", "lat": 33.12265, "lon": 132.4493}, {"name_en": "oodateba_jima", "name_island": "大館場島", "url_island": "", "name_municipality": "松山市", "url_municipality": "https://ja.wikipedia.org/wiki/%E6%9D%BE%E5%B1%B1%E5%B8%82", "lat": 34.027762, "lon": 132.592132}, {"name_en": "sashima", "name_island": "佐島", "url_island": "", "name_municipality": "八幡浜市", "url_municipality": "https://ja.wikipedia.org/wiki/%E5%85%AB%E5%B9%A1%E6%B5%9C%E5%B8%82", "lat": 33.43941, "lon": 132.36529}, {"name_en": "jinoooshima", "name_island": "地大島", "url_island": "", "name_municipality": "八幡浜市", "url_municipality": "https://ja.wikipedia.org/wiki/%E5%85%AB%E5%B9%A1%E6%B5%9C%E5%B8%82", "lat": 33.37535, "lon": 132.35465}, {"name_en": "birishima", "name_island": "毘理島", "url_island": "", "name_municipality": "西予市", "url_municipality": "https://ja.wikipedia.org/wiki/%E8%A5%BF%E4%BA%88%E5%B8%82", "lat": 33.367223, "lon": 132.38393}, {"name_en": "kushima", "name_island": "九島", "url_island": "https://ja.wikipedia.org/wiki/%E4%B9%9D%E5%B3%B6", "name_municipality": "宇和島市", "url_municipality": "https://ja.wikipedia.org/wiki/%E5%AE%87%E5%92%8C%E5%B3%B6%E5%B8%82", "lat": 33.22909, "lon": 132.521216}, {"name_en": "nojima", "name_island": "野島", "url_island": "", "name_municipality": "宇和島市", "url_municipality": "https://ja.wikipedia.org/wiki/%E5%AE%87%E5%92%8C%E5%B3%B6%E5%B8%82", "lat": 33.2364, "lon": 132.48204}, {"name_en": "ategi_jima", "name_island": "当木島", "url_island": "", "name_municipality": "愛南町", "url_municipality": "https://ja.wikipedia.org/wiki/%E6%84%9B%E5%8D%97%E7%94%BA", "lat": 32.91143, "lon": 132.56026}, {"name_en": "ajiro", "name_island": "網代", "url_island": "", "name_municipality": "愛南町", "url_municipality": "https://ja.wikipedia.org/wiki/%E6%84%9B%E5%8D%97%E7%94%BA", "lat": 33.033, "lon": 132.4014}, {"name_en": "komobuchi", "name_island": "蒋淵", "url_island": "https://ja.wikipedia.org/wiki/%E8%94%A3%E6%B7%B5%E6%9D%91", "name_municipality": "宇和島市", "url_municipality": "https://ja.wikipedia.org/wiki/%E5%AE%87%E5%92%8C%E5%B3%B6%E5%B8%82", "lat": 33.19546, "lon": 132.40284}, {"name_en": "chigiri_jima", "name_island": "契島", "url_island": "", "name_municipality": "宇和島市", "url_municipality": "https://ja.wikipedia.org/wiki/%E5%AE%87%E5%92%8C%E5%B3%B6%E5%B8%82", "lat": 33.182, "lon": 132.40223}, {"name_en": "ikina_jima", "name_island": "生名島", "url_island": "https://ja.wikipedia.org/wiki/%E7%94%9F%E5%90%8D%E5%B3%B6", "name_municipality": "上島町", "url_municipality": "https://ja.wikipedia.org/wiki/%E4%B8%8A%E5%B3%B6%E7%94%BA", "lat": 34.273833, "lon": 133.173806}, {"name_en": "iwagi_jima", "name_island": "岩城島", "url_island": "https://ja.wikipedia.org/wiki/%E5%B2%A9%E5%9F%8E%E5%B3%B6", "name_municipality": "上島町", "url_municipality": "https://ja.wikipedia.org/wiki/%E4%B8%8A%E5%B3%B6%E7%94%BA", "lat": 34.260556, "lon": 133.149444}, {"name_en": "sashima_kamijima", "name_island": "佐島_上島", "url_island": "https://ja.wikipedia.org/wiki/%E4%BD%90%E5%B3%B6_(%E4%B8%8A%E5%B3%B6%E8%AB%B8%E5%B3%B6)", "name_municipality": "上島", "url_municipality": "https://ja.wikipedia.org/wiki/%E4%B8%8A%E5%B3%B6%E7%94%BA", "lat": 34.24075, "lon": 133.186722}, {"name_en": "hyakkanjima_ehime", "name_island": "百貫島_愛媛", "url_island": "https://ja.wikipedia.org/wiki/%E7%99%BE%E8%B2%AB%E5%B3%B6_(%E6%84%9B%E5%AA%9B%E7%9C%8C)", "name_municipality": "上島町", "url_municipality": "https://ja.wikipedia.org/wiki/%E4%B8%8A%E5%B3%B6%E7%94%BA", "lat": 34.300583, "lon": 133.275917}, {"name_en": "yuge_jima", "name_island": "弓削島", "url_island": "https://ja.wikipedia.org/wiki/%E5%BC%93%E5%89%8A%E5%B3%B6", "name_municipality": "上島町", "url_municipality": "https://ja.wikipedia.org/wiki/%E4%B8%8A%E5%B3%B6%E7%94%BA", "lat": 34.268611, "lon": 133.216611}, {"name_en": "uoshima", "name_island": "魚島", "url_island": "https://ja.wikipedia.org/wiki/%E9%AD%9A%E5%B3%B6", "name_municipality": "上島町", "url_municipality": "https://ja.wikipedia.org/wiki/%E4%B8%8A%E5%B3%B6%E7%94%BA", "lat": 34.176667, "lon": 133.319444}, {"name_en": "takaikamishima", "name_island": "高井神島", "url_island": "https://ja.wikipedia.org/wiki/%E9%AB%98%E4%BA%95%E7%A5%9E%E5%B3%B6", "name_municipality": "上島町", "url_municipality": "https://ja.wikipedia.org/wiki/%E4%B8%8A%E5%B3%B6%E7%94%BA", "lat": 34.189722, "lon": 133.270556}, {"name_en": "enoshima_ehime", "name_island": "江ノ島_愛媛", "url_island": "https://ja.wikipedia.org/wiki/%E6%B1%9F%E3%83%8E%E5%B3%B6_(%E6%84%9B%E5%AA%9B%E7%9C%8C)", "name_municipality": "上島町", "url_municipality": "https://ja.wikipedia.org/wiki/%E4%B8%8A%E5%B3%B6%E7%94%BA", "lat": 34.168556, "lon": 133.362083}, {"name_en": "tsuwaji_jima", "name_island": "津和地島", "url_island": "https://ja.wikipedia.org/wiki/%E6%B4%A5%E5%92%8C%E5%9C%B0%E5%B3%B6", "name_municipality": "松山市", "url_municipality": "https://ja.wikipedia.org/wiki/%E6%9D%BE%E5%B1%B1%E5%B8%82", "lat": 33.980556, "lon": 132.506667}, {"name_en": "nakajima_ehime", "name_island": "中島_愛媛", "url_island": "https://ja.wikipedia.org/wiki/%E4%B8%AD%E5%B3%B6_(%E6%84%9B%E5%AA%9B%E7%9C%8C)", "name_municipality": "松山市", "url_municipality": "https://ja.wikipedia.org/wiki/%E6%9D%BE%E5%B1%B1%E5%B8%82", "lat": 33.966667, "lon": 132.616667}, {"name_en": "muwa_jima", "name_island": "怒和島", "url_island": "https://ja.wikipedia.org/wiki/%E6%80%92%E5%92%8C%E5%B3%B6", "name_municipality": "松山市", "url_municipality": "https://ja.wikipedia.org/wiki/%E6%9D%BE%E5%B1%B1%E5%B8%82", "lat": 33.983333, "lon": 132.55}, {"name_en": "nogutsuna_jima", "name_island": "野忽那島", "url_island": "https://ja.wikipedia.org/wiki/%E9%87%8E%E5%BF%BD%E9%82%A3%E5%B3%B6", "name_municipality": "松山市", "url_municipality": "https://ja.wikipedia.org/wiki/%E6%9D%BE%E5%B1%B1%E5%B8%82", "lat": 33.969167, "lon": 132.69}, {"name_en": "futagami_jima", "name_island": "二神島", "url_island": "https://ja.wikipedia.org/wiki/%E4%BA%8C%E7%A5%9E%E5%B3%B6", "name_municipality": "松山市", "url_municipality": "https://ja.wikipedia.org/wiki/%E6%9D%BE%E5%B1%B1%E5%B8%82", "lat": 33.930111, "lon": 132.5315}, {"name_en": "muzuki_jima", "name_island": "睦月島", "url_island": "https://ja.wikipedia.org/wiki/%E7%9D%A6%E6%9C%88%E5%B3%B6", "name_municipality": "松山市", "url_municipality": "https://ja.wikipedia.org/wiki/%E6%9D%BE%E5%B1%B1%E5%B8%82", "lat": 33.963556, "lon": 132.662389}, {"name_en": "yuri_jima", "name_island": "由利島", "url_island": "https://ja.wikipedia.org/wiki/%E7%94%B1%E5%88%A9%E5%B3%B6", "name_municipality": "松山市", "url_municipality": "https://ja.wikipedia.org/wiki/%E6%9D%BE%E5%B1%B1%E5%B8%82", "lat": 33.852222, "lon": 132.524167}, {"name_en": "akahone_jima", "name_island": "赤穂根島", "url_island": "https://ja.wikipedia.org/wiki/%E8%B5%A4%E7%A9%82%E6%A0%B9%E5%B3%B6", "name_municipality": "上島町", "url_municipality": "https://ja.wikipedia.org/wiki/%E4%B8%8A%E5%B3%B6%E7%94%BA", "lat": 34.239167, "lon": 133.161111}, {"name_en": "abashima", "name_island": "阿波島", "url_island": "https://ja.wikipedia.org/wiki/%E9%98%BF%E6%B3%A2%E5%B3%B6", "name_municipality": "竹原市", "url_municipality": "https://ja.wikipedia.org/wiki/%E7%AB%B9%E5%8E%9F%E5%B8%82", "lat": 34.311583, "lon": 132.947167}, {"name_en": "ikuchi_jima", "name_island": "生口島", "url_island": "https://ja.wikipedia.org/wiki/%E7%94%9F%E5%8F%A3%E5%B3%B6", "name_municipality": "尾道市", "url_municipality": "https://ja.wikipedia.org/wiki/%E5%B0%BE%E9%81%93%E5%B8%82", "lat": 34.287556, "lon": 133.107944}, {"name_en": "ikujnoshima", "name_island": "生野島", "url_island": "https://ja.wikipedia.org/wiki/%E7%94%9F%E9%87%8E%E5%B3%B6", "name_municipality": "大崎上島町", "url_municipality": "https://ja.wikipedia.org/wiki/%E5%A4%A7%E5%B4%8E%E4%B8%8A%E5%B3%B6%E7%94%BA", "lat": 34.288278, "lon": 132.9155}, {"name_en": "ituskishima", "name_island": "斎島", "url_island": "https://ja.wikipedia.org/wiki/%E6%96%8E%E5%B3%B6", "name_municipality": "呉市", "url_municipality": "https://ja.wikipedia.org/wiki/%E5%91%89%E5%B8%82", "lat": 34.117444, "lon": 132.792722}, {"name_en": "iwashi_jima", "name_island": "岩子島", "url_island": "https://ja.wikipedia.org/wiki/%E5%B2%A9%E5%AD%90%E5%B3%B6", "name_municipality": "尾道市", "url_municipality": "https://ja.wikipedia.org/wiki/%E5%B0%BE%E9%81%93%E5%B8%82", "lat": 34.379917, "lon": 133.164361}, {"name_en": "innoshima", "name_island": "因島", "url_island": "https://ja.wikipedia.org/wiki/%E5%9B%A0%E5%B3%B6", "name_municipality": "尾道市", "url_municipality": "https://ja.wikipedia.org/wiki/%E5%B0%BE%E9%81%93%E5%B8%82", "lat": 34.316667, "lon": 133.166667}, {"name_en": "ushima_imabari", "name_island": "鵜島_今治", "url_island": "https://ja.wikipedia.org/wiki/%E9%B5%9C%E5%B3%B6_(%E4%BB%8A%E6%B2%BB%E5%B8%82)", "name_municipality": "今治市", "url_municipality": "https://ja.wikipedia.org/wiki/%E4%BB%8A%E6%B2%BB%E5%B8%82", "lat": 34.188056, "lon": 133.088056}, {"name_en": "umashima_ehime", "name_island": "馬島_愛媛", "url_island": "https://ja.wikipedia.org/wiki/%E9%A6%AC%E5%B3%B6_(%E6%84%9B%E5%AA%9B%E7%9C%8C)", "name_municipality": "今治市", "url_municipality": "https://ja.wikipedia.org/wiki/%E4%BB%8A%E6%B2%BB%E5%B8%82", "lat": 34.117167, "lon": 132.993167}, {"name_en": "etajima", "name_island": "江田島", "url_island": "https://ja.wikipedia.org/wiki/%E6%B1%9F%E7%94%B0%E5%B3%B6", "name_municipality": "江田島市", "url_municipality": "https://ja.wikipedia.org/wiki/%E6%B1%9F%E7%94%B0%E5%B3%B6%E5%B8%82", "lat": 34.246389, "lon": 132.477778}, {"name_en": "ookuno_jima", "name_island": "大久野島", "url_island": "https://ja.wikipedia.org/wiki/%E5%A4%A7%E4%B9%85%E9%87%8E%E5%B3%B6", "name_municipality": "竹原市", "url_municipality": "https://ja.wikipedia.org/wiki/%E7%AB%B9%E5%8E%9F%E5%B8%82", "lat": 34.309167, "lon": 132.993056}, {"name_en": "ookurokamishima", "name_island": "大黒神島", "url_island": "https://ja.wikipedia.org/wiki/%E5%A4%A7%E9%BB%92%E7%A5%9E%E5%B3%B6", "name_municipality": "江田島市", "url_municipality": "https://ja.wikipedia.org/wiki/%E6%B1%9F%E7%94%B0%E5%B3%B6%E5%B8%82", "lat": 34.160278, "lon": 132.398889}, {"name_en": "oosaki_kamijima", "name_island": "大崎上島", "url_island": "https://ja.wikipedia.org/wiki/%E5%A4%A7%E5%B4%8E%E4%B8%8A%E5%B3%B6", "name_municipality": "大崎上島町", "url_municipality": "https://ja.wikipedia.org/wiki/%E5%A4%A7%E5%B4%8E%E4%B8%8A%E5%B3%B6%E7%94%BA", "lat": 34.245278, "lon": 132.894722}, {"name_en": "oosaku_shimojima", "name_island": "大崎下島", "url_island": "https://ja.wikipedia.org/wiki/%E5%A4%A7%E5%B4%8E%E4%B8%8B%E5%B3%B6", "name_municipality": "大崎上島町", "url_municipality": "https://ja.wikipedia.org/wiki/%E5%A4%A7%E5%B4%8E%E4%B8%8A%E5%B3%B6%E7%94%BA", "lat": 34.173167, "lon": 132.829833}, {"name_en": "ooshiba_jima", "name_island": "大芝島", "url_island": "https://ja.wikipedia.org/wiki/%E5%A4%A7%E8%8A%9D%E5%B3%B6", "name_municipality": "東広島市", "url_municipality": "https://ja.wikipedia.org/wiki/%E6%9D%B1%E5%BA%83%E5%B3%B6%E5%B8%82", "lat": 34.275278, "lon": 132.801389}, {"name_en": "ooshima_imabari", "name_island": "大島_今治", "url_island": "https://ja.wikipedia.org/wiki/%E5%A4%A7%E5%B3%B6_(%E6%84%9B%E5%AA%9B%E7%9C%8C%E4%BB%8A%E6%B2%BB%E5%B8%82)", "name_municipality": "今治市", "url_municipality": "https://ja.wikipedia.org/wiki/%E4%BB%8A%E6%B2%BB%E5%B8%82", "lat": 34.152778, "lon": 133.058333}, {"name_en": "oomishima", "name_island": "大三島", "url_island": "https://ja.wikipedia.org/wiki/%E5%A4%A7%E4%B8%89%E5%B3%B6", "name_municipality": "今治市", "url_municipality": "https://ja.wikipedia.org/wiki/%E4%BB%8A%E6%B2%BB%E5%B8%82", "lat": 34.245278, "lon": 133.010778}, {"name_en": "okinoshima", "name_island": "沖野島", "url_island": "https://ja.wikipedia.org/wiki/%E6%B2%96%E9%87%8E%E5%B3%B6", "name_municipality": "江田島市", "url_municipality": "https://ja.wikipedia.org/wiki/%E6%B1%9F%E7%94%B0%E5%B3%B6%E5%B8%82", "lat": 34.1525, "lon": 132.435278}, {"name_en": "okubi_jima", "name_island": "屋久比島", "url_island": "https://ja.wikipedia.org/wiki/%E5%B1%8B%E4%B9%85%E6%AF%94%E5%B3%B6", "name_municipality": "呉市", "url_municipality": "https://ja.wikipedia.org/wiki/%E5%91%89%E5%B8%82", "lat": 34.153056, "lon": 132.766944}, {"name_en": "oshima_ehime", "name_island": "小島_愛媛", "url_island": "https://ja.wikipedia.org/wiki/%E5%B0%8F%E5%B3%B6_(%E6%84%9B%E5%AA%9B%E7%9C%8C)", "name_municipality": "今治市", "url_municipality": "https://ja.wikipedia.org/wiki/%E4%BB%8A%E6%B2%BB%E5%B8%82", "lat": 34.126111, "lon": 132.979722}, {"name_en": "kashima_1_hiroshima", "name_island": "加島_広島", "url_island": "https://ja.wikipedia.org/wiki/%E5%8A%A0%E5%B3%B6_(%E5%BA%83%E5%B3%B6%E7%9C%8C)", "name_municipality": "尾道市", "url_municipality": "https://ja.wikipedia.org/wiki/%E5%B0%BE%E9%81%93%E5%B8%82", "lat": 34.374806, "lon": 133.241694}, {"name_en": "kashima_2_hiroshima", "name_island": "鹿島_広島", "url_island": "https://ja.wikipedia.org/wiki/%E9%B9%BF%E5%B3%B6_(%E5%BA%83%E5%B3%B6%E7%9C%8C)", "name_municipality": "呉市", "url_municipality": "https://ja.wikipedia.org/wiki/%E5%91%89%E5%B8%82", "lat": 34.058611, "lon": 132.531111}, {"name_en": "kurahashi_jima", "name_island": "倉橋島", "url_island": "https://ja.wikipedia.org/wiki/%E5%80%89%E6%A9%8B%E5%B3%B6", "name_municipality": "呉市", "url_municipality": "https://ja.wikipedia.org/wiki/%E5%91%89%E5%B8%82", "lat": 34.133333, "lon": 132.525}, {"name_en": "kurushima", "name_island": "来島", "url_island": "https://ja.wikipedia.org/wiki/%E6%9D%A5%E5%B3%B6", "name_municipality": "今治市", "url_municipality": "https://ja.wikipedia.org/wiki/%E4%BB%8A%E6%B2%BB%E5%B8%82", "lat": 34.117944, "lon": 132.969389}, {"name_en": "kouneshima", "name_island": "高根島", "url_island": "https://ja.wikipedia.org/wiki/%E9%AB%98%E6%A0%B9%E5%B3%B6", "name_municipality": "尾道市", "url_municipality": "https://ja.wikipedia.org/wiki/%E5%B0%BE%E9%81%93%E5%B8%82", "lat": 34.316667, "lon": 133.072222}, {"name_en": "sagishima", "name_island": "佐木島", "url_island": "https://ja.wikipedia.org/wiki/%E4%BD%90%E6%9C%A8%E5%B3%B6", "name_municipality": "三原市", "url_municipality": "https://ja.wikipedia.org/wiki/%E4%B8%89%E5%8E%9F%E5%B8%82", "lat": 34.339444, "lon": 133.1105}, {"name_en": "kosagi_jima", "name_island": "小佐木島", "url_island": "https://ja.wikipedia.org/wiki/%E5%B0%8F%E4%BD%90%E6%9C%A8%E5%B3%B6", "name_municipality": "三原市", "url_municipality": "https://ja.wikipedia.org/wiki/%E4%B8%89%E5%8E%9F%E5%B8%82", "lat": 34.362694, "lon": 133.102972}, {"name_en": "sukune_jima", "name_island": "宿禰島", "url_island": "https://ja.wikipedia.org/wiki/%E5%AE%BF%E7%A6%B0%E5%B3%B6", "name_municipality": "三原市", "url_municipality": "https://ja.wikipedia.org/wiki/%E4%B8%89%E5%8E%9F%E5%B8%82", "lat": 34.367444, "lon": 133.11875}, {"name_en": "tashima_hiroshima", "name_island": "田島_広島", "url_island": "https://ja.wikipedia.org/wiki/%E7%94%B0%E5%B3%B6_(%E5%BA%83%E5%B3%B6%E7%9C%8C)", "name_municipality": "福山市", "url_municipality": "https://ja.wikipedia.org/wiki/%E7%A6%8F%E5%B1%B1%E5%B8%82", "lat": 34.360111, "lon": 133.314778}, {"name_en": "tsushima_imabari", "name_island": "津島_今治", "url_island": "https://ja.wikipedia.org/wiki/%E6%B4%A5%E5%B3%B6_(%E4%BB%8A%E6%B2%BB%E5%B8%82)", "name_municipality": "今治市", "url_municipality": "https://ja.wikipedia.org/wiki/%E4%BB%8A%E6%B2%BB%E5%B8%82", "lat": 34.15, "lon": 133.0}, {"name_en": "toyosima_hiroshima", "name_island": "豊島_広島", "url_island": "https://ja.wikipedia.org/wiki/%E8%B1%8A%E5%B3%B6_(%E5%BA%83%E5%B3%B6%E7%9C%8C)", "name_municipality": "呉市", "url_municipality": "https://ja.wikipedia.org/wiki/%E5%91%89%E5%B8%82", "lat": 34.176472, "lon": 132.783944}, {"name_en": "toyoshima_ehime", "name_island": "豊島_愛媛", "url_island": "https://ja.wikipedia.org/wiki/%E8%B1%8A%E5%B3%B6_(%E6%84%9B%E5%AA%9B%E7%9C%8C)", "name_municipality": "上島町", "url_municipality": "https://ja.wikipedia.org/wiki/%E4%B8%8A%E5%B3%B6%E7%94%BA", "lat": 34.231194, "lon": 133.259}, {"name_en": "nagashima_hiroshima", "name_island": "長島_広島", "url_island": "https://ja.wikipedia.org/wiki/%E9%95%B7%E5%B3%B6_(%E5%BA%83%E5%B3%B6%E7%9C%8C)", "name_municipality": "大崎上島町", "url_municipality": "https://ja.wikipedia.org/wiki/%E5%A4%A7%E5%B4%8E%E4%B8%8A%E5%B3%B6%E7%94%BA", "lat": 34.263722, "lon": 132.871556}, {"name_en": "nasakejima_hiroshima", "name_island": "情島_広島", "url_island": "https://ja.wikipedia.org/wiki/%E6%83%85%E5%B3%B6_(%E5%BA%83%E5%B3%B6%E7%9C%8C)", "name_municipality": "呉市", "url_municipality": "https://ja.wikipedia.org/wiki/%E5%91%89%E5%B8%82", "lat": 34.162, "lon": 132.575}, {"name_en": "nii_ooshima", "name_island": "新居大島", "url_island": "https://ja.wikipedia.org/wiki/%E6%96%B0%E5%B1%85%E5%A4%A7%E5%B3%B6", "name_municipality": "新居浜市", "url_municipality": "https://ja.wikipedia.org/wiki/%E6%96%B0%E5%B1%85%E6%B5%9C%E5%B8%82", "lat": 33.999391, "lon": 133.358136}, {"name_en": "noumishima", "name_island": "能美島", "url_island": "https://ja.wikipedia.org/wiki/%E8%83%BD%E7%BE%8E%E5%B3%B6", "name_municipality": "江田島市", "url_municipality": "https://ja.wikipedia.org/wiki/%E6%B1%9F%E7%94%B0%E5%B3%B6%E5%B8%82", "lat": 34.201389, "lon": 132.439167}, {"name_en": "hakata_jima", "name_island": "伯方島", "url_island": "https://ja.wikipedia.org/wiki/%E4%BC%AF%E6%96%B9%E5%B3%B6", "name_municipality": "今治市", "url_municipality": "https://ja.wikipedia.org/wiki/%E4%BB%8A%E6%B2%BB%E5%B8%82", "lat": 34.216667, "lon": 133.089167}, {"name_en": "hashiri_jima", "name_island": "走島", "url_island": "https://ja.wikipedia.org/wiki/%E8%B5%B0%E5%B3%B6", "name_municipality": "福山市", "url_municipality": "https://ja.wikipedia.org/wiki/%E7%A6%8F%E5%B1%B1%E5%B8%82", "lat": 34.343361, "lon": 133.439667}, {"name_en": "hiki_jima", "name_island": "比岐島", "url_island": "https://ja.wikipedia.org/wiki/%E6%AF%94%E5%B2%90%E5%B3%B6", "name_municipality": "今治市", "url_municipality": "https://ja.wikipedia.org/wiki/%E4%BB%8A%E6%B2%BB%E5%B8%82", "lat": 34.058611, "lon": 133.099444}, {"name_en": "hyoutan_jima", "name_island": "瓢箪島", "url_island": "https://ja.wikipedia.org/wiki/%E7%93%A2%E7%AE%AA%E5%B3%B6", "name_municipality": "今治市", "url_municipality": "https://ja.wikipedia.org/wiki/%E4%BB%8A%E6%B2%BB%E5%B8%82", "lat": 34.284722, "lon": 133.050278}, {"name_en": "houjyo_kashima", "name_island": "北条鹿島", "url_island": "https://ja.wikipedia.org/wiki/%E5%8C%97%E6%9D%A1%E9%B9%BF%E5%B3%B6", "name_municipality": "松山市", "url_municipality": "https://ja.wikipedia.org/wiki/%E6%9D%BE%E5%B1%B1%E5%B8%82", "lat": 33.973889, "lon": 132.763889}, {"name_en": "hosojima_hiroshima", "name_island": "細島_広島", "url_island": "https://ja.wikipedia.org/wiki/%E7%B4%B0%E5%B3%B6_(%E5%BA%83%E5%B3%B6%E7%9C%8C)", "name_municipality": "尾道市", "url_municipality": "https://ja.wikipedia.org/wiki/%E5%B0%BE%E9%81%93%E5%B8%82", "lat": 34.36475, "lon": 133.140167}, {"name_en": "kohoso_jima", "name_island": "小細島", "url_island": "https://ja.wikipedia.org/wiki/%E5%B0%8F%E7%B4%B0%E5%B3%B6", "name_municipality": "尾道市", "url_municipality": "https://ja.wikipedia.org/wiki/%E5%B0%BE%E9%81%93%E5%B8%82", "lat": 34.355, "lon": 133.140278}, {"name_en": "kago_jima", "name_island": "御籠島", "url_island": "https://ja.wikipedia.org/wiki/%E5%BE%A1%E7%B1%A0%E5%B3%B6", "name_municipality": "伊方町", "url_municipality": "https://ja.wikipedia.org/wiki/%E4%BC%8A%E6%96%B9%E7%94%BA", "lat": 33.34425, "lon": 132.013361}, {"name_en": "mikadoshima_hiroshima", "name_island": "三角島 (広島", "url_island": "https://ja.wikipedia.org/wiki/%E4%B8%89%E8%A7%92%E5%B3%B6_(%E5%BA%83%E5%B3%B6%E7%9C%8C)", "name_municipality": "呉市", "url_municipality": "https://ja.wikipedia.org/wiki/%E5%91%89%E5%B8%82", "lat": 34.191806, "lon": 132.813111}, {"name_en": "michika_jima", "name_island": "見近島", "url_island": "https://ja.wikipedia.org/wiki/%E8%A6%8B%E8%BF%91%E5%B3%B6", "name_municipality": "今治市", "url_municipality": "https://ja.wikipedia.org/wiki/%E4%BB%8A%E6%B2%BB%E5%B8%82", "lat": 34.195278, "lon": 133.075}, {"name_en": "mitsugojima_hiroshima", "name_island": "三ツ子島_広島", "url_island": "https://ja.wikipedia.org/wiki/%E4%B8%89%E3%83%84%E5%AD%90%E5%B3%B6_(%E5%BA%83%E5%B3%B6%E7%9C%8C)", "name_municipality": "呉市", "url_municipality": "https://ja.wikipedia.org/wiki/%E5%91%89%E5%B8%82", "lat": 34.195444, "lon": 132.513056}, {"name_en": "mukaishima_hiroshima", "name_island": "向島_広島", "url_island": "https://ja.wikipedia.org/wiki/%E5%90%91%E5%B3%B6_(%E5%BA%83%E5%B3%B6%E7%9C%8C)", "name_municipality": "尾道市", "url_municipality": "https://ja.wikipedia.org/wiki/%E5%B0%BE%E9%81%93%E5%B8%82", "lat": 34.383333, "lon": 133.2}, {"name_en": "momoshima_hiroshima", "name_island": "百島_広島", "url_island": "https://ja.wikipedia.org/wiki/%E7%99%BE%E5%B3%B6_(%E5%BA%83%E5%B3%B6%E7%9C%8C)", "name_municipality": "尾道市", "url_municipality": "https://ja.wikipedia.org/wiki/%E5%B0%BE%E9%81%93%E5%B8%82", "lat": 34.369444, "lon": 133.265556}, {"name_en": "yokoshima_fukuyama", "name_island": "横島_福山", "url_island": "https://ja.wikipedia.org/wiki/%E6%A8%AA%E5%B3%B6_(%E5%BA%83%E5%B3%B6%E7%9C%8C%E7%A6%8F%E5%B1%B1%E5%B8%82)", "name_municipality": "福山市", "url_municipality": "https://ja.wikipedia.org/wiki/%E7%A6%8F%E5%B1%B1%E5%B8%82", "lat": 34.344111, "lon": 133.274111}, {"name_en": "okamura_jima", "name_island": "岡村島", "url_island": "https://ja.wikipedia.org/wiki/%E5%B2%A1%E6%9D%91%E5%B3%B6", "name_municipality": "今治市", "url_municipality": "https://ja.wikipedia.org/wiki/%E4%BB%8A%E6%B2%BB%E5%B8%82", "lat": 34.187722, "lon": 132.878}, {"name_en": "oogeshima", "name_island": "大下島", "url_island": "https://ja.wikipedia.org/wiki/%E5%A4%A7%E4%B8%8B%E5%B3%B6", "name_municipality": "今治市", "url_municipality": "https://ja.wikipedia.org/wiki/%E4%BB%8A%E6%B2%BB%E5%B8%82", "lat": 34.192472, "lon": 132.924944}, {"name_en": "koogeshima", "name_island": "小大下島", "url_island": "https://ja.wikipedia.org/wiki/%E5%B0%8F%E5%A4%A7%E4%B8%8B%E5%B3%B6", "name_municipality": "今治市", "url_municipality": "https://ja.wikipedia.org/wiki/%E4%BB%8A%E6%B2%BB%E5%B8%82", "lat": 34.189972, "lon": 132.902167}]}