{"title": "List of Islands in Shimane", "title_ja": "島根県の島の一覧", "reference": "wikipedia: 島根県の島", "url_reference": "https://ja.wikipedia.org/wiki/Category:%E5%B3%B6%E6%A0%B9%E7%9C%8C%E3%81%AE%E5%B3%B6", "islands": [{"name_en": "sanshou_jima", "name_island": "三生島", "url_island": "https://ja.wikipedia.org/wiki/%E4%B8%89%E7%94%9F%E5%B3%B6", "name_municipality": "益田市", "url_municipality": "https://ja.wikipedia.org/wiki/%E7%9B%8A%E7%94%B0%E5%B8%82", "lat": 34.689444, "lon": 131.699167}, {"name_en": "takashima_shimane", "name_island": "高島_島根", "url_island": "https://ja.wikipedia.org/wiki/%E9%AB%98%E5%B3%B6_(%E5%B3%B6%E6%A0%B9%E7%9C%8C)", "name_municipality": "益田市", "url_municipality": "https://ja.wikipedia.org/wiki/%E7%9B%8A%E7%94%B0%E5%B8%82", "lat": 34.835, "lon": 131.838611}, {"name_en": "fumishima", "name_island": "経島", "url_island": "https://ja.wikipedia.org/wiki/%E7%B5%8C%E5%B3%B6", "name_municipality": "出雲市", "url_municipality": "https://ja.wikipedia.org/wiki/%E5%87%BA%E9%9B%B2%E5%B8%82", "lat": 35.430278, "lon": 132.626667}, {"name_en": "kataura_jima", "name_island": "桂島", "url_island": "", "name_municipality": "松江市", "url_municipality": "https://ja.wikipedia.org/wiki/%E6%9D%BE%E6%B1%9F%E5%B8%82", "lat": 35.5668654, "lon": 133.0511565}, {"name_en": "tsukishima", "name_island": "築島", "url_island": "", "name_municipality": "松江市", "url_municipality": "https://ja.wikipedia.org/wiki/%E6%9D%BE%E6%B1%9F%E5%B8%82", "lat": 35.591654, "lon": 133.1230784}, {"name_en": "kushima", "name_island": "久島", "url_island": "", "name_municipality": "松江市", "url_municipality": "https://ja.wikipedia.org/wiki/%E6%9D%BE%E6%B1%9F%E5%B8%82", "lat": 35.5803498, "lon": 133.240135}, {"name_en": "yana_jima", "name_island": "矢箆島", "url_island": "", "name_municipality": "浜田市", "url_municipality": "https://ja.wikipedia.org/wiki/%E6%B5%9C%E7%94%B0%E5%B8%82", "lat": 34.8979022, "lon": 132.0510562}, {"name_en": "uma_jima", "name_island": "馬島", "url_island": "", "name_municipality": "浜田市", "url_municipality": "https://ja.wikipedia.org/wiki/%E6%B5%9C%E7%94%B0%E5%B8%82", "lat": 34.9037099, "lon": 132.048472}, {"name_en": "shirashima", "name_island": "白島", "url_island": "", "name_municipality": "隠岐の島町", "url_municipality": "https://ja.wikipedia.org/wiki/%E9%9A%A0%E5%B2%90%E3%81%AE%E5%B3%B6%E7%94%BA", "lat": 36.3526796, "lon": 133.280433}, {"name_en": "matsushima_1", "name_island": "松島_1", "url_island": "", "name_municipality": "隠岐の島町", "url_municipality": "https://ja.wikipedia.org/wiki/%E9%9A%A0%E5%B2%90%E3%81%AE%E5%B3%B6%E7%94%BA", "lat": 36.3500691, "lon": 133.2761243}, {"name_en": "matsushima_2", "name_island": "松島_2", "url_island": "", "name_municipality": "隠岐の島町", "url_municipality": "https://ja.wikipedia.org/wiki/%E9%9A%A0%E5%B2%90%E3%81%AE%E5%B3%B6%E7%94%BA", "lat": 36.1576744, "lon": 133.2533527}, {"name_en": "matsushima_3", "name_island": "松島_3", "url_island": "", "name_municipality": "海士町", "url_municipality": "https://ja.wikipedia.org/wiki/%E6%B5%B7%E5%A3%AB%E7%94%BA", "lat": 36.1066323, "lon": 133.1634271}, {"name_en": "oomori_jima", "name_island": "大森島", "url_island": "", "name_municipality": "隠岐の島町", "url_municipality": "https://ja.wikipedia.org/wiki/%E9%9A%A0%E5%B2%90%E3%81%AE%E5%B3%B6%E7%94%BA", "lat": 36.1361101, "lon": 133.17424}, {"name_en": "oohaka_jima", "name_island": "大波加島", "url_island": "", "name_municipality": "知夫村", "url_municipality": "https://ja.wikipedia.org/wiki/%E7%9F%A5%E5%A4%AB%E6%9D%91", "lat": 35.9965866, "lon": 133.077572}, {"name_en": "shimazu_jima", "name_island": "島津島", "url_island": "", "name_municipality": "知夫村", "url_municipality": "https://ja.wikipedia.org/wiki/%E7%9F%A5%E5%A4%AB%E6%9D%91", "lat": 35.99827, "lon": 133.050972}, {"name_en": "ojima_oki", "name_island": "男島_隠岐", "url_island": "https://ja.wikipedia.org/wiki/%E7%94%B7%E5%B3%B6_(%E5%B3%B6%E6%A0%B9%E7%9C%8C%E9%9A%A0%E5%B2%90%E3%81%AE%E5%B3%B6%E7%94%BA)", "name_municipality": "隠岐の島町", "url_municipality": "https://ja.wikipedia.org/wiki/%E9%9A%A0%E5%B2%90%E3%81%AE%E5%B3%B6%E7%94%BA", "lat": 37.241806, "lon": 131.865167}, {"name_en": "mejima_oki", "name_island": "女島_隠岐", "url_island": "https://ja.wikipedia.org/wiki/%E5%A5%B3%E5%B3%B6_(%E5%B3%B6%E6%A0%B9%E7%9C%8C%E9%9A%A0%E5%B2%90%E3%81%AE%E5%B3%B6%E7%94%BA)", "name_municipality": "隠岐の島町", "url_municipality": "https://ja.wikipedia.org/wiki/%E9%9A%A0%E5%B2%90%E3%81%AE%E5%B3%B6%E7%94%BA", "lat": 37.240778, "lon": 131.869583}, {"name_en": "chiburi_jima", "name_island": "知夫里島", "url_island": "https://ja.wikipedia.org/wiki/%E7%9F%A5%E5%A4%AB%E9%87%8C%E5%B3%B6", "name_municipality": "知夫村", "url_municipality": "https://ja.wikipedia.org/wiki/%E7%9F%A5%E5%A4%AB%E6%9D%91", "lat": 36.016667, "lon": 133.033333}, {"name_en": "nishinoshima", "name_island": "西ノ島", "url_island": "https://ja.wikipedia.org/wiki/%E8%A5%BF%E3%83%8E%E5%B3%B6", "name_municipality": "西ノ島町", "url_municipality": "https://ja.wikipedia.org/wiki/%E8%A5%BF%E3%83%8E%E5%B3%B6%E7%94%BA", "lat": 36.1, "lon": 132.983333}, {"name_en": "nakanoshima_shimane", "name_island": "中ノ島_島根", "url_island": "https://ja.wikipedia.org/wiki/%E4%B8%AD%E3%83%8E%E5%B3%B6_(%E5%B3%B6%E6%A0%B9%E7%9C%8C)", "name_municipality": "海士町", "url_municipality": "https://ja.wikipedia.org/wiki/%E6%B5%B7%E5%A3%AB%E7%94%BA", "lat": 36.083333, "lon": 133.1}, {"name_en": "dougo", "name_island": "島後", "url_island": "https://ja.wikipedia.org/wiki/%E5%B3%B6%E5%BE%8C", "name_municipality": "隠岐の島町", "url_municipality": "https://ja.wikipedia.org/wiki/%E9%9A%A0%E5%B2%90%E3%81%AE%E5%B3%B6%E7%94%BA", "lat": 36.233333, "lon": 133.283333}, {"name_en": "rohsoku_jima", "name_island": "ローソク島", "url_island": "https://ja.wikipedia.org/wiki/%E3%83%AD%E3%83%BC%E3%82%BD%E3%82%AF%E5%B3%B6", "name_municipality": "隠岐の島町", "url_municipality": "https://ja.wikipedia.org/wiki/%E9%9A%A0%E5%B2%90%E3%81%AE%E5%B3%B6%E7%94%BA", "lat": 36.312361, "lon": 133.210611}]}