{"title": "List of Islands in Ehime", "title_ja": "愛媛県の島の一覧", "reference": "wikipedia: 愛媛県の島", "url_reference": "https://ja.wikipedia.org/wiki/Category:%E6%84%9B%E5%AA%9B%E7%9C%8C%E3%81%AE%E5%B3%B6", "islands": [{"name_en": "awajishima", "name_island": "淡路島", "url_island": "https://ja.wikipedia.org/wiki/%E6%B7%A1%E8%B7%AF%E5%B3%B6", "name_municipality": "淡路市", "url_municipality": "https://ja.wikipedia.org/wiki/%E6%B7%A1%E8%B7%AF%E5%B8%82", "lat": 34.36305701, "lon": 134.8385311}, {"name_en": "ootabu_jima", "name_island": "大多府島", "url_island": "https://ja.wikipedia.org/wiki/%E5%A4%A7%E5%A4%9A%E5%BA%9C%E5%B3%B6", "name_municipality": "備前市", "url_municipality": "https://ja.wikipedia.org/wiki/%E5%82%99%E5%89%8D%E5%B8%82", "lat": 34.682694, "lon": 134.296611}, {"name_en": "kakui_jima", "name_island": "鹿久居島", "url_island": "https://ja.wikipedia.org/wiki/%E9%B9%BF%E4%B9%85%E5%B1%85%E5%B3%B6", "name_municipality": "備前市", "url_municipality": "https://ja.wikipedia.org/wiki/%E5%82%99%E5%89%8D%E5%B8%82", "lat": 34.719306, "lon": 134.30475}, {"name_en": "kashira_jima", "name_island": "頭島", "url_island": "https://ja.wikipedia.org/wiki/%E9%A0%AD%E5%B3%B6", "name_municipality": "備前市", "url_municipality": "https://ja.wikipedia.org/wiki/%E5%82%99%E5%89%8D%E5%B8%82", "lat": 34.74517, "lon": 134.18883}, {"name_en": "kubikiri_jima", "name_island": "首切島", "url_island": "https://ja.wikipedia.org/wiki/%E9%A6%96%E5%88%87%E5%B3%B6", "name_municipality": "備前市", "url_municipality": "https://ja.wikipedia.org/wiki/%E5%82%99%E5%89%8D%E5%B8%82", "lat": 34.704167, "lon": 134.310278}, {"name_en": "koujima", "name_island": "鴻島", "url_island": "https://ja.wikipedia.org/wiki/%E9%B4%BB%E5%B3%B6", "name_municipality": "備前市", "url_municipality": "https://ja.wikipedia.org/wiki/%E5%82%99%E5%89%8D%E5%B8%82", "lat": 34.699278, "lon": 134.257556}, {"name_en": "soshima", "name_island": "曽島", "url_island": "https://ja.wikipedia.org/wiki/%E6%9B%BD%E5%B3%B6", "name_municipality": "備前市", "url_municipality": "https://ja.wikipedia.org/wiki/%E5%82%99%E5%89%8D%E5%B8%82", "lat": 34.711111, "lon": 134.258333}, {"name_en": "tsurushima", "name_island": "鶴島", "url_island": "https://ja.wikipedia.org/wiki/%E9%B6%B4%E5%B3%B6", "name_municipality": "備前市", "url_municipality": "https://ja.wikipedia.org/wiki/%E5%82%99%E5%89%8D%E5%B8%82", "lat": 34.69567, "lon": 134.321199}, {"name_en": "toriage_jima", "name_island": "取揚島", "url_island": "https://ja.wikipedia.org/wiki/%E5%8F%96%E6%8F%9A%E5%B3%B6", "name_municipality": "赤穂市", "url_municipality": "https://ja.wikipedia.org/wiki/%E8%B5%A4%E7%A9%82%E5%B8%82", "lat": 34.719917, "lon": 134.38175}, {"name_en": "nagashima_okayama", "name_island": "長島_岡山", "url_island": "https://ja.wikipedia.org/wiki/%E9%95%B7%E5%B3%B6_(%E5%B2%A1%E5%B1%B1%E7%9C%8C)", "name_municipality": "瀬戸内市", "url_municipality": "https://ja.wikipedia.org/wiki/%E7%80%AC%E6%88%B8%E5%86%85%E5%B8%82", "lat": 34.675388, "lon": 134.242195}, {"name_en": "ieshima", "name_island": "家島", "url_island": "https://ja.wikipedia.org/wiki/%E5%AE%B6%E5%B3%B6", "name_municipality": "姫路市", "url_municipality": "https://ja.wikipedia.org/wiki/%E5%A7%AB%E8%B7%AF%E5%B8%82", "lat": 34.671417, "lon": 134.528167}, {"name_en": "tangashima", "name_island": "男鹿島", "url_island": "https://ja.wikipedia.org/wiki/%E7%94%B7%E9%B9%BF%E5%B3%B6", "name_municipality": "姫路市", "url_municipality": "https://ja.wikipedia.org/wiki/%E5%A7%AB%E8%B7%AF%E5%B8%82", "lat": 34.664833, "lon": 134.574944}, {"name_en": "nishijima_hyogo", "name_island": "西島_兵庫", "url_island": "https://ja.wikipedia.org/wiki/%E8%A5%BF%E5%B3%B6_(%E5%85%B5%E5%BA%AB%E7%9C%8C)", "name_municipality": "姫路市", "url_municipality": "https://ja.wikipedia.org/wiki/%E5%A7%AB%E8%B7%AF%E5%B8%82", "lat": 34.654444, "lon": 134.477892}, {"name_en": "bouze_jima", "name_island": "坊勢島", "url_island": "https://ja.wikipedia.org/wiki/%E5%9D%8A%E5%8B%A2%E5%B3%B6", "name_municipality": "姫路市", "url_municipality": "https://ja.wikipedia.org/wiki/%E5%A7%AB%E8%B7%AF%E5%B8%82", "lat": 34.645972, "lon": 134.507306}]}