{"title": "List of Islands in Hyogo", "title_ja": "兵庫県の島の一覧", "reference": "wikipedia: 兵庫県の島", "url_reference": "https://ja.wikipedia.org/wiki/Category:%E5%85%B5%E5%BA%AB%E7%9C%8C%E3%81%AE%E5%B3%B6", "islands": [{"name_en": "awajishima", "name_island": "淡路島", "url_island": "https://ja.wikipedia.org/wiki/%E6%B7%A1%E8%B7%AF%E5%B3%B6", "name_municipality": "淡路市", "url_municipality": "https://ja.wikipedia.org/wiki/%E6%B7%A1%E8%B7%AF%E5%B8%82", "lat": 34.36305701, "lon": 134.8385311}, {"name_en": "ie_jima", "name_island": "家島", "url_island": "https://ja.wikipedia.org/wiki/%E5%AE%B6%E5%B3%B6", "name_municipality": "姫路市", "url_municipality": "https://ja.wikipedia.org/wiki/%E5%A7%AB%E8%B7%AF%E5%B8%82", "lat": 34.671417, "lon": 134.528167}, {"name_en": "ikishima", "name_island": "生島", "url_island": "https://ja.wikipedia.org/wiki/%E7%94%9F%E5%B3%B6", "name_municipality": "赤穂市", "url_municipality": "https://ja.wikipedia.org/wiki/%E8%B5%A4%E7%A9%82%E5%B8%82", "lat": 34.763122, "lon": 134.435856}, {"name_en": "kamitategamiiwa", "name_island": "上立神岩", "url_island": "https://ja.wikipedia.org/wiki/%E4%B8%8A%E7%AB%8B%E7%A5%9E%E5%B2%A9", "name_municipality": "南あわじ市", "url_municipality": "https://ja.wikipedia.org/wiki/%E5%8D%97%E3%81%82%E3%82%8F%E3%81%98%E5%B8%82", "lat": 34.162333, "lon": 134.828444}, {"name_en": "kobe_airport", "name_island": "神戸空港", "url_island": "https://ja.wikipedia.org/wiki/%E7%A5%9E%E6%88%B8%E7%A9%BA%E6%B8%AF", "name_municipality": "神戸市", "url_municipality": "https://ja.wikipedia.org/wiki/%E7%A5%9E%E6%88%B8%E5%B8%82", "lat": 34.632778, "lon": 135.223889}, {"name_en": "tanga_jima", "name_island": "男鹿島", "url_island": "https://ja.wikipedia.org/wiki/%E7%94%B7%E9%B9%BF%E5%B3%B6", "name_municipality": "姫路市", "url_municipality": "https://ja.wikipedia.org/wiki/%E5%A7%AB%E8%B7%AF%E5%B8%82", "lat": 34.6645919, "lon": 134.5758864}, {"name_en": "toriage_jima", "name_island": "取揚島", "url_island": "https://ja.wikipedia.org/wiki/%E5%8F%96%E6%8F%9A%E5%B3%B6", "name_municipality": "赤穂市", "url_municipality": "https://ja.wikipedia.org/wiki/%E8%B5%A4%E7%A9%82%E5%B8%82", "lat": 34.719917, "lon": 134.38175}, {"name_en": "nishijima_hyogo", "name_island": "西島_兵庫", "url_island": "https://ja.wikipedia.org/wiki/%E8%A5%BF%E5%B3%B6_(%E5%85%B5%E5%BA%AB%E7%9C%8C)", "name_municipality": "姫路市", "url_municipality": "https://ja.wikipedia.org/wiki/%E5%A7%AB%E8%B7%AF%E5%B8%82", "lat": 34.654444, "lon": 134.477892}, {"name_en": "nushima", "name_island": "沼島", "url_island": "https://ja.wikipedia.org/wiki/%E6%B2%BC%E5%B3%B6", "name_municipality": "南あわじ市", "url_municipality": "https://ja.wikipedia.org/wiki/%E5%8D%97%E3%81%82%E3%82%8F%E3%81%98%E5%B8%82", "lat": 34.168056, "lon": 134.825833}, {"name_en": "bentenjima_minamiawaji", "name_island": "弁天島_南あわじ", "url_island": "https://ja.wikipedia.org/wiki/%E5%BC%81%E5%A4%A9%E5%B3%B6_(%E5%8D%97%E3%81%82%E3%82%8F%E3%81%98%E5%B8%82)", "name_municipality": "南あわじ市", "url_municipality": "https://ja.wikipedia.org/wiki/%E5%8D%97%E3%81%82%E3%82%8F%E3%81%98%E5%B8%82", "lat": 34.291472, "lon": 134.654083}, {"name_en": "bouze_jima", "name_island": "坊勢島", "url_island": "https://ja.wikipedia.org/wiki/%E5%9D%8A%E5%8B%A2%E5%B3%B6", "name_municipality": "姫路市", "url_municipality": "https://ja.wikipedia.org/wiki/%E5%A7%AB%E8%B7%AF%E5%B8%82", "lat": 34.645972, "lon": 134.507306}, {"name_en": "port_island", "name_island": "ポートアイランド", "url_island": "https://ja.wikipedia.org/wiki/%E3%83%9D%E3%83%BC%E3%83%88%E3%82%A2%E3%82%A4%E3%83%A9%E3%83%B3%E3%83%89", "name_municipality": "神戸市", "url_municipality": "https://ja.wikipedia.org/wiki/%E7%A5%9E%E6%88%B8%E5%B8%82", "lat": 34.665, "lon": 135.2125}, {"name_en": "rokkou_island", "name_island": "六甲アイランド", "url_island": "https://ja.wikipedia.org/wiki/%E5%85%AD%E7%94%B2%E3%82%A2%E3%82%A4%E3%83%A9%E3%83%B3%E3%83%89", "name_municipality": "神戸市", "url_municipality": "https://ja.wikipedia.org/wiki/%E7%A5%9E%E6%88%B8%E5%B8%82", "lat": 34.689167, "lon": 135.269306}, {"name_en": "narugashima", "name_island": "成ヶ島", "url_island": "https://ja.wikipedia.org/wiki/%E6%88%90%E3%83%B6%E5%B3%B6", "name_municipality": "洲本市", "url_municipality": "https://ja.wikipedia.org/wiki/%E6%B4%B2%E6%9C%AC%E5%B8%82", "lat": 34.289444, "lon": 134.952778}, {"name_en": "yurakou_hyogo", "name_island": "由良港_兵庫", "url_island": "https://ja.wikipedia.org/wiki/%E7%94%B1%E8%89%AF%E6%B8%AF_(%E5%85%B5%E5%BA%AB%E7%9C%8C)", "name_municipality": "洲本市", "url_municipality": "https://ja.wikipedia.org/wiki/%E6%B4%B2%E6%9C%AC%E5%B8%82", "lat": 34.2781442, "lon": 134.9577549}, {"name_en": "shizuki_niijima", "name_island": "志筑新島", "url_island": "", "name_municipality": "淡路市", "url_municipality": "https://ja.wikipedia.org/wiki/%E6%B7%A1%E8%B7%AF%E5%B8%82", "lat": 34.4234852, "lon": 134.9024924}, {"name_en": "kuroshima", "name_island": "黒島", "url_island": "", "name_municipality": "姫路市", "url_municipality": "https://ja.wikipedia.org/wiki/%E5%A7%AB%E8%B7%AF%E5%B8%82", "lat": 34.6442464, "lon": 134.531953}, {"name_en": "takashima", "name_island": "髙島", "url_island": "", "name_municipality": "姫路市", "url_municipality": "https://ja.wikipedia.org/wiki/%E5%A7%AB%E8%B7%AF%E5%B8%82", "lat": 34.588056, "lon": 34.6328509}, {"name_en": "ingeshima", "name_island": "院下島", "url_island": "https://ja.wikipedia.org/wiki/%E5%AE%B6%E5%B3%B6%E8%AB%B8%E5%B3%B6", "name_municipality": "姫路市", "url_municipality": "https://ja.wikipedia.org/wiki/%E5%A7%AB%E8%B7%AF%E5%B8%82", "lat": 34.6504238, "lon": 134.4375636}, {"name_en": "kashima", "name_island": "加島", "url_island": "", "name_municipality": "姫路市", "url_municipality": "https://ja.wikipedia.org/wiki/%E5%A7%AB%E8%B7%AF%E5%B8%82", "lat": 34.6413677, "lon": 134.585717}, {"name_en": "futoshima", "name_island": "太島", "url_island": "https://ja.wikipedia.org/wiki/%E5%AE%B6%E5%B3%B6%E8%AB%B8%E5%B3%B6", "name_municipality": "姫路市", "url_municipality": "https://ja.wikipedia.org/wiki/%E5%A7%AB%E8%B7%AF%E5%B8%82", "lat": 34.6773544, "lon": 134.60896765}, {"name_en": "kurakake_jima", "name_island": "クラ掛島", "url_island": "https://ja.wikipedia.org/wiki/%E5%AE%B6%E5%B3%B6%E8%AB%B8%E5%B3%B6", "name_municipality": "姫路市", "url_municipality": "https://ja.wikipedia.org/wiki/%E5%A7%AB%E8%B7%AF%E5%B8%82", "lat": 34.6853216, "lon": 134.63828643}, {"name_en": "usugaura", "name_island": "臼ヶ浦島", "url_island": "", "name_municipality": "香美町", "url_municipality": "https://ja.wikipedia.org/wiki/%E9%A6%99%E7%BE%8E%E7%94%BA", "lat": 35.6632791, "lon": 134.6722945}, {"name_en": "matsushima_himeji", "name_island": "松島_姫路", "url_island": "", "name_municipality": "姫路市", "url_municipality": "https://ja.wikipedia.org/wiki/%E5%A7%AB%E8%B7%AF%E5%B8%82", "lat": 34.5966072, "lon": 134.4808569}, {"name_en": "takashima", "name_island": "鷹島", "url_island": "https://ja.wikipedia.org/wiki/%E5%AE%B6%E5%B3%B6%E8%AB%B8%E5%B3%B6", "name_municipality": "姫路市", "url_municipality": "https://ja.wikipedia.org/wiki/%E5%A7%AB%E8%B7%AF%E5%B8%82", "lat": 34.63285, "lon": 134.498828}]}